{
"type": "FeatureCollection",
"name": "geo_02_介護老人福祉施設",
"crs": { "type": "name", "properties": { "name": "urn:ogc:def:crs:OGC:1.3:CRS84" } },
"features": [
{ "type": "Feature", "properties": { "内容": "特別養護老人ホーム三思園【介護老人福祉施設】青森県青森市大字横内字若草1番地1", "url2": "https://www.kaigokensaku.mhlw.go.jp/02/index.php?action_kouhyou_detail_004_kani=true&JigyosyoCd=0270100241-00&ServiceCd=510&Type=search" }, "geometry": { "type": "Point", "coordinates": [ 140.7608871, 40.7848702 ] } },
{ "type": "Feature", "properties": { "内容": "鶴ヶ丘苑【介護老人福祉施設】青森県青森市大字新城字平岡746番地", "url2": "https://www.kaigokensaku.mhlw.go.jp/02/index.php?action_kouhyou_detail_004_kani=true&JigyosyoCd=0270100316-00&ServiceCd=510&Type=search" }, "geometry": { "type": "Point", "coordinates": [ 140.6650942, 40.8022334 ] } },
{ "type": "Feature", "properties": { "内容": "特別養護老人ホーム　寿幸園【介護老人福祉施設】青森市大字高田字川瀬186番地１", "url2": "https://www.kaigokensaku.mhlw.go.jp/02/index.php?action_kouhyou_detail_004_kani=true&JigyosyoCd=0270100407-00&ServiceCd=510&Type=search" }, "geometry": { "type": "Point", "coordinates": [ 140.723610399999984, 40.768016 ] } },
{ "type": "Feature", "properties": { "内容": "特別養護老人ホーム　正寿園【介護老人福祉施設】青森市大字田茂木野字阿部野６３－２", "url2": "https://www.kaigokensaku.mhlw.go.jp/02/index.php?action_kouhyou_detail_004_kani=true&JigyosyoCd=0270100654-00&ServiceCd=510&Type=search" }, "geometry": { "type": "Point", "coordinates": [ 140.800028600000019, 40.7669734 ] } },
{ "type": "Feature", "properties": { "内容": "特別養護老人ホーム　和幸園【介護老人福祉施設】青森市大字矢田字下野尻48-3", "url2": "https://www.kaigokensaku.mhlw.go.jp/02/index.php?action_kouhyou_detail_004_kani=true&JigyosyoCd=0270100670-00&ServiceCd=510&Type=search" }, "geometry": { "type": "Point", "coordinates": [ 140.848323700000037, 40.8469938 ] } },
{ "type": "Feature", "properties": { "内容": "特別養護老人ホーム　雲谷ホーム【介護老人福祉施設】青森市大字雲谷字山吹92番地170", "url2": "https://www.kaigokensaku.mhlw.go.jp/02/index.php?action_kouhyou_detail_004_kani=true&JigyosyoCd=0270100704-00&ServiceCd=510&Type=search" }, "geometry": { "type": "Point", "coordinates": [ 140.783712299999934, 40.7393953 ] } },
{ "type": "Feature", "properties": { "内容": "特別養護老人ホーム　藤の園【介護老人福祉施設】青森県青森市大字駒込字蛍沢　387番地1", "url2": "https://www.kaigokensaku.mhlw.go.jp/02/index.php?action_kouhyou_detail_004_kani=true&JigyosyoCd=0270100878-00&ServiceCd=510&Type=search" }, "geometry": { "type": "Point", "coordinates": [ 140.813121, 40.7926241 ] } },
{ "type": "Feature", "properties": { "内容": "指定介護老人福祉施設　樹の里【介護老人福祉施設】青森市大字諏訪沢字丸山56番地１", "url2": "https://www.kaigokensaku.mhlw.go.jp/02/index.php?action_kouhyou_detail_004_kani=true&JigyosyoCd=0270100902-00&ServiceCd=510&Type=search" }, "geometry": { "type": "Point", "coordinates": [ 140.833076600000027, 40.8199215 ] } },
{ "type": "Feature", "properties": { "内容": "特別養護老人ホーム　朝光苑【介護老人福祉施設】青森県青森市大字横内字亀井２４５番地１", "url2": "https://www.kaigokensaku.mhlw.go.jp/02/index.php?action_kouhyou_detail_004_kani=true&JigyosyoCd=0270101595-00&ServiceCd=510&Type=search" }, "geometry": { "type": "Point", "coordinates": [ 140.766712, 40.77118 ] } },
{ "type": "Feature", "properties": { "内容": "特別養護老人ホーム　かいふう【介護老人福祉施設】青森県青森市大字久栗坂字山辺８９－１０", "url2": "https://www.kaigokensaku.mhlw.go.jp/02/index.php?action_kouhyou_detail_004_kani=true&JigyosyoCd=0270102064-00&ServiceCd=510&Type=search" }, "geometry": { "type": "Point", "coordinates": [ 140.8523639, 40.8774682 ] } },
{ "type": "Feature", "properties": { "内容": "特別養護老人ホーム外ヶ浜荘【介護老人福祉施設】青森県青森市大字奥内字宮田５６４－２", "url2": "https://www.kaigokensaku.mhlw.go.jp/02/index.php?action_kouhyou_detail_004_kani=true&JigyosyoCd=0270103260-00&ServiceCd=510&Type=search" }, "geometry": { "type": "Point", "coordinates": [ 140.671214461326599, 40.889442400000028 ] } },
{ "type": "Feature", "properties": { "内容": "特別養護⽼⼈ホーム正寿園【介護老人福祉施設】⻘森市⼤字⽥茂⽊野字阿部野63-2", "url2": "https://www.kaigokensaku.mhlw.go.jp/02/index.php?action_kouhyou_detail_004_kani=true&JigyosyoCd=0270104532-00&ServiceCd=510&Type=search" }, "geometry": { "type": "Point", "coordinates": [ 135.515055699999948, 34.6454938 ] } },
{ "type": "Feature", "properties": { "内容": "特別養護老人ホームゆうゆう荘【介護老人福祉施設】青森県青森市浪岡大字樽沢字村元３３０－７", "url2": "https://www.kaigokensaku.mhlw.go.jp/02/index.php?action_kouhyou_detail_004_kani=true&JigyosyoCd=0272300104-00&ServiceCd=510&Type=search" }, "geometry": { "type": "Point", "coordinates": [ 140.558306600000037, 40.7127337 ] } },
{ "type": "Feature", "properties": { "内容": "特別養護老人ホームつるがさか【介護老人福祉施設】青森県青森市大字鶴ヶ坂字田川187－94", "url2": "https://www.kaigokensaku.mhlw.go.jp/02/index.php?action_kouhyou_detail_004_kani=true&JigyosyoCd=0270103989-00&ServiceCd=510&Type=search" }, "geometry": { "type": "Point", "coordinates": [ 140.6283373, 40.7873948 ] } },
{ "type": "Feature", "properties": { "内容": "特別養護老人ホーム　サンアップルホーム【介護老人福祉施設】弘前市大字高杉字尾上山３５０", "url2": "https://www.kaigokensaku.mhlw.go.jp/02/index.php?action_kouhyou_detail_004_kani=true&JigyosyoCd=0270200827-00&ServiceCd=510&Type=search" }, "geometry": { "type": "Point", "coordinates": [ 140.381580900000017, 40.6724358 ] } },
{ "type": "Feature", "properties": { "内容": "特別養護老人ホーム　サンアップルホーム【介護老人福祉施設】青森県弘前市浜の町東五丁目24番地3", "url2": "https://www.kaigokensaku.mhlw.go.jp/02/index.php?action_kouhyou_detail_004_kani=true&JigyosyoCd=0270204548-00&ServiceCd=510&Type=search" }, "geometry": { "type": "Point", "coordinates": [ 140.465020900000013, 40.6224951 ] } },
{ "type": "Feature", "properties": { "内容": "特別養護老人ホーム　弘前静光園【介護老人福祉施設】青森県弘前市大字豊原一丁目1番地２特別養護老人ホーム　弘前静光園", "url2": "https://www.kaigokensaku.mhlw.go.jp/02/index.php?action_kouhyou_detail_004_kani=true&JigyosyoCd=0270200785-00&ServiceCd=510&Type=search" }, "geometry": { "type": "Point", "coordinates": [ 140.4757088, 40.5843432 ] } },
{ "type": "Feature", "properties": { "内容": "特別養護老人ホーム　　福寿園【介護老人福祉施設】青森県弘前市大字福村字新舘添50-8特別養護老人ホーム福寿園", "url2": "https://www.kaigokensaku.mhlw.go.jp/02/index.php?action_kouhyou_detail_004_kani=true&JigyosyoCd=0270200793-00&ServiceCd=510&Type=search" }, "geometry": { "type": "Point", "coordinates": [ 140.516434, 40.6064283 ] } },
{ "type": "Feature", "properties": { "内容": "弘前特別養護老人ホーム【介護老人福祉施設】青森県弘前市自由ヶ丘５－５－３", "url2": "https://www.kaigokensaku.mhlw.go.jp/02/index.php?action_kouhyou_detail_004_kani=true&JigyosyoCd=0270200801-00&ServiceCd=510&Type=search" }, "geometry": { "type": "Point", "coordinates": [ 140.436733499999946, 40.5822121 ] } },
{ "type": "Feature", "properties": { "内容": "特別養護老人ホーム　白寿園【介護老人福祉施設】青森県弘前市大字大沢字稲元3番地2", "url2": "https://www.kaigokensaku.mhlw.go.jp/02/index.php?action_kouhyou_detail_004_kani=true&JigyosyoCd=0270200819-00&ServiceCd=510&Type=search" }, "geometry": { "type": "Point", "coordinates": [ 140.51632010000003, 40.5581117 ] } },
{ "type": "Feature", "properties": { "内容": "特別養護老人ホーム　おうよう園【介護老人福祉施設】青森県弘前市大字城南五丁目１３番地１５", "url2": "https://www.kaigokensaku.mhlw.go.jp/02/index.php?action_kouhyou_detail_004_kani=true&JigyosyoCd=0270200835-00&ServiceCd=510&Type=search" }, "geometry": { "type": "Point", "coordinates": [ 140.46097771163943, 40.578456833562186 ] } },
{ "type": "Feature", "properties": { "内容": "介護老人福祉施設　特別養護老人ホーム　松山荘【介護老人福祉施設】青森県弘前市大字一町田字浅井443番地1", "url2": "https://www.kaigokensaku.mhlw.go.jp/02/index.php?action_kouhyou_detail_004_kani=true&JigyosyoCd=0272200197-00&ServiceCd=510&Type=search" }, "geometry": { "type": "Point", "coordinates": [ 140.41945465527192, 40.609977766077847 ] } },
{ "type": "Feature", "properties": { "内容": "特別養護老人ホーム長慶苑【介護老人福祉施設】青森県弘前市大字坂市字亀田53番地3", "url2": "https://www.kaigokensaku.mhlw.go.jp/02/index.php?action_kouhyou_detail_004_kani=true&JigyosyoCd=0272200205-00&ServiceCd=510&Type=search" }, "geometry": { "type": "Point", "coordinates": [ 140.379922699999952, 40.5737391 ] } },
{ "type": "Feature", "properties": { "内容": "特別養護老人ホーム　弘前大清水ホーム【介護老人福祉施設】青森県弘前市大字清原四丁目9番地2", "url2": "https://www.kaigokensaku.mhlw.go.jp/02/index.php?action_kouhyou_detail_004_kani=true&JigyosyoCd=0270200587-00&ServiceCd=510&Type=search" }, "geometry": { "type": "Point", "coordinates": [ 140.490530400000011, 40.5780163 ] } },
{ "type": "Feature", "properties": { "内容": "特別養護老人ホーム三和園【介護老人福祉施設】青森県弘前市大字茜町二丁目1番地2", "url2": "https://www.kaigokensaku.mhlw.go.jp/02/index.php?action_kouhyou_detail_004_kani=true&JigyosyoCd=0270200702-00&ServiceCd=510&Type=search" }, "geometry": { "type": "Point", "coordinates": [ 140.446562399999948, 40.6009185 ] } },
{ "type": "Feature", "properties": { "内容": "特別養護老人ホーム弘前園【介護老人福祉施設】青森県弘前市大字鬼沢字山ノ越249番地", "url2": "https://www.kaigokensaku.mhlw.go.jp/02/index.php?action_kouhyou_detail_004_kani=true&JigyosyoCd=0270200843-00&ServiceCd=510&Type=search" }, "geometry": { "type": "Point", "coordinates": [ 140.40484749999996, 40.6967034 ] } },
{ "type": "Feature", "properties": { "内容": "瑞光園【介護老人福祉施設】青森県八戸市大字大久保字大山35番地1", "url2": "https://www.kaigokensaku.mhlw.go.jp/02/index.php?action_kouhyou_detail_004_kani=true&JigyosyoCd=0270300288-00&ServiceCd=510&Type=search" }, "geometry": { "type": "Point", "coordinates": [ 141.579124174868753, 40.488740068922787 ] } },
{ "type": "Feature", "properties": { "内容": "福寿草インスプリング【介護老人福祉施設】青森県八戸市大字妙字西平6番地19", "url2": "https://www.kaigokensaku.mhlw.go.jp/02/index.php?action_kouhyou_detail_004_kani=true&JigyosyoCd=0270300486-00&ServiceCd=510&Type=search" }, "geometry": { "type": "Point", "coordinates": [ 141.544082399999979, 40.4891572 ] } },
{ "type": "Feature", "properties": { "内容": "特別養護老人ホーム　修光園【介護老人福祉施設】青森県八戸市大字十日市字黒坂３５番地", "url2": "https://www.kaigokensaku.mhlw.go.jp/02/index.php?action_kouhyou_detail_004_kani=true&JigyosyoCd=0270300650-00&ServiceCd=510&Type=search" }, "geometry": { "type": "Point", "coordinates": [ 141.520929600000045, 40.4828772 ] } },
{ "type": "Feature", "properties": { "内容": "特別養護老人ホーム寿楽荘【介護老人福祉施設】青森県八戸市大字市川町字夏秋４", "url2": "https://www.kaigokensaku.mhlw.go.jp/02/index.php?action_kouhyou_detail_004_kani=true&JigyosyoCd=0270300858-00&ServiceCd=510&Type=search" }, "geometry": { "type": "Point", "coordinates": [ 141.446401703704879, 40.57899632139609 ] } },
{ "type": "Feature", "properties": { "内容": "特別養護老人ホームリハビリパークえんぶり物語【介護老人福祉施設】青森県八戸市大字河原木字見立山６番２０９", "url2": "https://www.kaigokensaku.mhlw.go.jp/02/index.php?action_kouhyou_detail_004_kani=true&JigyosyoCd=0270300866-00&ServiceCd=510&Type=search" }, "geometry": { "type": "Point", "coordinates": [ 141.450129899999979, 40.5415073 ] } },
{ "type": "Feature", "properties": { "内容": "特別養護老人ホーム　サンシャイン【介護老人福祉施設】青森県八戸市東白山台二丁目２番１", "url2": "https://www.kaigokensaku.mhlw.go.jp/02/index.php?action_kouhyou_detail_004_kani=true&JigyosyoCd=0270301419-00&ServiceCd=510&Type=search" }, "geometry": { "type": "Point", "coordinates": [ 141.471370653878239, 40.489313008625054 ] } },
{ "type": "Feature", "properties": { "内容": "特別養護老人ホーム　光葉園【介護老人福祉施設】青森県八戸市大字鮫町字金屎３５番地９０", "url2": "https://www.kaigokensaku.mhlw.go.jp/02/index.php?action_kouhyou_detail_004_kani=true&JigyosyoCd=0270302128-00&ServiceCd=510&Type=search" }, "geometry": { "type": "Point", "coordinates": [ 141.577567400000021, 40.5140884 ] } },
{ "type": "Feature", "properties": { "内容": "特別養護老人ホーム　ほっとハウス【介護老人福祉施設】青森県八戸市大字尻内町字熊ノ沢35番2号", "url2": "https://www.kaigokensaku.mhlw.go.jp/02/index.php?action_kouhyou_detail_004_kani=true&JigyosyoCd=0270302227-00&ServiceCd=510&Type=search" }, "geometry": { "type": "Point", "coordinates": [ 141.426062499999944, 40.5220034 ] } },
{ "type": "Feature", "properties": { "内容": "特別養護老人ホーム　ハピネスやくら【介護老人福祉施設】青森県八戸市大字八幡字下樋田1番1", "url2": "https://www.kaigokensaku.mhlw.go.jp/02/index.php?action_kouhyou_detail_004_kani=true&JigyosyoCd=0270302623-00&ServiceCd=510&Type=search" }, "geometry": { "type": "Point", "coordinates": [ 141.436243200000035, 40.4952874 ] } },
{ "type": "Feature", "properties": { "内容": "福寿草インスプリング【介護老人福祉施設】青森県八戸市大字妙字西平6番地19", "url2": "https://www.kaigokensaku.mhlw.go.jp/02/index.php?action_kouhyou_detail_004_kani=true&JigyosyoCd=0270304124-00&ServiceCd=510&Type=search" }, "geometry": { "type": "Point", "coordinates": [ 141.544095199999987, 40.4893089 ] } },
{ "type": "Feature", "properties": { "内容": "すみれ特別養護老人ホーム【介護老人福祉施設】青森県黒石市馬場尻南５８", "url2": "https://www.kaigokensaku.mhlw.go.jp/02/index.php?action_kouhyou_detail_004_kani=true&JigyosyoCd=0270400021-00&ServiceCd=510&Type=search" }, "geometry": { "type": "Point", "coordinates": [ 140.5871866, 40.6749277 ] } },
{ "type": "Feature", "properties": { "内容": "黒石特別養護老人ホーム【介護老人福祉施設】青森県黒石市大字赤坂字池田１３６番地", "url2": "https://www.kaigokensaku.mhlw.go.jp/02/index.php?action_kouhyou_detail_004_kani=true&JigyosyoCd=0270400088-00&ServiceCd=510&Type=search" }, "geometry": { "type": "Point", "coordinates": [ 140.610023700000056, 40.6660795 ] } },
{ "type": "Feature", "properties": { "内容": "特別養護老人ホーム　青山荘【介護老人福祉施設】青森県五所川原市大字金山字盛山42-8", "url2": "https://www.kaigokensaku.mhlw.go.jp/02/index.php?action_kouhyou_detail_004_kani=true&JigyosyoCd=0270500135-00&ServiceCd=510&Type=search" }, "geometry": { "type": "Point", "coordinates": [ 140.4992244, 40.8090506 ] } },
{ "type": "Feature", "properties": { "内容": "特別養護老人ホームあかね荘【介護老人福祉施設】青森県五所川原市大字前田野目字長峰１１２番地２", "url2": "https://www.kaigokensaku.mhlw.go.jp/02/index.php?action_kouhyou_detail_004_kani=true&JigyosyoCd=0270500242-00&ServiceCd=510&Type=search" }, "geometry": { "type": "Point", "coordinates": [ 140.556480299999947, 40.7598739 ] } },
{ "type": "Feature", "properties": { "内容": "特別養護老人ホーム祥光苑【介護老人福祉施設】青森県五所川原市大字沖飯詰字帯刀３５７番地１", "url2": "https://www.kaigokensaku.mhlw.go.jp/02/index.php?action_kouhyou_detail_004_kani=true&JigyosyoCd=0270500259-00&ServiceCd=510&Type=search" }, "geometry": { "type": "Point", "coordinates": [ 140.4525741, 40.8357852 ] } },
{ "type": "Feature", "properties": { "内容": "特別養護老人ホーム青山荘【介護老人福祉施設】青森県五所川原市大字金山字盛山42-8", "url2": "https://www.kaigokensaku.mhlw.go.jp/02/index.php?action_kouhyou_detail_004_kani=true&JigyosyoCd=0270500994-00&ServiceCd=510&Type=search" }, "geometry": { "type": "Point", "coordinates": [ 140.4992244, 40.8090506 ] } },
{ "type": "Feature", "properties": { "内容": "特別養護老人ホームすわんの里【介護老人福祉施設】青森県五所川原市脇元磯辺365番地1", "url2": "https://www.kaigokensaku.mhlw.go.jp/02/index.php?action_kouhyou_detail_004_kani=true&JigyosyoCd=0270501372-00&ServiceCd=510&Type=search" }, "geometry": { "type": "Point", "coordinates": [ 140.319449, 41.0953911 ] } },
{ "type": "Feature", "properties": { "内容": "特別養護老人ホームあしの園【介護老人福祉施設】青森県五所川原市金木町川倉七夕野84-442", "url2": "https://www.kaigokensaku.mhlw.go.jp/02/index.php?action_kouhyou_detail_004_kani=true&JigyosyoCd=0272400276-00&ServiceCd=510&Type=search" }, "geometry": { "type": "Point", "coordinates": [ 140.456389700000045, 40.9213926 ] } },
{ "type": "Feature", "properties": { "内容": "特別養護老人ホーム　一葉園【介護老人福祉施設】青森県十和田市元町西五丁目11番31号", "url2": "https://www.kaigokensaku.mhlw.go.jp/02/index.php?action_kouhyou_detail_004_kani=true&JigyosyoCd=0270600208-00&ServiceCd=510&Type=search" }, "geometry": { "type": "Point", "coordinates": [ 141.198246292937512, 40.623051341285858 ] } },
{ "type": "Feature", "properties": { "内容": "特別養護老人ホーム八甲荘【介護老人福祉施設】青森県十和田市大字相坂字高清水78番地232", "url2": "https://www.kaigokensaku.mhlw.go.jp/02/index.php?action_kouhyou_detail_004_kani=true&JigyosyoCd=0270600406-00&ServiceCd=510&Type=search" }, "geometry": { "type": "Point", "coordinates": [ 141.261137700000063, 40.6331999 ] } },
{ "type": "Feature", "properties": { "内容": "特別養護老人ホーム　湖楽園【介護老人福祉施設】青森県十和田市大字奥瀬字下川目2-9", "url2": "https://www.kaigokensaku.mhlw.go.jp/02/index.php?action_kouhyou_detail_004_kani=true&JigyosyoCd=0272500323-00&ServiceCd=510&Type=search" }, "geometry": { "type": "Point", "coordinates": [ 141.09426069999995, 40.5849684 ] } },
{ "type": "Feature", "properties": { "内容": "三沢老人ホーム【介護老人福祉施設】青森県三沢市大字三沢字園沢156-8", "url2": "https://www.kaigokensaku.mhlw.go.jp/02/index.php?action_kouhyou_detail_004_kani=true&JigyosyoCd=0270700750-00&ServiceCd=510&Type=search" }, "geometry": { "type": "Point", "coordinates": [ 141.4113955, 40.6777282 ] } },
{ "type": "Feature", "properties": { "内容": "特別養護老人ホーム　ひばり苑【介護老人福祉施設】青森県三沢市六川目６丁目２８－６", "url2": "https://www.kaigokensaku.mhlw.go.jp/02/index.php?action_kouhyou_detail_004_kani=true&JigyosyoCd=0270700172-00&ServiceCd=510&Type=search" }, "geometry": { "type": "Point", "coordinates": [ 141.4020749, 40.7723223 ] } },
{ "type": "Feature", "properties": { "内容": "特別養護老人ホームうるわしの杜【介護老人福祉施設】青森県三沢市千代田町4丁目140-851", "url2": "https://www.kaigokensaku.mhlw.go.jp/02/index.php?action_kouhyou_detail_004_kani=true&JigyosyoCd=0270700560-00&ServiceCd=510&Type=search" }, "geometry": { "type": "Point", "coordinates": [ 141.360158299999966, 40.6674127 ] } },
{ "type": "Feature", "properties": { "内容": "特別養護老人ホーム　恵光園【介護老人福祉施設】青森県むつ市大字奥内字竹立9番地", "url2": "https://www.kaigokensaku.mhlw.go.jp/02/index.php?action_kouhyou_detail_004_kani=true&JigyosyoCd=0270800048-00&ServiceCd=510&Type=search" }, "geometry": { "type": "Point", "coordinates": [ 141.2760012, 41.1995134 ] } },
{ "type": "Feature", "properties": { "内容": "特別養護老人ホーム桜木園【介護老人福祉施設】青森県むつ市中央二丁目23-1", "url2": "https://www.kaigokensaku.mhlw.go.jp/02/index.php?action_kouhyou_detail_004_kani=true&JigyosyoCd=0270800105-00&ServiceCd=510&Type=search" }, "geometry": { "type": "Point", "coordinates": [ 141.184824017848172, 41.290360016957393 ] } },
{ "type": "Feature", "properties": { "内容": "特別養護老人ホームみちのく荘【介護老人福祉施設】青森県むつ市十二林１１番１３号", "url2": "https://www.kaigokensaku.mhlw.go.jp/02/index.php?action_kouhyou_detail_004_kani=true&JigyosyoCd=0270800147-00&ServiceCd=510&Type=search" }, "geometry": { "type": "Point", "coordinates": [ 141.186463799999956, 41.298198 ] } },
{ "type": "Feature", "properties": { "内容": "特別養護老人ホーム　いこいの里【介護老人福祉施設】青森県むつ市脇野沢渡向７３番地１", "url2": "https://www.kaigokensaku.mhlw.go.jp/02/index.php?action_kouhyou_detail_004_kani=true&JigyosyoCd=0270800725-00&ServiceCd=510&Type=search" }, "geometry": { "type": "Point", "coordinates": [ 140.816609800000037, 41.1449638 ] } },
{ "type": "Feature", "properties": { "内容": "特別養護老人ホーム延寿園【介護老人福祉施設】青森県むつ市大畑町大赤川29番地4", "url2": "https://www.kaigokensaku.mhlw.go.jp/02/index.php?action_kouhyou_detail_004_kani=true&JigyosyoCd=0272600099-00&ServiceCd=510&Type=search" }, "geometry": { "type": "Point", "coordinates": [ 141.115581, 41.4534808 ] } },
{ "type": "Feature", "properties": { "内容": "特別養護老人ホームせせらぎ荘【介護老人福祉施設】青森県むつ市川内町獅子畑128番地4", "url2": "https://www.kaigokensaku.mhlw.go.jp/02/index.php?action_kouhyou_detail_004_kani=true&JigyosyoCd=0272600115-00&ServiceCd=510&Type=search" }, "geometry": { "type": "Point", "coordinates": [ 140.98550350000005, 41.2569248 ] } },
{ "type": "Feature", "properties": { "内容": "特別養護老人ホーム桑寿園【介護老人福祉施設】青森県つがる市柏桑野木田若宮２５５番地１", "url2": "https://www.kaigokensaku.mhlw.go.jp/02/index.php?action_kouhyou_detail_004_kani=true&JigyosyoCd=0272100421-00&ServiceCd=510&Type=search" }, "geometry": { "type": "Point", "coordinates": [ 140.404491300000018, 40.7795405 ] } },
{ "type": "Feature", "properties": { "内容": "特別養護老人ホーム明光園【介護老人福祉施設】青森県つがる市森田町大館勝山142-3", "url2": "https://www.kaigokensaku.mhlw.go.jp/02/index.php?action_kouhyou_detail_004_kani=true&JigyosyoCd=0272100520-00&ServiceCd=510&Type=search" }, "geometry": { "type": "Point", "coordinates": [ 140.292579100000012, 40.7788782 ] } },
{ "type": "Feature", "properties": { "内容": "特別養護老人ホーム柏風園【介護老人福祉施設】青森県つがる市木造筒木坂鳥谷沢１８－９", "url2": "https://www.kaigokensaku.mhlw.go.jp/02/index.php?action_kouhyou_detail_004_kani=true&JigyosyoCd=0272100504-00&ServiceCd=510&Type=search" }, "geometry": { "type": "Point", "coordinates": [ 140.346330399999943, 40.9141031 ] } },
{ "type": "Feature", "properties": { "内容": "特別養護老人ホーム　さわやか園【介護老人福祉施設】青森県平川市日沼樋田８５", "url2": "https://www.kaigokensaku.mhlw.go.jp/02/index.php?action_kouhyou_detail_004_kani=true&JigyosyoCd=0272300542-00&ServiceCd=510&Type=search" }, "geometry": { "type": "Point", "coordinates": [ 140.516564099999982, 40.6203461 ] } },
{ "type": "Feature", "properties": { "内容": "特別養護老人ホーム緑青園【介護老人福祉施設】青森県平川市沖館和田84番地", "url2": "https://www.kaigokensaku.mhlw.go.jp/02/index.php?action_kouhyou_detail_004_kani=true&JigyosyoCd=0272300443-00&ServiceCd=510&Type=search" }, "geometry": { "type": "Point", "coordinates": [ 140.57090310000001, 40.5748561 ] } },
{ "type": "Feature", "properties": { "内容": "特別養護老人ホーム夜越山倶楽部【介護老人福祉施設】青森県東津軽郡平内町浜子字堀替７７番地３", "url2": "https://www.kaigokensaku.mhlw.go.jp/02/index.php?action_kouhyou_detail_004_kani=true&JigyosyoCd=0272000431-00&ServiceCd=510&Type=search" }, "geometry": { "type": "Point", "coordinates": [ 140.991033600000037, 40.92646 ] } },
{ "type": "Feature", "properties": { "内容": "特別養護老人ホーム　清風荘【介護老人福祉施設】青森県東津軽郡平内町大字小湊字薬師堂63番地23", "url2": "https://www.kaigokensaku.mhlw.go.jp/02/index.php?action_kouhyou_detail_004_kani=true&JigyosyoCd=0272000100-00&ServiceCd=510&Type=search" }, "geometry": { "type": "Point", "coordinates": [ 140.953169699999989, 40.9092896 ] } },
{ "type": "Feature", "properties": { "内容": "特別養護老人ホームなかやま荘【介護老人福祉施設】青森県東津軽郡今別町大字今別字西田２４８番地２０５", "url2": "https://www.kaigokensaku.mhlw.go.jp/02/index.php?action_kouhyou_detail_004_kani=true&JigyosyoCd=0272000449-00&ServiceCd=510&Type=search" }, "geometry": { "type": "Point", "coordinates": [ 140.479496174903488, 41.177844022138117 ] } },
{ "type": "Feature", "properties": { "内容": "特別養護老人ホーム　蓬生園【介護老人福祉施設】青森県東津軽郡蓬田村大字郷沢字浜田３９７番地", "url2": "https://www.kaigokensaku.mhlw.go.jp/02/index.php?action_kouhyou_detail_004_kani=true&JigyosyoCd=0272000274-00&ServiceCd=510&Type=search" }, "geometry": { "type": "Point", "coordinates": [ 140.647715799999986, 40.9900592 ] } },
{ "type": "Feature", "properties": { "内容": "特別養護老人ホームあじさい【介護老人福祉施設】青森県東津軽郡外ヶ浜町字三厩新町８番地", "url2": "https://www.kaigokensaku.mhlw.go.jp/02/index.php?action_kouhyou_detail_004_kani=true&JigyosyoCd=0272000092-00&ServiceCd=510&Type=search" }, "geometry": { "type": "Point", "coordinates": [ 140.43474649999996, 41.195044 ] } },
{ "type": "Feature", "properties": { "内容": "特別養護老人ホーム　あんじんの郷【介護老人福祉施設】青森県東津軽郡外ヶ浜町字平舘野田鳴川２２２－３", "url2": "https://www.kaigokensaku.mhlw.go.jp/02/index.php?action_kouhyou_detail_004_kani=true&JigyosyoCd=0272000290-00&ServiceCd=510&Type=search" }, "geometry": { "type": "Point", "coordinates": [ 140.631569300000024, 41.1415984 ] } },
{ "type": "Feature", "properties": { "内容": "特別養護老人ホーム　つくし荘【介護老人福祉施設】青森県西津軽郡鯵ヶ沢町大字北浮田町字今須87番地1", "url2": "https://www.kaigokensaku.mhlw.go.jp/02/index.php?action_kouhyou_detail_004_kani=true&JigyosyoCd=0272100496-00&ServiceCd=510&Type=search" }, "geometry": { "type": "Point", "coordinates": [ 140.253567400000065, 40.790002 ] } },
{ "type": "Feature", "properties": { "内容": "特別養護老人ホームはまなす荘【介護老人福祉施設】青森県西津軽郡深浦町大字驫木字津山118番地44", "url2": "https://www.kaigokensaku.mhlw.go.jp/02/index.php?action_kouhyou_detail_004_kani=true&JigyosyoCd=0272100470-00&ServiceCd=510&Type=search" }, "geometry": { "type": "Point", "coordinates": [ 139.981637200000023, 40.7024267 ] } },
{ "type": "Feature", "properties": { "内容": "特別養護老人ホームサンタ園【介護老人福祉施設】青森県西津軽郡深浦町大字岩崎字松原57番地2", "url2": "https://www.kaigokensaku.mhlw.go.jp/02/index.php?action_kouhyou_detail_004_kani=true&JigyosyoCd=0272100645-00&ServiceCd=510&Type=search" }, "geometry": { "type": "Point", "coordinates": [ 139.925714311114461, 40.582610857595157 ] } },
{ "type": "Feature", "properties": { "内容": "特別養護老人ホーム白神荘【介護老人福祉施設】青森県中津軽郡西目屋村大字田代字稲元143番地2号", "url2": "https://www.kaigokensaku.mhlw.go.jp/02/index.php?action_kouhyou_detail_004_kani=true&JigyosyoCd=0272200122-00&ServiceCd=510&Type=search" }, "geometry": { "type": "Point", "coordinates": [ 140.294833146032715, 40.577780078641858 ] } },
{ "type": "Feature", "properties": { "内容": "特別養護老人ホーム　さんふじ【介護老人福祉施設】青森県南津軽郡藤崎町大字柏木堰字南亀田１番地１", "url2": "https://www.kaigokensaku.mhlw.go.jp/02/index.php?action_kouhyou_detail_004_kani=true&JigyosyoCd=0272300484-00&ServiceCd=510&Type=search" }, "geometry": { "type": "Point", "coordinates": [ 140.5130196, 40.6903766 ] } },
{ "type": "Feature", "properties": { "内容": "特別養護老人ホームときわ【介護老人福祉施設】青森県南津軽郡藤崎町大字水木字浅田９５", "url2": "https://www.kaigokensaku.mhlw.go.jp/02/index.php?action_kouhyou_detail_004_kani=true&JigyosyoCd=0272300674-00&ServiceCd=510&Type=search" }, "geometry": { "type": "Point", "coordinates": [ 140.536743099999967, 40.6780925 ] } },
{ "type": "Feature", "properties": { "内容": "特別養護老人ホーム　大鰐ホーム【介護老人福祉施設】青森県南津軽郡大鰐町大字大鰐字萢頭９－２", "url2": "https://www.kaigokensaku.mhlw.go.jp/02/index.php?action_kouhyou_detail_004_kani=true&JigyosyoCd=0272300153-00&ServiceCd=510&Type=search" }, "geometry": { "type": "Point", "coordinates": [ 140.5771466, 40.5123414 ] } },
{ "type": "Feature", "properties": { "内容": "特別養護老人ホーム　鶴住荘【介護老人福祉施設】青森県北津軽郡板柳町大字野中字鶴住102番地2", "url2": "https://www.kaigokensaku.mhlw.go.jp/02/index.php?action_kouhyou_detail_004_kani=true&JigyosyoCd=0272400318-00&ServiceCd=510&Type=search" }, "geometry": { "type": "Point", "coordinates": [ 140.450818499999968, 40.7220886 ] } },
{ "type": "Feature", "properties": { "内容": "特別養護老人ホーム鶴松園【介護老人福祉施設】青森県北津軽郡鶴田町大字廻堰上野尻146番地１", "url2": "https://www.kaigokensaku.mhlw.go.jp/02/index.php?action_kouhyou_detail_004_kani=true&JigyosyoCd=0272400169-00&ServiceCd=510&Type=search" }, "geometry": { "type": "Point", "coordinates": [ 140.395717500000046, 40.7665694 ] } },
{ "type": "Feature", "properties": { "内容": "特別養護老人ホーム幸【介護老人福祉施設】青森県北津軽郡中泊町大字尾別字小谷26番地1", "url2": "https://www.kaigokensaku.mhlw.go.jp/02/index.php?action_kouhyou_detail_004_kani=true&JigyosyoCd=0272401191-00&ServiceCd=510&Type=search" }, "geometry": { "type": "Point", "coordinates": [ 140.4296283, 40.9844848 ] } },
{ "type": "Feature", "properties": { "内容": "特別養護老人ホーム　静和園【介護老人福祉施設】青森県北津軽郡中泊町大字中里字亀山４３４番地１特別養護老人ホーム　静和園", "url2": "https://www.kaigokensaku.mhlw.go.jp/02/index.php?action_kouhyou_detail_004_kani=true&JigyosyoCd=0272401167-00&ServiceCd=510&Type=search" }, "geometry": { "type": "Point", "coordinates": [ 140.439381900913673, 40.965263381600074 ] } },
{ "type": "Feature", "properties": { "内容": "特別養護老人ホーム野辺地ホーム【介護老人福祉施設】青森県上北郡野辺地町字枇杷野51番地26特別養護老人ホーム野辺地ホーム", "url2": "https://www.kaigokensaku.mhlw.go.jp/02/index.php?action_kouhyou_detail_004_kani=true&JigyosyoCd=0272502246-00&ServiceCd=510&Type=search" }, "geometry": { "type": "Point", "coordinates": [ 141.100698996634947, 40.855604708047025 ] } },
{ "type": "Feature", "properties": { "内容": "特別養護老人ホーム天寿園【介護老人福祉施設】青森県上北郡七戸町字舟場向川久保308番地", "url2": "https://www.kaigokensaku.mhlw.go.jp/02/index.php?action_kouhyou_detail_004_kani=true&JigyosyoCd=0272500729-00&ServiceCd=510&Type=search" }, "geometry": { "type": "Point", "coordinates": [ 141.17940729999998, 40.7579735 ] } },
{ "type": "Feature", "properties": { "内容": "特別養護老人ホーム天寿園みちのかみ【介護老人福祉施設】青森県上北郡七戸町字道ノ上５２番地４特別養護老人ホーム天寿園みちのかみ", "url2": "https://www.kaigokensaku.mhlw.go.jp/02/index.php?action_kouhyou_detail_004_kani=true&JigyosyoCd=0272502295-00&ServiceCd=510&Type=search" }, "geometry": { "type": "Point", "coordinates": [ 141.1483426, 40.7504841 ] } },
{ "type": "Feature", "properties": { "内容": "社会福祉法人美土里会　特別養護老人ホーム美土里荘【介護老人福祉施設】青森県上北郡七戸町字寒水７０－１７", "url2": "https://www.kaigokensaku.mhlw.go.jp/02/index.php?action_kouhyou_detail_004_kani=true&JigyosyoCd=0272500695-00&ServiceCd=510&Type=search" }, "geometry": { "type": "Point", "coordinates": [ 141.174695896295134, 40.716784938171315 ] } },
{ "type": "Feature", "properties": { "内容": "特別養護老人ホーム　メープル【介護老人福祉施設】青森県上北郡六戸町大字上吉田字長谷85番地11", "url2": "https://www.kaigokensaku.mhlw.go.jp/02/index.php?action_kouhyou_detail_004_kani=true&JigyosyoCd=0272501198-00&ServiceCd=510&Type=search" }, "geometry": { "type": "Point", "coordinates": [ 141.339479100000062, 40.5931894 ] } },
{ "type": "Feature", "properties": { "内容": "特別養護老人ホームなのはな苑【介護老人福祉施設】青森県上北郡横浜町字三保野５４番地", "url2": "https://www.kaigokensaku.mhlw.go.jp/02/index.php?action_kouhyou_detail_004_kani=true&JigyosyoCd=0272500430-00&ServiceCd=510&Type=search" }, "geometry": { "type": "Point", "coordinates": [ 141.2522348, 41.081033 ] } },
{ "type": "Feature", "properties": { "内容": "特別養護老人ホーム　彩香園アルテリーベ【介護老人福祉施設】青森県上北郡東北町大字大浦字境ノ沢127", "url2": "https://www.kaigokensaku.mhlw.go.jp/02/index.php?action_kouhyou_detail_004_kani=true&JigyosyoCd=0272500356-00&ServiceCd=510&Type=search" }, "geometry": { "type": "Point", "coordinates": [ 141.235248800000022, 40.7124687 ] } },
{ "type": "Feature", "properties": { "内容": "特別養護老人ホーム松風荘【介護老人福祉施設】青森県上北郡東北町字乙供１２３番地", "url2": "https://www.kaigokensaku.mhlw.go.jp/02/index.php?action_kouhyou_detail_004_kani=true&JigyosyoCd=0272501966-00&ServiceCd=510&Type=search" }, "geometry": { "type": "Point", "coordinates": [ 141.194089230549594, 40.766692178081037 ] } },
{ "type": "Feature", "properties": { "内容": "特別養護老人ホ－ム　ぼんてん荘【介護老人福祉施設】青森県上北郡六ヶ所村大字出戸字棚沢１３０番１６", "url2": "https://www.kaigokensaku.mhlw.go.jp/02/index.php?action_kouhyou_detail_004_kani=true&JigyosyoCd=0272500612-00&ServiceCd=510&Type=search" }, "geometry": { "type": "Point", "coordinates": [ 141.369001499999968, 41.0061387 ] } },
{ "type": "Feature", "properties": { "内容": "特別養護老人ホーム木崎野荘【介護老人福祉施設】青森県上北郡おいらせ町向山東二丁目2-1263", "url2": "https://www.kaigokensaku.mhlw.go.jp/02/index.php?action_kouhyou_detail_004_kani=true&JigyosyoCd=0272500539-00&ServiceCd=510&Type=search" }, "geometry": { "type": "Point", "coordinates": [ 141.392063, 40.6308337 ] } },
{ "type": "Feature", "properties": { "内容": "特別養護老人ホーム百石荘【介護老人福祉施設】青森県上北郡おいらせ町沼端３７０番地１", "url2": "https://www.kaigokensaku.mhlw.go.jp/02/index.php?action_kouhyou_detail_004_kani=true&JigyosyoCd=0272500703-00&ServiceCd=510&Type=search" }, "geometry": { "type": "Point", "coordinates": [ 141.4460398, 40.6121647 ] } },
{ "type": "Feature", "properties": { "内容": "特別養護老人ホームくろまつ【介護老人福祉施設】青森県下北郡大間町大字大間字大間平２０-７８", "url2": "https://www.kaigokensaku.mhlw.go.jp/02/index.php?action_kouhyou_detail_004_kani=true&JigyosyoCd=0272600255-00&ServiceCd=510&Type=search" }, "geometry": { "type": "Point", "coordinates": [ 140.92738410000004, 41.5263569 ] } },
{ "type": "Feature", "properties": { "内容": "特別養護老人ホーム　ゆうなぎの里【介護老人福祉施設】青森県下北郡佐井村大字佐井字原田５５－２", "url2": "https://www.kaigokensaku.mhlw.go.jp/02/index.php?action_kouhyou_detail_004_kani=true&JigyosyoCd=0272600586-00&ServiceCd=510&Type=search" }, "geometry": { "type": "Point", "coordinates": [ 140.880836499999987, 41.4552205 ] } },
{ "type": "Feature", "properties": { "内容": "特別養護老人ホーム鶴亀荘【介護老人福祉施設】青森県三戸郡三戸町大字斗内字和田60-1", "url2": "https://www.kaigokensaku.mhlw.go.jp/02/index.php?action_kouhyou_detail_004_kani=true&JigyosyoCd=0272700337-00&ServiceCd=510&Type=search" }, "geometry": { "type": "Point", "coordinates": [ 141.2204878, 40.3625767 ] } },
{ "type": "Feature", "properties": { "内容": "ハピネス五戸【介護老人福祉施設】青森県三戸郡五戸町字姥堤34番地1", "url2": "https://www.kaigokensaku.mhlw.go.jp/02/index.php?action_kouhyou_detail_004_kani=true&JigyosyoCd=0272700428-00&ServiceCd=510&Type=search" }, "geometry": { "type": "Point", "coordinates": [ 141.2945638, 40.5314548 ] } },
{ "type": "Feature", "properties": { "内容": "特別養護老人ホームさくら荘【介護老人福祉施設】青森県三戸郡五戸町大字倉石中市字新山平６４－１", "url2": "https://www.kaigokensaku.mhlw.go.jp/02/index.php?action_kouhyou_detail_004_kani=true&JigyosyoCd=0272700600-00&ServiceCd=510&Type=search" }, "geometry": { "type": "Point", "coordinates": [ 141.2617199, 40.5112313 ] } },
{ "type": "Feature", "properties": { "内容": "特別養護老人ホームみろく苑【介護老人福祉施設】青森県三戸郡田子町大字田子字七日市上ノ平60番地特別養護老人ホームみろく苑", "url2": "https://www.kaigokensaku.mhlw.go.jp/02/index.php?action_kouhyou_detail_004_kani=true&JigyosyoCd=0272701806-00&ServiceCd=510&Type=search" }, "geometry": { "type": "Point", "coordinates": [ 141.151783499999965, 40.3351456 ] } },
{ "type": "Feature", "properties": { "内容": "特別養護老人ホーム　長老園【介護老人福祉施設】青森県三戸郡南部町大字埖渡字東あかね５-１２５", "url2": "https://www.kaigokensaku.mhlw.go.jp/02/index.php?action_kouhyou_detail_004_kani=true&JigyosyoCd=0272700543-00&ServiceCd=510&Type=search" }, "geometry": { "type": "Point", "coordinates": [ 141.388501600000041, 40.4582109 ] } },
{ "type": "Feature", "properties": { "内容": "特別養護老人ホーム　ハピネスながわ【介護老人福祉施設】青森県三戸郡南部町大字下名久井字剣吉前川原1-1", "url2": "https://www.kaigokensaku.mhlw.go.jp/02/index.php?action_kouhyou_detail_004_kani=true&JigyosyoCd=0272701962-00&ServiceCd=510&Type=search" }, "geometry": { "type": "Point", "coordinates": [ 141.341836277500704, 40.441071619758041 ] } },
{ "type": "Feature", "properties": { "内容": "特別養護老人ホーム三戸老人ホーム【介護老人福祉施設】青森県三戸郡南部町大向字仙ノ木平31-1", "url2": "https://www.kaigokensaku.mhlw.go.jp/02/index.php?action_kouhyou_detail_004_kani=true&JigyosyoCd=0272700584-00&ServiceCd=510&Type=search" }, "geometry": { "type": "Point", "coordinates": [ 141.285318800000027, 40.3983327 ] } },
{ "type": "Feature", "properties": { "内容": "特別養護老人ホーム見心園【介護老人福祉施設】青森県三戸郡階上町大字赤保内字道仏道添21-12", "url2": "https://www.kaigokensaku.mhlw.go.jp/02/index.php?action_kouhyou_detail_004_kani=true&JigyosyoCd=0272700592-00&ServiceCd=510&Type=search" }, "geometry": { "type": "Point", "coordinates": [ 141.623057, 40.4463621 ] } },
{ "type": "Feature", "properties": { "内容": "特別養護老人ホーム見心園【介護老人福祉施設】青森県三戸郡階上町大字赤保内字道仏道添21-12", "url2": "https://www.kaigokensaku.mhlw.go.jp/02/index.php?action_kouhyou_detail_004_kani=true&JigyosyoCd=0272701921-00&ServiceCd=510&Type=search" }, "geometry": { "type": "Point", "coordinates": [ 141.623057, 40.4463621 ] } }
]
}
