{
"type": "FeatureCollection",
"name": "geo_02_小規模多機能型居宅介護",
"crs": { "type": "name", "properties": { "name": "urn:ogc:def:crs:OGC:1.3:CRS84" } },
"features": [
{ "type": "Feature", "properties": { "内容": "小規模多機能型居宅介護事業所　なみうち【小規模多機能型居宅介護】青森市合浦２丁目１１番２４号", "url": "https://www.kaigokensaku.mhlw.go.jp/02/index.php?action_kouhyou_detail_004_kani=true&JigyosyoCd=0290100080-00&ServiceCd=730&Type=search", "url2": "https://www.namiuchihp-aomori.com/shokibokyotakukaigonamiuchi" }, "geometry": { "type": "Point", "coordinates": [ 140.77542552076261, 40.826894844851822 ] } },
{ "type": "Feature", "properties": { "内容": "小規模多機能型居宅介護事業所オアシス【小規模多機能型居宅介護】青森県青森市大字安田字近野136番地1", "url": "https://www.kaigokensaku.mhlw.go.jp/02/index.php?action_kouhyou_detail_004_kani=true&JigyosyoCd=0290100288-00&ServiceCd=730&Type=search", "url2": "http://www.jikei-kai.org" }, "geometry": { "type": "Point", "coordinates": [ 140.702787490737933, 40.80168799266616 ] } },
{ "type": "Feature", "properties": { "内容": "小規模多機能型居宅介護事業所のぎわ【小規模多機能型居宅介護】青森県青森市大字羽白字野木和４５", "url": "https://www.kaigokensaku.mhlw.go.jp/02/index.php?action_kouhyou_detail_004_kani=true&JigyosyoCd=0290100338-00&ServiceCd=730&Type=search", "url2": "http://www.jikei-kai.org" }, "geometry": { "type": "Point", "coordinates": [ 140.678974199999971, 40.847331 ] } },
{ "type": "Feature", "properties": { "内容": "小規模多機能型居宅介護事業所しんじょう【小規模多機能型居宅介護】青森県青森市大字新城字平岡258-28", "url": "https://www.kaigokensaku.mhlw.go.jp/02/index.php?action_kouhyou_detail_004_kani=true&JigyosyoCd=0290100395-00&ServiceCd=730&Type=search", "url2": "http://www.jikei-kai.org" }, "geometry": { "type": "Point", "coordinates": [ 140.68238580000002, 40.8238703 ] } },
{ "type": "Feature", "properties": { "内容": "小規模多機能型居宅介護ヴァンピュール南青森【小規模多機能型居宅介護】青森県青森市大字浜田字玉川247番地1", "url": "https://www.kaigokensaku.mhlw.go.jp/02/index.php?action_kouhyou_detail_004_kani=true&JigyosyoCd=0290100437-00&ServiceCd=730&Type=search", "url2": "https://koujinkai-seifu.com/" }, "geometry": { "type": "Point", "coordinates": [ 140.762170100000048, 40.7961192 ] } },
{ "type": "Feature", "properties": { "内容": "小規模多機能型居宅介護事業所　まつばら【小規模多機能型居宅介護】青森県青森市松原2丁目8番8号", "url": "https://www.kaigokensaku.mhlw.go.jp/02/index.php?action_kouhyou_detail_004_kani=true&JigyosyoCd=0290100445-00&ServiceCd=730&Type=search", "url2": "https://syokibomatubara.com/" }, "geometry": { "type": "Point", "coordinates": [ 140.762904019049074, 40.819947088632695 ] } },
{ "type": "Feature", "properties": { "内容": "小規模多機能型居宅介護事業所けいじんかい【小規模多機能型居宅介護】青森市大字久栗坂字山辺89番地10", "url": "https://www.kaigokensaku.mhlw.go.jp/02/index.php?action_kouhyou_detail_004_kani=true&JigyosyoCd=0290100494-00&ServiceCd=730&Type=search", "url2": "https://www.keijinkai-ao.jp" }, "geometry": { "type": "Point", "coordinates": [ 140.852475700000014, 40.877459 ] } },
{ "type": "Feature", "properties": { "内容": "小規模多機能型居宅介護事業所おおの【小規模多機能型居宅介護】青森市東大野2-9-2", "url": "https://www.kaigokensaku.mhlw.go.jp/02/index.php?action_kouhyou_detail_004_kani=true&JigyosyoCd=0290100502-00&ServiceCd=730&Type=search", "url2": null }, "geometry": { "type": "Point", "coordinates": [ 140.743955699999987, 40.7995175 ] } },
{ "type": "Feature", "properties": { "内容": "小規模多機能型居宅介護事業所あおぞら【小規模多機能型居宅介護】青森県青森市筒井４丁目８－１７", "url": "https://www.kaigokensaku.mhlw.go.jp/02/index.php?action_kouhyou_detail_004_kani=true&JigyosyoCd=0290100551-00&ServiceCd=730&Type=search", "url2": "http://www.aozoraclub.com/shotaki.html" }, "geometry": { "type": "Point", "coordinates": [ 140.7744525, 40.80527860000003 ] } },
{ "type": "Feature", "properties": { "内容": "生活支援多機能ホーム　パインの雫【小規模多機能型居宅介護】青森県弘前市大字一町田字浅井440番地2パインの雫", "url": "https://www.kaigokensaku.mhlw.go.jp/02/index.php?action_kouhyou_detail_004_kani=true&JigyosyoCd=0290200070-00&ServiceCd=730&Type=search", "url2": "https://www.gakuyokai.jp/" }, "geometry": { "type": "Point", "coordinates": [ 140.41905910727084, 40.609213700665805 ] } },
{ "type": "Feature", "properties": { "内容": "小規模多機能ホーム自由ヶ丘【小規模多機能型居宅介護】青森県弘前市大字金属町5番地30", "url": "https://www.kaigokensaku.mhlw.go.jp/02/index.php?action_kouhyou_detail_004_kani=true&JigyosyoCd=0290200088-00&ServiceCd=730&Type=search", "url2": "http://www.sh-aiseien.jp/jiyuugaoka/" }, "geometry": { "type": "Point", "coordinates": [ 140.441175199999975, 40.5792626 ] } },
{ "type": "Feature", "properties": { "内容": "小規模多機能型居宅介護事業所　「たんぽぽの丘」【小規模多機能型居宅介護】福村字新舘添49-4小規模多機能型居宅介護事業所たんぽぽの丘", "url": "https://www.kaigokensaku.mhlw.go.jp/02/index.php?action_kouhyou_detail_004_kani=true&JigyosyoCd=0290200096-00&ServiceCd=730&Type=search", "url2": "http.//www.ichiyoukai.jp/" }, "geometry": { "type": "Point", "coordinates": [ 140.516900469728625, 40.605337551026402 ] } },
{ "type": "Feature", "properties": { "内容": "小規模多機能型居宅介護　きらら弘前【小規模多機能型居宅介護】青森県弘前市大字藤野二丁目6番地10", "url": "https://www.kaigokensaku.mhlw.go.jp/02/index.php?action_kouhyou_detail_004_kani=true&JigyosyoCd=0290200146-00&ServiceCd=730&Type=search", "url2": "https://www.houtokukai.org" }, "geometry": { "type": "Point", "coordinates": [ 140.468162300000017, 40.6277829 ] } },
{ "type": "Feature", "properties": { "内容": "小規模多機能型居宅介護まごの手【小規模多機能型居宅介護】青森県弘前市宮川3丁目17番地7", "url": "https://www.kaigokensaku.mhlw.go.jp/02/index.php?action_kouhyou_detail_004_kani=true&JigyosyoCd=0290200179-00&ServiceCd=730&Type=search", "url2": "https://heisei-ie.jp/" }, "geometry": { "type": "Point", "coordinates": [ 140.485648099999906, 40.6142403 ] } },
{ "type": "Feature", "properties": { "内容": "うみ【小規模多機能型居宅介護】青森県八戸市白銀町白浜道14", "url": "https://www.kaigokensaku.mhlw.go.jp/02/index.php?action_kouhyou_detail_004_kani=true&JigyosyoCd=0290300037-00&ServiceCd=730&Type=search", "url2": "http://www.gh-sora.jp" }, "geometry": { "type": "Point", "coordinates": [ 141.560654603379817, 40.521933571002194 ] } },
{ "type": "Feature", "properties": { "内容": "生協小規模多機能ホームみなみるいけの家【小規模多機能型居宅介護】八戸市南類家１丁目１６番１号", "url": "https://www.kaigokensaku.mhlw.go.jp/02/index.php?action_kouhyou_detail_004_kani=true&JigyosyoCd=0290300078-00&ServiceCd=730&Type=search", "url2": "https://www.hachinohe-iryou.jp/" }, "geometry": { "type": "Point", "coordinates": [ 141.503552600000035, 40.5047489 ] } },
{ "type": "Feature", "properties": { "内容": "あんずの里小規模多機能ホームおりあい【小規模多機能型居宅介護】八戸市大字鮫町字居合6番3", "url": "https://www.kaigokensaku.mhlw.go.jp/02/index.php?action_kouhyou_detail_004_kani=true&JigyosyoCd=0290300094-00&ServiceCd=730&Type=search", "url2": "http://care-net.biz/02/zuikoen/" }, "geometry": { "type": "Point", "coordinates": [ 141.560007199999973, 40.5339827 ] } },
{ "type": "Feature", "properties": { "内容": "あんずの里小規模多機能ホームにいだ【小規模多機能型居宅介護】青森県八戸市大字新井田字坂9-1", "url": "https://www.kaigokensaku.mhlw.go.jp/02/index.php?action_kouhyou_detail_004_kani=true&JigyosyoCd=0290300136-00&ServiceCd=730&Type=search", "url2": "https://zuikoen.or.jp" }, "geometry": { "type": "Point", "coordinates": [ 141.5249784, 40.4948782 ] } },
{ "type": "Feature", "properties": { "内容": "小規模多機能ホーム椿寿園【小規模多機能型居宅介護】沼館一丁目7-41", "url": "https://www.kaigokensaku.mhlw.go.jp/02/index.php?action_kouhyou_detail_004_kani=true&JigyosyoCd=0290300219-00&ServiceCd=730&Type=search", "url2": null }, "geometry": { "type": "Point", "coordinates": [ 141.493306, 40.524918199999966 ] } },
{ "type": "Feature", "properties": { "内容": "小規模多機能ホーム長根の森【小規模多機能型居宅介護】青森県八戸市長根1丁目2-8友の会福祉会館３階", "url": "https://www.kaigokensaku.mhlw.go.jp/02/index.php?action_kouhyou_detail_004_kani=true&JigyosyoCd=0290300227-00&ServiceCd=730&Type=search", "url2": "http://tomonokai.jp/" }, "geometry": { "type": "Point", "coordinates": [ 141.4800275, 40.5099646 ] } },
{ "type": "Feature", "properties": { "内容": "小規模多機能の家　是川淨信館【小規模多機能型居宅介護】青森県八戸市是川三丁目1番地1", "url": "https://www.kaigokensaku.mhlw.go.jp/02/index.php?action_kouhyou_detail_004_kani=true&JigyosyoCd=0290300243-00&ServiceCd=730&Type=search", "url2": "www.joshinkan.com/" }, "geometry": { "type": "Point", "coordinates": [ 141.498959521565212, 40.468320893420632 ] } },
{ "type": "Feature", "properties": { "内容": "南浜の家くじら【小規模多機能型居宅介護】青森県八戸市大字鮫町字安川目8番地14", "url": "https://www.kaigokensaku.mhlw.go.jp/02/index.php?action_kouhyou_detail_004_kani=true&JigyosyoCd=0290300086-00&ServiceCd=730&Type=search", "url2": "http://aoiuminokai.jp/" }, "geometry": { "type": "Point", "coordinates": [ 141.623016, 40.4935524 ] } },
{ "type": "Feature", "properties": { "内容": "りんごっこ寿楽荘【小規模多機能型居宅介護】青森県八戸市田向２丁目２－１", "url": "https://www.kaigokensaku.mhlw.go.jp/02/index.php?action_kouhyou_detail_004_kani=true&JigyosyoCd=0290300185-00&ServiceCd=730&Type=search", "url2": "https://www.juei-kai.or.jp/" }, "geometry": { "type": "Point", "coordinates": [ 141.509957799999938, 40.4974333 ] } },
{ "type": "Feature", "properties": { "内容": "黒石ケアサポートセンター【小規模多機能型居宅介護】大字赤坂字池田１３６番地", "url": "https://www.kaigokensaku.mhlw.go.jp/02/index.php?action_kouhyou_detail_004_kani=true&JigyosyoCd=0290400043-00&ServiceCd=730&Type=search", "url2": "http://www.roujinhome-kuroishi.or.jp" }, "geometry": { "type": "Point", "coordinates": [ 140.610023700000056, 40.6660795 ] } },
{ "type": "Feature", "properties": { "内容": "小規模多機能デイサービスセンターりんごの郷【小規模多機能型居宅介護】青森県黒石市浅瀬石字龍ノ口170番地1", "url": "https://www.kaigokensaku.mhlw.go.jp/02/index.php?action_kouhyou_detail_004_kani=true&JigyosyoCd=0290400084-00&ServiceCd=730&Type=search", "url2": "hakuyuu@hakuyuukai.com" }, "geometry": { "type": "Point", "coordinates": [ 140.621169900000041, 40.620719 ] } },
{ "type": "Feature", "properties": { "内容": "よりあい拠わらび【小規模多機能型居宅介護】青森県五所川原市大字水野尾字懸樋222番地５", "url": "https://www.kaigokensaku.mhlw.go.jp/02/index.php?action_kouhyou_detail_004_kani=true&JigyosyoCd=0290500057-00&ServiceCd=730&Type=search", "url2": "http/www.takusinkai.or.jp/" }, "geometry": { "type": "Point", "coordinates": [ 140.481998800000042, 40.7899718 ] } },
{ "type": "Feature", "properties": { "内容": "小規模多機能型居宅介護　ケアホームのりた【小規模多機能型居宅介護】五所川原市松島町四丁目５５番地", "url": "https://www.kaigokensaku.mhlw.go.jp/02/index.php?action_kouhyou_detail_004_kani=true&JigyosyoCd=0290500065-00&ServiceCd=730&Type=search", "url2": "norita-group.com/" }, "geometry": { "type": "Point", "coordinates": [ 140.463018700000021, 40.8093609 ] } },
{ "type": "Feature", "properties": { "内容": "ＥＳＣＯＲＴケア　ここあん【小規模多機能型居宅介護】青森県五所川原市栄町26", "url": "https://www.kaigokensaku.mhlw.go.jp/02/index.php?action_kouhyou_detail_004_kani=true&JigyosyoCd=0290500107-00&ServiceCd=730&Type=search", "url2": "http://www.takushinkai.or.jp" }, "geometry": { "type": "Point", "coordinates": [ 140.4445827384842, 40.798943302744455 ] } },
{ "type": "Feature", "properties": { "内容": "小規模多機能型居宅介護　ふれあいホームいこい【小規模多機能型居宅介護】青森県五所川原市大字漆川字浅井143-4", "url": "https://www.kaigokensaku.mhlw.go.jp/02/index.php?action_kouhyou_detail_004_kani=true&JigyosyoCd=0290500115-00&ServiceCd=730&Type=search", "url2": null }, "geometry": { "type": "Point", "coordinates": [ 140.466737700000067, 40.8105942 ] } },
{ "type": "Feature", "properties": { "内容": "小規模多機能ホームくらしの家【小規模多機能型居宅介護】青森県十和田市西十一番町３－２０", "url": "https://www.kaigokensaku.mhlw.go.jp/02/index.php?action_kouhyou_detail_004_kani=true&JigyosyoCd=0290600170-00&ServiceCd=730&Type=search", "url2": "https://kurashilabo.co.jp" }, "geometry": { "type": "Point", "coordinates": [ 141.203346499999952, 40.6160621 ] } },
{ "type": "Feature", "properties": { "内容": "栄町コラボケアセンター【小規模多機能型居宅介護】青森県三沢市栄町３丁目１２５－１", "url": "https://www.kaigokensaku.mhlw.go.jp/02/index.php?action_kouhyou_detail_004_kani=true&JigyosyoCd=0290700053-00&ServiceCd=730&Type=search", "url2": "http://www.rakuseikai.or.jp/" }, "geometry": { "type": "Point", "coordinates": [ 141.361213600000042, 40.6707513 ] } },
{ "type": "Feature", "properties": { "内容": "松原コラボケアセンター【小規模多機能型居宅介護】青森県三沢市松原1丁目31番3704号", "url": "https://www.kaigokensaku.mhlw.go.jp/02/index.php?action_kouhyou_detail_004_kani=true&JigyosyoCd=0290700087-00&ServiceCd=730&Type=search", "url2": "http//www.rakuseikai.or.jp/" }, "geometry": { "type": "Point", "coordinates": [ 141.374090099999989, 40.673418100000013 ] } },
{ "type": "Feature", "properties": { "内容": "シニアライフサービス　南天の郷【小規模多機能型居宅介護】中央町4丁目1-2", "url": "https://www.kaigokensaku.mhlw.go.jp/02/index.php?action_kouhyou_detail_004_kani=true&JigyosyoCd=0290700129-00&ServiceCd=730&Type=search", "url2": "http://www.seijin.or.jp/life-misawa/" }, "geometry": { "type": "Point", "coordinates": [ 141.365088101042147, 40.68107741502984 ] } },
{ "type": "Feature", "properties": { "内容": "岡三沢コラボケアセンター【小規模多機能型居宅介護】青森県三沢市岡三沢一丁目1番９７", "url": "https://www.kaigokensaku.mhlw.go.jp/02/index.php?action_kouhyou_detail_004_kani=true&JigyosyoCd=0290700012-00&ServiceCd=730&Type=search", "url2": "http/www.rakuseikai.or.jp/" }, "geometry": { "type": "Point", "coordinates": [ 141.376202799999987, 40.6902583 ] } },
{ "type": "Feature", "properties": { "内容": "おおみなと園【小規模多機能型居宅介護】青森県むつ市大湊新町30番10号", "url": "https://www.kaigokensaku.mhlw.go.jp/02/index.php?action_kouhyou_detail_004_kani=true&JigyosyoCd=0290800044-00&ServiceCd=730&Type=search", "url2": "http://www.sakuragikai.or.jp/" }, "geometry": { "type": "Point", "coordinates": [ 141.1601111, 41.2827963 ] } },
{ "type": "Feature", "properties": { "内容": "小規模多機能型居宅介護　清風荘【小規模多機能型居宅介護】青森県東津軽郡平内町大字小豆沢字茂浦沢14-14", "url": "https://www.kaigokensaku.mhlw.go.jp/02/index.php?action_kouhyou_detail_004_kani=true&JigyosyoCd=0292000098-00&ServiceCd=730&Type=search", "url2": "http://koujinkai-seifu.com" }, "geometry": { "type": "Point", "coordinates": [ 140.912210100000038, 40.9179884 ] } },
{ "type": "Feature", "properties": { "内容": "小規模多機能型居宅介護ひばり野【小規模多機能型居宅介護】青森県西津軽郡鰺ヶ沢町大字建石町字雲雀野124‐18", "url": "https://www.kaigokensaku.mhlw.go.jp/02/index.php?action_kouhyou_detail_004_kani=true&JigyosyoCd=0272101130-00&ServiceCd=730&Type=search", "url2": null }, "geometry": { "type": "Point", "coordinates": [ 140.311259400000012, 40.7670759 ] } },
{ "type": "Feature", "properties": { "内容": "小規模多機能型居宅介護ケアホーム華【小規模多機能型居宅介護】青森県西津軽郡深浦町大字田野沢字汐干浜５－３", "url": "https://www.kaigokensaku.mhlw.go.jp/02/index.php?action_kouhyou_detail_004_kani=true&JigyosyoCd=0292100047-00&ServiceCd=730&Type=search", "url2": "http://fc09690220192001.web2.blks.jp/carehomehana/" }, "geometry": { "type": "Point", "coordinates": [ 140.032583964187552, 40.757488961413955 ] } },
{ "type": "Feature", "properties": { "内容": "プラットフォームさくら【小規模多機能型居宅介護】青森県北津軽郡中泊町大字中里字亀山777番地１６４", "url": "https://www.kaigokensaku.mhlw.go.jp/02/index.php?action_kouhyou_detail_004_kani=true&JigyosyoCd=0292400090-00&ServiceCd=730&Type=search", "url2": null }, "geometry": { "type": "Point", "coordinates": [ 140.444717, 40.9657203 ] } },
{ "type": "Feature", "properties": { "内容": "小規模多機能型居宅介護なかさと【小規模多機能型居宅介護】青森県北津軽郡中泊町大字中里字亀山434-1", "url": "https://www.kaigokensaku.mhlw.go.jp/02/index.php?action_kouhyou_detail_004_kani=true&JigyosyoCd=0292400108-00&ServiceCd=730&Type=search", "url2": null }, "geometry": { "type": "Point", "coordinates": [ 140.439589599999977, 40.9650647 ] } },
{ "type": "Feature", "properties": { "内容": "医療法人蛍慈会　小規模多機能居宅介護事業所いしき【小規模多機能型居宅介護】青森県上北郡横浜町字屋敷形63-1医療法人　蛍慈会　小規模多機能型居宅介護事業所いしき", "url": "https://www.kaigokensaku.mhlw.go.jp/02/index.php?action_kouhyou_detail_004_kani=true&JigyosyoCd=0292500204-00&ServiceCd=730&Type=search", "url2": null }, "geometry": { "type": "Point", "coordinates": [ 141.2459225, 41.076889 ] } },
{ "type": "Feature", "properties": { "内容": "小規模多機能型ホーム森の郷【小規模多機能型居宅介護】青森県上北郡東北町大字大浦字井尻298-22", "url": "https://www.kaigokensaku.mhlw.go.jp/02/index.php?action_kouhyou_detail_004_kani=true&JigyosyoCd=0292500188-00&ServiceCd=730&Type=search", "url2": "http://sinseikai.jp/" }, "geometry": { "type": "Point", "coordinates": [ 141.25869860428017, 40.703110513716553 ] } },
{ "type": "Feature", "properties": { "内容": "ケアプラザ　ひばの里【小規模多機能型居宅介護】青森県上北郡東北町字膳前５６－１", "url": "https://www.kaigokensaku.mhlw.go.jp/02/index.php?action_kouhyou_detail_004_kani=true&JigyosyoCd=0292500055-00&ServiceCd=730&Type=search", "url2": "http://care-net.biz/02/akamatu/" }, "geometry": { "type": "Point", "coordinates": [ 141.210535957672164, 40.779298801763879 ] } },
{ "type": "Feature", "properties": { "内容": "小規模多機能型居宅介護事業所なごみの家すもも【小規模多機能型居宅介護】青森県東北町字上笹橋２３－３１", "url": "https://www.kaigokensaku.mhlw.go.jp/02/index.php?action_kouhyou_detail_004_kani=true&JigyosyoCd=0292500048-00&ServiceCd=730&Type=search", "url2": null }, "geometry": { "type": "Point", "coordinates": [ 141.216725399999973, 40.7806831 ] } },
{ "type": "Feature", "properties": { "内容": "小規模多機能ホーム蒼【小規模多機能型居宅介護】青森県三戸郡南部町大字下名久井字如来堂5番地1小規模多機能ホーム蒼", "url": "https://www.kaigokensaku.mhlw.go.jp/02/index.php?action_kouhyou_detail_004_kani=true&JigyosyoCd=0292700259-00&ServiceCd=730&Type=search", "url2": "https://nanyukai.or.jp/" }, "geometry": { "type": "Point", "coordinates": [ 141.335375699999986, 40.4228644 ] } },
{ "type": "Feature", "properties": { "内容": "小規模多機能ホーム　あかぼないの里【小規模多機能型居宅介護】青森県三戸郡階上町大字赤保内字外平23-273", "url": "https://www.kaigokensaku.mhlw.go.jp/02/index.php?action_kouhyou_detail_004_kani=true&JigyosyoCd=0292700077-00&ServiceCd=730&Type=search", "url2": "http://shafuku-asunarokai.jp" }, "geometry": { "type": "Point", "coordinates": [ 141.609858552931797, 40.45545612144452 ] } }
]
}
