{
"type": "FeatureCollection",
"name": "geo_02_幼稚園",
"crs": { "type": "name", "properties": { "name": "urn:ogc:def:crs:EPSG::6668" } },
"features": [
{ "type": "Feature", "properties": { "P29_001": "02202", "P29_002": "A102110000011", "P29_003": "16011", "P29_004": "弘前大学教育学部附属幼稚園", "P29_005": "青森県弘前市学園町1-1", "P29_006": "1", "P29_007": "0", "P29_008": "00", "P29_009": null }, "geometry": { "type": "Point", "coordinates": [ 140.480957556661281, 40.579487319527011 ] } },
{ "type": "Feature", "properties": { "P29_001": "02423", "P29_002": "A102210000019", "P29_003": "16011", "P29_004": "大間町立大間幼稚園", "P29_005": "青森県下北郡大間町大間字大間平20-38", "P29_006": "3", "P29_007": "0", "P29_008": "00", "P29_009": null }, "geometry": { "type": "Point", "coordinates": [ 140.922418496823468, 41.526826471309754 ] } },
{ "type": "Feature", "properties": { "P29_001": "02443", "P29_002": "A102210000028", "P29_003": "16011", "P29_004": "田子町立田子幼稚園", "P29_005": "青森県三戸郡田子町田子字悪土6-1", "P29_006": "3", "P29_007": "0", "P29_008": "00", "P29_009": null }, "geometry": { "type": "Point", "coordinates": [ 141.148478997208201, 40.343767653723084 ] } },
{ "type": "Feature", "properties": { "P29_001": "02201", "P29_002": "A102310000017", "P29_003": "16011", "P29_004": "認定こども園東奥幼稚園", "P29_005": "青森県青森市勝田2-11-3", "P29_006": "4", "P29_007": "0", "P29_008": "00", "P29_009": null }, "geometry": { "type": "Point", "coordinates": [ 140.756059184417126, 40.818569070023699 ] } },
{ "type": "Feature", "properties": { "P29_001": "02201", "P29_002": "A102310000026", "P29_003": "16011", "P29_004": "認定こども園青森幼稚園", "P29_005": "青森県青森市篠田2-22-8", "P29_006": "4", "P29_007": "0", "P29_008": "00", "P29_009": null }, "geometry": { "type": "Point", "coordinates": [ 140.725654348670901, 40.827613760244056 ] } },
{ "type": "Feature", "properties": { "P29_001": "02201", "P29_002": "A102310000035", "P29_003": "16011", "P29_004": "認定こども園油川幼稚園", "P29_005": "青森県青森市羽白野木和37", "P29_006": "4", "P29_007": "0", "P29_008": "00", "P29_009": null }, "geometry": { "type": "Point", "coordinates": [ 140.680034815812093, 40.846660258471012 ] } },
{ "type": "Feature", "properties": { "P29_001": "02201", "P29_002": "A102310000044", "P29_003": "16011", "P29_004": "聖ヤコブ幼稚園", "P29_005": "青森県青森市桜川5-4-11", "P29_006": "4", "P29_007": "0", "P29_008": "00", "P29_009": null }, "geometry": { "type": "Point", "coordinates": [ 140.769478551093016, 40.812148209235652 ] } },
{ "type": "Feature", "properties": { "P29_001": "02201", "P29_002": "A102310000053", "P29_003": "16011", "P29_004": "浪打カトリック幼稚園", "P29_005": "青森県青森市浪打1-20-6", "P29_006": "4", "P29_007": "0", "P29_008": "00", "P29_009": null }, "geometry": { "type": "Point", "coordinates": [ 140.780284994713526, 40.823755999601886 ] } },
{ "type": "Feature", "properties": { "P29_001": "02201", "P29_002": "A102310000062", "P29_003": "16011", "P29_004": "青森大谷幼稚園", "P29_005": "青森県青森市長島3-9-1", "P29_006": "4", "P29_007": "0", "P29_008": "00", "P29_009": null }, "geometry": { "type": "Point", "coordinates": [ 140.741850946340008, 40.821584501850076 ] } },
{ "type": "Feature", "properties": { "P29_001": "02201", "P29_002": "A102310000071", "P29_003": "16011", "P29_004": "認定こども園甲田幼稚園", "P29_005": "青森県青森市金沢1-2-7", "P29_006": "4", "P29_007": "0", "P29_008": "00", "P29_009": null }, "geometry": { "type": "Point", "coordinates": [ 140.73302988832063, 40.813951817579323 ] } },
{ "type": "Feature", "properties": { "P29_001": "02201", "P29_002": "A102310000080", "P29_003": "16011", "P29_004": "聖マリア幼稚園", "P29_005": "青森県青森市長島4-23-21", "P29_006": "4", "P29_007": "0", "P29_008": "00", "P29_009": null }, "geometry": { "type": "Point", "coordinates": [ 140.742585232742954, 40.819023096900757 ] } },
{ "type": "Feature", "properties": { "P29_001": "02201", "P29_002": "A102310000099", "P29_003": "16011", "P29_004": "聖アルバン幼稚園", "P29_005": "青森県青森市浪打1-17-14", "P29_006": "4", "P29_007": "0", "P29_008": "00", "P29_009": null }, "geometry": { "type": "Point", "coordinates": [ 140.779306632317059, 40.825336746461865 ] } },
{ "type": "Feature", "properties": { "P29_001": "02201", "P29_002": "A102310000106", "P29_003": "16011", "P29_004": "認定こども園あすなろ幼稚園", "P29_005": "青森県青森市奥内字宮田61", "P29_006": "4", "P29_007": "0", "P29_008": "00", "P29_009": null }, "geometry": { "type": "Point", "coordinates": [ 140.674978309004302, 40.887465464036723 ] } },
{ "type": "Feature", "properties": { "P29_001": "02201", "P29_002": "A102310000115", "P29_003": "16011", "P29_004": "王恵幼稚園", "P29_005": "青森県青森市青柳2-2-10", "P29_006": "4", "P29_007": "0", "P29_008": "00", "P29_009": null }, "geometry": { "type": "Point", "coordinates": [ 140.755786001578542, 40.826438995698595 ] } },
{ "type": "Feature", "properties": { "P29_001": "02201", "P29_002": "A102310000124", "P29_003": "16011", "P29_004": "認定こども園白ゆり幼稚園", "P29_005": "青森県青森市桜川2-15-3", "P29_006": "4", "P29_007": "0", "P29_008": "00", "P29_009": null }, "geometry": { "type": "Point", "coordinates": [ 140.767472001180607, 40.815786002336516 ] } },
{ "type": "Feature", "properties": { "P29_001": "02201", "P29_002": "A102310000133", "P29_003": "16011", "P29_004": "呉竹幼稚園", "P29_005": "青森県青森市松原2-15-2", "P29_006": "4", "P29_007": "0", "P29_008": "00", "P29_009": null }, "geometry": { "type": "Point", "coordinates": [ 140.764544123286214, 40.820705585003921 ] } },
{ "type": "Feature", "properties": { "P29_001": "02201", "P29_002": "A102310000142", "P29_003": "16011", "P29_004": "青森西幼稚園", "P29_005": "青森県青森市三内字稲元55", "P29_006": "4", "P29_007": "0", "P29_008": "00", "P29_009": null }, "geometry": { "type": "Point", "coordinates": [ 140.706462129091165, 40.82195540666816 ] } },
{ "type": "Feature", "properties": { "P29_001": "02201", "P29_002": "A102310000151", "P29_003": "16011", "P29_004": "愛育幼稚園", "P29_005": "青森県青森市久須志4-12-1", "P29_006": "4", "P29_007": "0", "P29_008": "00", "P29_009": null }, "geometry": { "type": "Point", "coordinates": [ 140.725161630009239, 40.81805571968755 ] } },
{ "type": "Feature", "properties": { "P29_001": "02201", "P29_002": "A102310000160", "P29_003": "16011", "P29_004": "認定こども園青森中央短期大学附属第一幼稚園", "P29_005": "青森県青森市野尻字今田108", "P29_006": "4", "P29_007": "0", "P29_008": "00", "P29_009": null }, "geometry": { "type": "Point", "coordinates": [ 140.763183373428916, 40.784536899190677 ] } },
{ "type": "Feature", "properties": { "P29_001": "02201", "P29_002": "A102310000179", "P29_003": "16011", "P29_004": "青森明の星短期大学付属幼稚園", "P29_005": "青森県青森市浪打2-6-32", "P29_006": "4", "P29_007": "0", "P29_008": "00", "P29_009": null }, "geometry": { "type": "Point", "coordinates": [ 140.783794934435093, 40.824048548155325 ] } },
{ "type": "Feature", "properties": { "P29_001": "02201", "P29_002": "A102310000188", "P29_003": "16011", "P29_004": "認定こども園青森第一うとう幼稚園", "P29_005": "青森県青森市小柳6-11-12", "P29_006": "4", "P29_007": "0", "P29_008": "00", "P29_009": null }, "geometry": { "type": "Point", "coordinates": [ 140.789066960388482, 40.820765293709549 ] } },
{ "type": "Feature", "properties": { "P29_001": "02201", "P29_002": "A102310000197", "P29_003": "16011", "P29_004": "第二青森幼稚園", "P29_005": "青森県青森市青葉3-10-45", "P29_006": "4", "P29_007": "0", "P29_008": "00", "P29_009": null }, "geometry": { "type": "Point", "coordinates": [ 140.754695862012994, 40.802292037787659 ] } },
{ "type": "Feature", "properties": { "P29_001": "02201", "P29_002": "A102310000204", "P29_003": "16011", "P29_004": "たんぽぽ幼稚園", "P29_005": "青森県青森市駒込字蛍沢280-3", "P29_006": "4", "P29_007": "0", "P29_008": "00", "P29_009": null }, "geometry": { "type": "Point", "coordinates": [ 140.797587409901467, 40.798267367642431 ] } },
{ "type": "Feature", "properties": { "P29_001": "02201", "P29_002": "A102310000213", "P29_003": "16011", "P29_004": "認定こども園第一南幼稚園", "P29_005": "青森県青森市緑2-10-10", "P29_006": "4", "P29_007": "0", "P29_008": "00", "P29_009": null }, "geometry": { "type": "Point", "coordinates": [ 140.747364994574951, 40.806689996287815 ] } },
{ "type": "Feature", "properties": { "P29_001": "02201", "P29_002": "A102310000222", "P29_003": "16011", "P29_004": "認定こども園青森中央短期大学附属第二幼稚園", "P29_005": "青森県青森市三内字丸山16", "P29_006": "4", "P29_007": "0", "P29_008": "00", "P29_009": null }, "geometry": { "type": "Point", "coordinates": [ 140.710316997625398, 40.814887999175447 ] } },
{ "type": "Feature", "properties": { "P29_001": "02201", "P29_002": "A102310000231", "P29_003": "16011", "P29_004": "認定こども園青森中央短期大学附属第三幼稚園", "P29_005": "青森県青森市原別字袖崎9", "P29_006": "4", "P29_007": "0", "P29_008": "00", "P29_009": null }, "geometry": { "type": "Point", "coordinates": [ 140.809513438697877, 40.83450666097098 ] } },
{ "type": "Feature", "properties": { "P29_001": "02201", "P29_002": "A102310000240", "P29_003": "16011", "P29_004": "螢ヶ丘幼稚園", "P29_005": "青森県青森市赤坂1-27-9", "P29_006": "4", "P29_007": "0", "P29_008": "00", "P29_009": null }, "geometry": { "type": "Point", "coordinates": [ 140.809134984547853, 40.799599701135065 ] } },
{ "type": "Feature", "properties": { "P29_001": "02202", "P29_002": "A102310000259", "P29_003": "16011", "P29_004": "柴田幼稚園", "P29_005": "青森県弘前市清原1-1-1", "P29_006": "4", "P29_007": "0", "P29_008": "00", "P29_009": null }, "geometry": { "type": "Point", "coordinates": [ 140.484395907185274, 40.582694842065095 ] } },
{ "type": "Feature", "properties": { "P29_001": "02202", "P29_002": "A102310000268", "P29_003": "16011", "P29_004": "文化幼稚園", "P29_005": "青森県弘前市紙漉町5-3", "P29_006": "4", "P29_007": "0", "P29_008": "00", "P29_009": null }, "geometry": { "type": "Point", "coordinates": [ 140.470666004256742, 40.595625003851104 ] } },
{ "type": "Feature", "properties": { "P29_001": "02202", "P29_002": "A102310000277", "P29_003": "16011", "P29_004": "弘前明の星幼稚園", "P29_005": "青森県弘前市紺屋町127", "P29_006": "4", "P29_007": "0", "P29_008": "00", "P29_009": null }, "geometry": { "type": "Point", "coordinates": [ 140.463817345631611, 40.614262143777388 ] } },
{ "type": "Feature", "properties": { "P29_001": "02202", "P29_002": "A102310000286", "P29_003": "16011", "P29_004": "養生幼稚園", "P29_005": "青森県弘前市元長町19", "P29_006": "4", "P29_007": "0", "P29_008": "00", "P29_009": null }, "geometry": { "type": "Point", "coordinates": [ 140.467791001573119, 40.602417996532296 ] } },
{ "type": "Feature", "properties": { "P29_001": "02202", "P29_002": "A102310000295", "P29_003": "16011", "P29_004": "弘前カトリック幼稚園", "P29_005": "青森県弘前市百石町小路20", "P29_006": "4", "P29_007": "0", "P29_008": "00", "P29_009": null }, "geometry": { "type": "Point", "coordinates": [ 140.471836404511095, 40.606254978203381 ] } },
{ "type": "Feature", "properties": { "P29_001": "02202", "P29_002": "A102310000302", "P29_003": "16011", "P29_004": "若草幼稚園", "P29_005": "青森県弘前市松森町167", "P29_006": "4", "P29_007": "0", "P29_008": "00", "P29_009": null }, "geometry": { "type": "Point", "coordinates": [ 140.48380499565954, 40.589862001767862 ] } },
{ "type": "Feature", "properties": { "P29_001": "02202", "P29_002": "A102310000311", "P29_003": "16011", "P29_004": "明星幼稚園", "P29_005": "青森県弘前市山道町23", "P29_006": "4", "P29_007": "0", "P29_008": "00", "P29_009": null }, "geometry": { "type": "Point", "coordinates": [ 140.47450912212696, 40.598580111570968 ] } },
{ "type": "Feature", "properties": { "P29_001": "02202", "P29_002": "A102310000320", "P29_003": "16011", "P29_004": "認定こども園弘前みなみ幼稚園", "P29_005": "青森県弘前市原ヶ平山中32-10", "P29_006": "4", "P29_007": "0", "P29_008": "00", "P29_009": null }, "geometry": { "type": "Point", "coordinates": [ 140.463887380519594, 40.568827295375577 ] } },
{ "type": "Feature", "properties": { "P29_001": "02202", "P29_002": "A102310000339", "P29_003": "16011", "P29_004": "認定こども園ひばり幼稚園", "P29_005": "青森県弘前市大開2-4-3", "P29_006": "4", "P29_007": "0", "P29_008": "00", "P29_009": null }, "geometry": { "type": "Point", "coordinates": [ 140.445919616183232, 40.573694930756837 ] } },
{ "type": "Feature", "properties": { "P29_001": "02203", "P29_002": "A102310000348", "P29_003": "16011", "P29_004": "八戸聖ウルスラ学院幼稚園", "P29_005": "青森県八戸市田面木字上野平53-2", "P29_006": "4", "P29_007": "0", "P29_008": "00", "P29_009": null }, "geometry": { "type": "Point", "coordinates": [ 141.450674111477781, 40.490669452009641 ] } },
{ "type": "Feature", "properties": { "P29_001": "02203", "P29_002": "A102310000357", "P29_003": "16011", "P29_004": "千葉幼稚園", "P29_005": "青森県八戸市田向2-2-5", "P29_006": "4", "P29_007": "0", "P29_008": "00", "P29_009": null }, "geometry": { "type": "Point", "coordinates": [ 141.509965997547539, 40.496296995998826 ] } },
{ "type": "Feature", "properties": { "P29_001": "02203", "P29_002": "A102310000366", "P29_003": "16011", "P29_004": "まほろば幼稚園", "P29_005": "青森県八戸市売市2-7-28", "P29_006": "4", "P29_007": "0", "P29_008": "00", "P29_009": null }, "geometry": { "type": "Point", "coordinates": [ 141.475505003498114, 40.509378001354399 ] } },
{ "type": "Feature", "properties": { "P29_001": "02203", "P29_002": "A102310000375", "P29_003": "16011", "P29_004": "認定こども園長者幼稚園", "P29_005": "青森県八戸市沢里字藤子31", "P29_006": "4", "P29_007": "0", "P29_008": "00", "P29_009": null }, "geometry": { "type": "Point", "coordinates": [ 141.480111003993443, 40.497532997099469 ] } },
{ "type": "Feature", "properties": { "P29_001": "02203", "P29_002": "A102310000384", "P29_003": "16011", "P29_004": "駒沢幼稚園", "P29_005": "青森県八戸市石手洗字駒ヶ沢28-1", "P29_006": "4", "P29_007": "0", "P29_008": "00", "P29_009": null }, "geometry": { "type": "Point", "coordinates": [ 141.496246044501191, 40.485373332034257 ] } },
{ "type": "Feature", "properties": { "P29_001": "02203", "P29_002": "A102310000393", "P29_003": "16011", "P29_004": "イメルダ幼稚園", "P29_005": "青森県八戸市柏崎4-14-40", "P29_006": "4", "P29_007": "0", "P29_008": "00", "P29_009": null }, "geometry": { "type": "Point", "coordinates": [ 141.500175001614593, 40.51578500039394 ] } },
{ "type": "Feature", "properties": { "P29_001": "02203", "P29_002": "A102310000400", "P29_003": "16011", "P29_004": "認定こども園かもめ幼稚園", "P29_005": "青森県八戸市鮫町字ハンノ木沢4-1", "P29_006": "4", "P29_007": "0", "P29_008": "00", "P29_009": null }, "geometry": { "type": "Point", "coordinates": [ 141.56223699659904, 40.528908002016216 ] } },
{ "type": "Feature", "properties": { "P29_001": "02203", "P29_002": "A102310000419", "P29_003": "16011", "P29_004": "八戸幼稚園", "P29_005": "青森県八戸市類家4-9-3", "P29_006": "4", "P29_007": "0", "P29_008": "00", "P29_009": null }, "geometry": { "type": "Point", "coordinates": [ 141.509186451133615, 40.50733253964755 ] } },
{ "type": "Feature", "properties": { "P29_001": "02203", "P29_002": "A102310000428", "P29_003": "16011", "P29_004": "八戸めぐみ幼稚園", "P29_005": "青森県八戸市根城9-7-6", "P29_006": "4", "P29_007": "0", "P29_008": "00", "P29_009": null }, "geometry": { "type": "Point", "coordinates": [ 141.469717288988733, 40.50954780867044 ] } },
{ "type": "Feature", "properties": { "P29_001": "02203", "P29_002": "A102310000437", "P29_003": "16011", "P29_004": "八戸小中野幼稚園", "P29_005": "青森県八戸市小中野6-4-5", "P29_006": "4", "P29_007": "0", "P29_008": "00", "P29_009": null }, "geometry": { "type": "Point", "coordinates": [ 141.515468136971407, 40.51971346520331 ] } },
{ "type": "Feature", "properties": { "P29_001": "02203", "P29_002": "A102310000446", "P29_003": "16011", "P29_004": "旭ヶ丘幼稚園", "P29_005": "青森県八戸市旭ヶ丘3-1-80", "P29_006": "4", "P29_007": "0", "P29_008": "00", "P29_009": null }, "geometry": { "type": "Point", "coordinates": [ 141.534263571252779, 40.498908261273485 ] } },
{ "type": "Feature", "properties": { "P29_001": "02203", "P29_002": "A102310000455", "P29_003": "16011", "P29_004": "さくら幼稚園", "P29_005": "青森県八戸市湊高台7-6-14", "P29_006": "4", "P29_007": "0", "P29_008": "00", "P29_009": null }, "geometry": { "type": "Point", "coordinates": [ 141.544680997441048, 40.508562996159171 ] } },
{ "type": "Feature", "properties": { "P29_001": "02203", "P29_002": "A102310000464", "P29_003": "16011", "P29_004": "八戸学院聖アンナ幼稚園", "P29_005": "青森県八戸市青葉3-23-7", "P29_006": "4", "P29_007": "0", "P29_008": "00", "P29_009": null }, "geometry": { "type": "Point", "coordinates": [ 141.511381532943744, 40.511466537679055 ] } },
{ "type": "Feature", "properties": { "P29_001": "02203", "P29_002": "A102310000473", "P29_003": "16011", "P29_004": "八戸シオン幼稚園", "P29_005": "青森県八戸市糠塚字葭谷地2-14", "P29_006": "4", "P29_007": "0", "P29_008": "00", "P29_009": null }, "geometry": { "type": "Point", "coordinates": [ 141.487285116828133, 40.491743391701206 ] } },
{ "type": "Feature", "properties": { "P29_001": "02203", "P29_002": "A102310000482", "P29_003": "16011", "P29_004": "みどり幼稚園", "P29_005": "青森県八戸市柏崎3-11-14", "P29_006": "4", "P29_007": "0", "P29_008": "00", "P29_009": null }, "geometry": { "type": "Point", "coordinates": [ 141.502307708636408, 40.513188578506515 ] } },
{ "type": "Feature", "properties": { "P29_001": "02203", "P29_002": "A102310000491", "P29_003": "16011", "P29_004": "八戸学院第二しののめ幼稚園", "P29_005": "青森県八戸市新井田字小久保尻1-51", "P29_006": "4", "P29_007": "0", "P29_008": "00", "P29_009": null }, "geometry": { "type": "Point", "coordinates": [ 141.540894540269562, 40.493933819034005 ] } },
{ "type": "Feature", "properties": { "P29_001": "02204", "P29_002": "A102310000507", "P29_003": "16011", "P29_004": "聖テレジア幼稚園", "P29_005": "青森県黒石市大町2-68", "P29_006": "4", "P29_007": "0", "P29_008": "00", "P29_009": null }, "geometry": { "type": "Point", "coordinates": [ 140.591443418323394, 40.647212756331896 ] } },
{ "type": "Feature", "properties": { "P29_001": "02204", "P29_002": "A102310000516", "P29_003": "16011", "P29_004": "認定こども園東雲幼稚園", "P29_005": "青森県黒石市上山形字中野馬場24-2", "P29_006": "4", "P29_007": "0", "P29_008": "00", "P29_009": null }, "geometry": { "type": "Point", "coordinates": [ 140.6620583793175, 40.611363658576082 ] } },
{ "type": "Feature", "properties": { "P29_001": "02205", "P29_002": "A102310000525", "P29_003": "16011", "P29_004": "五所川原幼稚園", "P29_005": "青森県五所川原市唐笠柳字藤巻80", "P29_006": "4", "P29_007": "0", "P29_008": "00", "P29_009": null }, "geometry": { "type": "Point", "coordinates": [ 140.455639001012088, 40.800931996068741 ] } },
{ "type": "Feature", "properties": { "P29_001": "02205", "P29_002": "A102310000534", "P29_003": "16011", "P29_004": "ひまわり幼稚園", "P29_005": "青森県五所川原市元町42", "P29_006": "4", "P29_007": "0", "P29_008": "00", "P29_009": null }, "geometry": { "type": "Point", "coordinates": [ 140.441856143412338, 40.804969286564585 ] } },
{ "type": "Feature", "properties": { "P29_001": "02205", "P29_002": "A102310000543", "P29_003": "16011", "P29_004": "聖心幼稚園", "P29_005": "青森県五所川原市末広町1", "P29_006": "4", "P29_007": "0", "P29_008": "00", "P29_009": null }, "geometry": { "type": "Point", "coordinates": [ 140.441417479407619, 40.813573082745769 ] } },
{ "type": "Feature", "properties": { "P29_001": "02205", "P29_002": "A102310000552", "P29_003": "16011", "P29_004": "認定こども園富士幼稚園", "P29_005": "青森県五所川原市みどり町8-40", "P29_006": "4", "P29_007": "0", "P29_008": "00", "P29_009": null }, "geometry": { "type": "Point", "coordinates": [ 140.462278003550864, 40.779783002743187 ] } },
{ "type": "Feature", "properties": { "P29_001": "02206", "P29_002": "A102310000561", "P29_003": "16011", "P29_004": "十和田カトリック幼稚園", "P29_005": "青森県十和田市東二番町1-51", "P29_006": "4", "P29_007": "0", "P29_008": "00", "P29_009": null }, "geometry": { "type": "Point", "coordinates": [ 141.213143224619131, 40.617961947861808 ] } },
{ "type": "Feature", "properties": { "P29_001": "02206", "P29_002": "A102310000570", "P29_003": "16011", "P29_004": "認定こども園十和田みなみ幼稚園", "P29_005": "青森県十和田市穂並町4-55", "P29_006": "4", "P29_007": "0", "P29_008": "00", "P29_009": null }, "geometry": { "type": "Point", "coordinates": [ 141.219914773827696, 40.607478634297649 ] } },
{ "type": "Feature", "properties": { "P29_001": "02206", "P29_002": "A102310000589", "P29_003": "16011", "P29_004": "北園幼稚園", "P29_005": "青森県十和田市西二十一番町68-53", "P29_006": "4", "P29_007": "0", "P29_008": "00", "P29_009": null }, "geometry": { "type": "Point", "coordinates": [ 141.188678997335813, 40.61245499886904 ] } },
{ "type": "Feature", "properties": { "P29_001": "02207", "P29_002": "A102310000598", "P29_003": "16011", "P29_004": "三沢カトリック幼稚園", "P29_005": "青森県三沢市中央町4-3-12", "P29_006": "4", "P29_007": "0", "P29_008": "00", "P29_009": null }, "geometry": { "type": "Point", "coordinates": [ 141.364392995205634, 40.680245001626567 ] } },
{ "type": "Feature", "properties": { "P29_001": "02207", "P29_002": "A102310000605", "P29_003": "16011", "P29_004": "いちい幼稚園", "P29_005": "青森県三沢市春日台2-154-71", "P29_006": "4", "P29_007": "0", "P29_008": "00", "P29_009": null }, "geometry": { "type": "Point", "coordinates": [ 141.345291593590758, 40.667616417595241 ] } },
{ "type": "Feature", "properties": { "P29_001": "02207", "P29_002": "A102310000614", "P29_003": "16011", "P29_004": "松園幼稚園", "P29_005": "青森県三沢市松園町2-21-1", "P29_006": "4", "P29_007": "0", "P29_008": "00", "P29_009": null }, "geometry": { "type": "Point", "coordinates": [ 141.367052510193645, 40.675515820691857 ] } },
{ "type": "Feature", "properties": { "P29_001": "02208", "P29_002": "A102310000623", "P29_003": "16011", "P29_004": "大湊カトリック幼稚園", "P29_005": "青森県むつ市大湊浜町20-17", "P29_006": "4", "P29_007": "0", "P29_008": "00", "P29_009": null }, "geometry": { "type": "Point", "coordinates": [ 141.153848003726267, 41.276466002641598 ] } },
{ "type": "Feature", "properties": { "P29_001": "02208", "P29_002": "A102310000632", "P29_003": "16011", "P29_004": "田名部カトリック幼稚園", "P29_005": "青森県むつ市新町11-28", "P29_006": "4", "P29_007": "0", "P29_008": "00", "P29_009": null }, "geometry": { "type": "Point", "coordinates": [ 141.209242998532432, 41.291065997751133 ] } },
{ "type": "Feature", "properties": { "P29_001": "02208", "P29_002": "A102310000641", "P29_003": "16011", "P29_004": "むつひまわり幼稚園", "P29_005": "青森県むつ市横迎町2-14-50", "P29_006": "4", "P29_007": "0", "P29_008": "00", "P29_009": null }, "geometry": { "type": "Point", "coordinates": [ 141.221937002046872, 41.295817999860823 ] } },
{ "type": "Feature", "properties": { "P29_001": "02208", "P29_002": "A102310000650", "P29_003": "16011", "P29_004": "大湊幼稚園", "P29_005": "青森県むつ市宇田町12-5", "P29_006": "4", "P29_007": "0", "P29_008": "00", "P29_009": null }, "geometry": { "type": "Point", "coordinates": [ 141.143915409578852, 41.260556923335955 ] } },
{ "type": "Feature", "properties": { "P29_001": "02208", "P29_002": "A102310000678", "P29_003": "16011", "P29_004": "こばと幼稚園", "P29_005": "青森県むつ市昭和町23-25", "P29_006": "4", "P29_007": "0", "P29_008": "00", "P29_009": null }, "geometry": { "type": "Point", "coordinates": [ 141.204208003980682, 41.282103003293322 ] } },
{ "type": "Feature", "properties": { "P29_001": "02301", "P29_002": "A102310000687", "P29_003": "16011", "P29_004": "山彦幼稚園", "P29_005": "青森県東津軽郡平内町小湊字下槻5-36", "P29_006": "4", "P29_007": "0", "P29_008": "00", "P29_009": null }, "geometry": { "type": "Point", "coordinates": [ 140.962322006004115, 40.923877002326556 ] } },
{ "type": "Feature", "properties": { "P29_001": "02209", "P29_002": "A102310000696", "P29_003": "16011", "P29_004": "認定こども園育実幼稚園", "P29_005": "青森県つがる市木造照日35-1", "P29_006": "4", "P29_007": "0", "P29_008": "00", "P29_009": null }, "geometry": { "type": "Point", "coordinates": [ 140.392238884125078, 40.805696774141104 ] } },
{ "type": "Feature", "properties": { "P29_001": "02361", "P29_002": "A102310000703", "P29_003": "16011", "P29_004": "藤崎幼稚園", "P29_005": "青森県南津軽郡藤崎町藤崎字舘岡49-4", "P29_006": "4", "P29_007": "0", "P29_008": "00", "P29_009": null }, "geometry": { "type": "Point", "coordinates": [ 140.495708238807026, 40.65271435487157 ] } },
{ "type": "Feature", "properties": { "P29_001": "02210", "P29_002": "A102310000712", "P29_003": "16011", "P29_004": "平賀幼稚園", "P29_005": "青森県平川市荒田上駒田158-2", "P29_006": "4", "P29_007": "0", "P29_008": "00", "P29_009": null }, "geometry": { "type": "Point", "coordinates": [ 140.571087243675947, 40.600757229275715 ] } },
{ "type": "Feature", "properties": { "P29_001": "02384", "P29_002": "A102310000721", "P29_003": "16011", "P29_004": "ひなづる幼稚園", "P29_005": "青森県北津軽郡鶴田町鶴田字中泉4", "P29_006": "4", "P29_007": "0", "P29_008": "00", "P29_009": null }, "geometry": { "type": "Point", "coordinates": [ 140.437037003613028, 40.758057003461751 ] } },
{ "type": "Feature", "properties": { "P29_001": "02205", "P29_002": "A102310000730", "P29_003": "16011", "P29_004": "認定こども園金木幼稚園", "P29_005": "青森県五所川原市金木町朝日山77-1", "P29_006": "4", "P29_007": "0", "P29_008": "00", "P29_009": null }, "geometry": { "type": "Point", "coordinates": [ 140.454974038182172, 40.905901728775575 ] } },
{ "type": "Feature", "properties": { "P29_001": "02401", "P29_002": "A102310000749", "P29_003": "16011", "P29_004": "野辺地カトリック幼稚園", "P29_005": "青森県上北郡野辺地町野辺地318-1", "P29_006": "4", "P29_007": "0", "P29_008": "00", "P29_009": null }, "geometry": { "type": "Point", "coordinates": [ 141.126152001209277, 40.867734998170562 ] } },
{ "type": "Feature", "properties": { "P29_001": "02405", "P29_002": "A102310000758", "P29_003": "16011", "P29_004": "認定こども園小松ケ丘幼稚園", "P29_005": "青森県上北郡六戸町小松ヶ丘1-77-393", "P29_006": "4", "P29_007": "0", "P29_008": "00", "P29_009": null }, "geometry": { "type": "Point", "coordinates": [ 141.333296002733107, 40.660260004922222 ] } },
{ "type": "Feature", "properties": { "P29_001": "02406", "P29_002": "A102310000767", "P29_003": "16011", "P29_004": "横浜あさひ幼稚園", "P29_005": "青森県上北郡横浜町字林ノ後21-6", "P29_006": "4", "P29_007": "0", "P29_008": "00", "P29_009": null }, "geometry": { "type": "Point", "coordinates": [ 141.253744878641669, 41.084787813729818 ] } },
{ "type": "Feature", "properties": { "P29_001": "02412", "P29_002": "A102310000785", "P29_003": "16011", "P29_004": "しもだ幼稚園", "P29_005": "青森県上北郡おいらせ町青葉5-50-841", "P29_006": "4", "P29_007": "0", "P29_008": "00", "P29_009": null }, "geometry": { "type": "Point", "coordinates": [ 141.372657831165299, 40.652193759494885 ] } },
{ "type": "Feature", "properties": { "P29_001": "02208", "P29_002": "A102310000794", "P29_003": "16011", "P29_004": "あたご幼稚園", "P29_005": "青森県むつ市川内町川内87", "P29_006": "4", "P29_007": "0", "P29_008": "00", "P29_009": null }, "geometry": { "type": "Point", "coordinates": [ 140.999480803888531, 41.197682775495075 ] } },
{ "type": "Feature", "properties": { "P29_001": "02208", "P29_002": "A102310000801", "P29_003": "16011", "P29_004": "認定こども園こすもす幼稚園", "P29_005": "青森県むつ市大畑町兎沢17-228", "P29_006": "4", "P29_007": "0", "P29_008": "00", "P29_009": null }, "geometry": { "type": "Point", "coordinates": [ 141.156956166250183, 41.395196788885791 ] } },
{ "type": "Feature", "properties": { "P29_001": "02441", "P29_002": "A102310000810", "P29_003": "16011", "P29_004": "三戸紫苑幼稚園", "P29_005": "青森県三戸郡三戸町梅内字雷平252", "P29_006": "4", "P29_007": "0", "P29_008": "00", "P29_009": null }, "geometry": { "type": "Point", "coordinates": [ 141.256758801799009, 40.374910533952722 ] } },
{ "type": "Feature", "properties": { "P29_001": "02442", "P29_002": "A102310000829", "P29_003": "16011", "P29_004": "五戸カトリック幼稚園", "P29_005": "青森県三戸郡五戸町下沢向12-1", "P29_006": "4", "P29_007": "0", "P29_008": "00", "P29_009": null }, "geometry": { "type": "Point", "coordinates": [ 141.304000001913067, 40.523877995511413 ] } },
{ "type": "Feature", "properties": { "P29_001": "02442", "P29_002": "A102310000838", "P29_003": "16011", "P29_004": "江渡幼稚園", "P29_005": "青森県三戸郡五戸町古堂後23-3", "P29_006": "4", "P29_007": "0", "P29_008": "00", "P29_009": null }, "geometry": { "type": "Point", "coordinates": [ 141.293906406991709, 40.526953299013215 ] } },
{ "type": "Feature", "properties": { "P29_001": "02445", "P29_002": "A102310000847", "P29_003": "16011", "P29_004": "あかね幼稚園", "P29_005": "青森県三戸郡南部町下名久井字宗前17-7", "P29_006": "4", "P29_007": "0", "P29_008": "00", "P29_009": null }, "geometry": { "type": "Point", "coordinates": [ 141.339468350457707, 40.434889481377809 ] } }
]
}
