{
"type": "FeatureCollection",
"name": "geo_2_1",
"crs": { "type": "name", "properties": { "name": "urn:ogc:def:crs:OGC:1.3:CRS84" } },
"features": [
{ "type": "Feature", "properties": { "ID": 210210000001, "正式名称": "国立療養所松丘保養園", "機関区分": 1, "都道府県コード": 2, "市区町村コード": 201, "所在地": "青森県青森市石江平山１９", "緯度": 40.821083, "経度": 140.683364, "url": "https://www.iryou.teikyouseido.mhlw.go.jp/znk-web/juminkanja/S2430/initialize?prefCd=02&kikanCd=10210000001&kikanKbn=1", "url2": "https://www.mhlw.go.jp/seisakunitsuite/bunya/kenkou_iryou/iryou/hansen/matuoka/welcome.html", "内容": "国立療養所松丘保養園【1:病院】【診療科目:0】【一般病床数:208療養病床数:0精神病床数:0感染症病床数:0合計病床数:208】青森県青森市石江平山１９" }, "geometry": { "type": "Point", "coordinates": [ 140.683364, 40.821083 ] } },
{ "type": "Feature", "properties": { "ID": 210210000002, "正式名称": "独立行政法人国立病院機構青森病院", "機関区分": 1, "都道府県コード": 2, "市区町村コード": 201, "所在地": "青森県青森市浪岡女鹿沢平野１５５－１", "緯度": 40.709564, "経度": 140.571659, "url": "https://www.iryou.teikyouseido.mhlw.go.jp/znk-web/juminkanja/S2430/initialize?prefCd=02&kikanCd=10210000002&kikanKbn=1", "url2": "http://aomori.hosp.go.jp/", "内容": "独立行政法人国立病院機構青森病院【1:病院】【診療科目:0】【一般病床数:300療養病床数:0精神病床数:0感染症病床数:0合計病床数:319】青森県青森市浪岡女鹿沢平野１５５－１" }, "geometry": { "type": "Point", "coordinates": [ 140.571659, 40.709564 ] } },
{ "type": "Feature", "properties": { "ID": 210210000003, "正式名称": "青森県立中央病院", "機関区分": 1, "都道府県コード": 2, "市区町村コード": 201, "所在地": "青森県青森市東造道二丁目１－１", "緯度": 40.829805, "経度": 140.794385, "url": "https://www.iryou.teikyouseido.mhlw.go.jp/znk-web/juminkanja/S2430/initialize?prefCd=02&kikanCd=10210000003&kikanKbn=1", "url2": "https://aomori-kenbyo.jp/", "内容": "青森県立中央病院【1:病院】【診療科目:0】【一般病床数:579療養病床数:0精神病床数:0感染症病床数:5合計病床数:584】青森県青森市東造道二丁目１－１" }, "geometry": { "type": "Point", "coordinates": [ 140.794385, 40.829805 ] } },
{ "type": "Feature", "properties": { "ID": 210210000004, "正式名称": "青森県立あすなろ療育福祉センター診療部", "機関区分": 1, "都道府県コード": 2, "市区町村コード": 201, "所在地": "青森県青森市大字石江字江渡１０１", "緯度": 40.821304, "経度": 140.698309, "url": "https://www.iryou.teikyouseido.mhlw.go.jp/znk-web/juminkanja/S2430/initialize?prefCd=02&kikanCd=10210000004&kikanKbn=1", "url2": "http://www.pref.aomori.lg.jp/welfare/welfare/asunaro_top.html", "内容": "青森県立あすなろ療育福祉センター診療部【1:病院】【診療科目:0】【一般病床数:15療養病床数:0精神病床数:0感染症病床数:0合計病床数:15】青森県青森市大字石江字江渡１０１" }, "geometry": { "type": "Point", "coordinates": [ 140.698309, 40.821304 ] } },
{ "type": "Feature", "properties": { "ID": 210210000005, "正式名称": "青森県立つくしが丘病院", "機関区分": 1, "都道府県コード": 2, "市区町村コード": 201, "所在地": "青森県青森市三内沢部３５３番地９２", "緯度": 40.811444, "経度": 140.681478, "url": "https://www.iryou.teikyouseido.mhlw.go.jp/znk-web/juminkanja/S2430/initialize?prefCd=02&kikanCd=10210000005&kikanKbn=1", "url2": "http://www..aomori-tsukushigaoka.jp/", "内容": "青森県立つくしが丘病院【1:病院】【診療科目:0】【一般病床数:0療養病床数:0精神病床数:230感染症病床数:0合計病床数:230】青森県青森市三内沢部３５３番地９２" }, "geometry": { "type": "Point", "coordinates": [ 140.681478, 40.811444 ] } },
{ "type": "Feature", "properties": { "ID": 210210000006, "正式名称": "青森市民病院", "機関区分": 1, "都道府県コード": 2, "市区町村コード": 201, "所在地": "青森県青森市勝田一丁目１４番２０号", "緯度": 40.816334, "経度": 140.754778, "url": "https://www.iryou.teikyouseido.mhlw.go.jp/znk-web/juminkanja/S2430/initialize?prefCd=02&kikanCd=10210000006&kikanKbn=1", "url2": "http://www.city.aomori.aomori.jp/byouin/top.html", "内容": "青森市民病院【1:病院】【診療科目:0】【一般病床数:352療養病床数:0精神病床数:0感染症病床数:0合計病床数:352】青森県青森市勝田一丁目１４番２０号" }, "geometry": { "type": "Point", "coordinates": [ 140.754778, 40.816334 ] } },
{ "type": "Feature", "properties": { "ID": 210210000007, "正式名称": "青森市立浪岡病院", "機関区分": 1, "都道府県コード": 2, "市区町村コード": 201, "所在地": "青森県青森市浪岡浪岡平野１８０番地", "緯度": 40.714536, "経度": 140.587241, "url": "https://www.iryou.teikyouseido.mhlw.go.jp/znk-web/juminkanja/S2430/initialize?prefCd=02&kikanCd=10210000007&kikanKbn=1", "url2": "http://www.city.aomori.aomori.jp/", "内容": "青森市立浪岡病院【1:病院】【診療科目:0】【一般病床数:35療養病床数:0精神病床数:0感染症病床数:0合計病床数:35】青森県青森市浪岡浪岡平野１８０番地" }, "geometry": { "type": "Point", "coordinates": [ 140.587241, 40.714536 ] } },
{ "type": "Feature", "properties": { "ID": 210210000008, "正式名称": "平内町国民健康保険平内中央病院", "機関区分": 1, "都道府県コード": 2, "市区町村コード": 301, "所在地": "青森県東津軽郡平内町小湊外ノ沢１番地１", "緯度": 40.919881, "経度": 140.947757, "url": "https://www.iryou.teikyouseido.mhlw.go.jp/znk-web/juminkanja/S2430/initialize?prefCd=02&kikanCd=10210000008&kikanKbn=1", "url2": "https://hiranai-chp.jp/", "内容": "平内町国民健康保険平内中央病院【1:病院】【診療科目:0】【一般病床数:48療養病床数:48精神病床数:0感染症病床数:0合計病床数:96】青森県東津軽郡平内町小湊外ノ沢１番地１" }, "geometry": { "type": "Point", "coordinates": [ 140.947757, 40.919881 ] } },
{ "type": "Feature", "properties": { "ID": 210210000009, "正式名称": "外ヶ浜町国民健康保険外ヶ浜中央病院", "機関区分": 1, "都道府県コード": 2, "市区町村コード": 307, "所在地": "青森県東津軽郡外ヶ浜町下蟹田４２－１", "緯度": 41.041863, "経度": 140.639471, "url": "https://www.iryou.teikyouseido.mhlw.go.jp/znk-web/juminkanja/S2430/initialize?prefCd=02&kikanCd=10210000009&kikanKbn=1", "url2": "https://www.town.sotogahama.lg.jp/kurashi/byouin/chuo_byouin.html", "内容": "外ヶ浜町国民健康保険外ヶ浜中央病院【1:病院】【診療科目:0】【一般病床数:44療養病床数:0精神病床数:0感染症病床数:0合計病床数:44】青森県東津軽郡外ヶ浜町下蟹田４２－１" }, "geometry": { "type": "Point", "coordinates": [ 140.639471, 41.041863 ] } },
{ "type": "Feature", "properties": { "ID": 210210000010, "正式名称": "社団法人　慈恵会　青い森病院", "機関区分": 1, "都道府県コード": 2, "市区町村コード": 201, "所在地": "青森県青森市大谷山ノ内１６－３", "緯度": 40.7537, "経度": 140.673371, "url": "https://www.iryou.teikyouseido.mhlw.go.jp/znk-web/juminkanja/S2430/initialize?prefCd=02&kikanCd=10210000010&kikanKbn=1", "url2": "http://www.jikei-kai.org", "内容": "社団法人　慈恵会　青い森病院【1:病院】【診療科目:0】【一般病床数:0療養病床数:0精神病床数:160感染症病床数:0合計病床数:160】青森県青森市大谷山ノ内１６－３" }, "geometry": { "type": "Point", "coordinates": [ 140.673371, 40.7537 ] } },
{ "type": "Feature", "properties": { "ID": 210210000011, "正式名称": "一般社団法人青森精神医学研究所附属浅虫温泉病院", "機関区分": 1, "都道府県コード": 2, "市区町村コード": 201, "所在地": "青森県青森市浅虫内野２７番地２", "緯度": 40.888383, "経度": 140.866431, "url": "https://www.iryou.teikyouseido.mhlw.go.jp/znk-web/juminkanja/S2430/initialize?prefCd=02&kikanCd=10210000011&kikanKbn=1", "url2": "http://www.aoh.or.jp/", "内容": "一般社団法人青森精神医学研究所附属浅虫温泉病院【1:病院】【診療科目:0】【一般病床数:0療養病床数:0精神病床数:198感染症病床数:0合計病床数:198】青森県青森市浅虫内野２７番地２" }, "geometry": { "type": "Point", "coordinates": [ 140.866431, 40.888383 ] } },
{ "type": "Feature", "properties": { "ID": 210210000012, "正式名称": "公益財団法人　鷹揚郷　腎研究所青森病院", "機関区分": 1, "都道府県コード": 2, "市区町村コード": 201, "所在地": "青森県青森市石江岡部１０１－１", "緯度": 40.826221, "経度": 140.703059, "url": "https://www.iryou.teikyouseido.mhlw.go.jp/znk-web/juminkanja/S2430/initialize?prefCd=02&kikanCd=10210000012&kikanKbn=1", "url2": "http://www.oyokyo.jp", "内容": "公益財団法人　鷹揚郷　腎研究所青森病院【1:病院】【診療科目:0】【一般病床数:45療養病床数:0精神病床数:0感染症病床数:0合計病床数:45】青森県青森市石江岡部１０１－１" }, "geometry": { "type": "Point", "coordinates": [ 140.703059, 40.826221 ] } },
{ "type": "Feature", "properties": { "ID": 210210000013, "正式名称": "社団法人慈恵会　青森慈恵会病院", "機関区分": 1, "都道府県コード": 2, "市区町村コード": 201, "所在地": "青森県青森市安田近野１４６－１", "緯度": 40.803195, "経度": 140.705505, "url": "https://www.iryou.teikyouseido.mhlw.go.jp/znk-web/juminkanja/S2430/initialize?prefCd=02&kikanCd=10210000013&kikanKbn=1", "url2": "http://www.jikei-kai.org", "内容": "社団法人慈恵会　青森慈恵会病院【1:病院】【診療科目:0】【一般病床数:154療養病床数:96精神病床数:82感染症病床数:0合計病床数:332】青森県青森市安田近野１４６－１" }, "geometry": { "type": "Point", "coordinates": [ 140.705505, 40.803195 ] } },
{ "type": "Feature", "properties": { "ID": 210210000014, "正式名称": "一般財団法人　双仁会　青森厚生病院", "機関区分": 1, "都道府県コード": 2, "市区町村コード": 201, "所在地": "青森県青森市新城山田４８８－１", "緯度": 40.836469, "経度": 140.676922, "url": "https://www.iryou.teikyouseido.mhlw.go.jp/znk-web/juminkanja/S2430/initialize?prefCd=02&kikanCd=10210000014&kikanKbn=1", "url2": "http://aomori-kousei.jp/", "内容": "一般財団法人　双仁会　青森厚生病院【1:病院】【診療科目:0】【一般病床数:86療養病床数:113精神病床数:0感染症病床数:0合計病床数:199】青森県青森市新城山田４８８－１" }, "geometry": { "type": "Point", "coordinates": [ 140.676922, 40.836469 ] } },
{ "type": "Feature", "properties": { "ID": 210210000019, "正式名称": "村上新町病院", "機関区分": 1, "都道府県コード": 2, "市区町村コード": 201, "所在地": "青森県青森市新町２丁目１－１３", "緯度": 40.826555, "経度": 140.740695, "url": "https://www.iryou.teikyouseido.mhlw.go.jp/znk-web/juminkanja/S2430/initialize?prefCd=02&kikanCd=10210000019&kikanKbn=1", "url2": "http://www.amc-headquarters-med.or.jp", "内容": "村上新町病院【1:病院】【診療科目:0】【一般病床数:46療養病床数:32精神病床数:0感染症病床数:0合計病床数:78】青森県青森市新町２丁目１－１３" }, "geometry": { "type": "Point", "coordinates": [ 140.740695, 40.826555 ] } },
{ "type": "Feature", "properties": { "ID": 210210000020, "正式名称": "浪打病院", "機関区分": 1, "都道府県コード": 2, "市区町村コード": 201, "所在地": "青森県青森市合浦２丁目１１－２４", "緯度": 40.826777, "経度": 140.77547, "url": "https://www.iryou.teikyouseido.mhlw.go.jp/znk-web/juminkanja/S2430/initialize?prefCd=02&kikanCd=10210000020&kikanKbn=1", "url2": "https://www.namiuchihp-aomori.com/", "内容": "浪打病院【1:病院】【診療科目:0】【一般病床数:37療養病床数:32精神病床数:0感染症病床数:0合計病床数:69】青森県青森市合浦２丁目１１－２４" }, "geometry": { "type": "Point", "coordinates": [ 140.77547, 40.826777 ] } },
{ "type": "Feature", "properties": { "ID": 210210000021, "正式名称": "青森保健生活協同組合　生協さくら病院", "機関区分": 1, "都道府県コード": 2, "市区町村コード": 201, "所在地": "青森県青森市問屋町１丁目１５番１０号", "緯度": 40.790392, "経度": 140.757862, "url": "https://www.iryou.teikyouseido.mhlw.go.jp/znk-web/juminkanja/S2430/initialize?prefCd=02&kikanCd=10210000021&kikanKbn=1", "url2": "http://www.aomori-h-coop.com/", "内容": "青森保健生活協同組合　生協さくら病院【1:病院】【診療科目:0】【一般病床数:0療養病床数:0精神病床数:140感染症病床数:0合計病床数:140】青森県青森市問屋町１丁目１５番１０号" }, "geometry": { "type": "Point", "coordinates": [ 140.757862, 40.790392 ] } },
{ "type": "Feature", "properties": { "ID": 210210000022, "正式名称": "あおもり協立病院", "機関区分": 1, "都道府県コード": 2, "市区町村コード": 201, "所在地": "青森県青森市東大野二丁目１番地１０", "緯度": 40.800168, "経度": 140.741752, "url": "https://www.iryou.teikyouseido.mhlw.go.jp/znk-web/juminkanja/S2430/initialize?prefCd=02&kikanCd=10210000022&kikanKbn=1", "url2": "http://www.aomori-h-coop.com/kyoritsu/", "内容": "あおもり協立病院【1:病院】【診療科目:0】【一般病床数:135療養病床数:88精神病床数:0感染症病床数:0合計病床数:223】青森県青森市東大野二丁目１番地１０" }, "geometry": { "type": "Point", "coordinates": [ 140.741752, 40.800168 ] } },
{ "type": "Feature", "properties": { "ID": 210210000024, "正式名称": "社会福祉法人敬仁会　青森敬仁会病院", "機関区分": 1, "都道府県コード": 2, "市区町村コード": 201, "所在地": "青森県青森市久栗坂字山辺８９－１０", "緯度": 40.866163, "経度": 140.851212, "url": "https://www.iryou.teikyouseido.mhlw.go.jp/znk-web/juminkanja/S2430/initialize?prefCd=02&kikanCd=10210000024&kikanKbn=1", "url2": "http://www.hp-keizinkai.or.jp", "内容": "社会福祉法人敬仁会　青森敬仁会病院【1:病院】【診療科目:0】【一般病床数:0療養病床数:120精神病床数:0感染症病床数:0合計病床数:120】青森県青森市久栗坂字山辺８９－１０" }, "geometry": { "type": "Point", "coordinates": [ 140.851212, 40.866163 ] } },
{ "type": "Feature", "properties": { "ID": 210210000025, "正式名称": "独立行政法人国立病院機構弘前総合医療センター", "機関区分": 1, "都道府県コード": 2, "市区町村コード": 202, "所在地": "青森県弘前市富野町１番地", "緯度": 40.590098, "経度": 140.476225, "url": "https://www.iryou.teikyouseido.mhlw.go.jp/znk-web/juminkanja/S2430/initialize?prefCd=02&kikanCd=10210000025&kikanKbn=1", "url2": "https://hirosaki.hosp.go.jp/index.html", "内容": "独立行政法人国立病院機構弘前総合医療センター【1:病院】【診療科目:0】【一般病床数:442療養病床数:0精神病床数:0感染症病床数:0合計病床数:442】青森県弘前市富野町１番地" }, "geometry": { "type": "Point", "coordinates": [ 140.476225, 40.590098 ] } },
{ "type": "Feature", "properties": { "ID": 210210000026, "正式名称": "弘前大学医学部附属病院", "機関区分": 1, "都道府県コード": 2, "市区町村コード": 202, "所在地": "青森県弘前市本町５３番地", "緯度": 40.600185, "経度": 140.465839, "url": "https://www.iryou.teikyouseido.mhlw.go.jp/znk-web/juminkanja/S2430/initialize?prefCd=02&kikanCd=10210000026&kikanKbn=1", "url2": "https://www.med.hirosaki-u.ac.jp/hospital/", "内容": "弘前大学医学部附属病院【1:病院】【診療科目:0】【一般病床数:597療養病床数:0精神病床数:35感染症病床数:4合計病床数:636】青森県弘前市本町５３番地" }, "geometry": { "type": "Point", "coordinates": [ 140.465839, 40.600185 ] } },
{ "type": "Feature", "properties": { "ID": 210210000029, "正式名称": "黒石市国民健康保険黒石病院", "機関区分": 1, "都道府県コード": 2, "市区町村コード": 204, "所在地": "青森県黒石市北美町１丁目７０", "緯度": 40.655376, "経度": 140.601103, "url": "https://www.iryou.teikyouseido.mhlw.go.jp/znk-web/juminkanja/S2430/initialize?prefCd=02&kikanCd=10210000029&kikanKbn=1", "url2": "http://hospital-kuroishi.jp/", "内容": "黒石市国民健康保険黒石病院【1:病院】【診療科目:0】【一般病床数:257療養病床数:0精神病床数:0感染症病床数:0合計病床数:257】青森県黒石市北美町１丁目７０" }, "geometry": { "type": "Point", "coordinates": [ 140.601103, 40.655376 ] } },
{ "type": "Feature", "properties": { "ID": 210210000030, "正式名称": "国民健康保険　板柳中央病院", "機関区分": 1, "都道府県コード": 2, "市区町村コード": 381, "所在地": "青森県北津軽郡板柳町灰沼岩井７４－２", "緯度": 40.701174, "経度": 140.455474, "url": "https://www.iryou.teikyouseido.mhlw.go.jp/znk-web/juminkanja/S2430/initialize?prefCd=02&kikanCd=10210000030&kikanKbn=1", "url2": "http://www.town.itayanagi.aomori.jp/chuo-medical/", "内容": "国民健康保険　板柳中央病院【1:病院】【診療科目:0】【一般病床数:45療養病床数:32精神病床数:0感染症病床数:0合計病床数:77】青森県北津軽郡板柳町灰沼岩井７４－２" }, "geometry": { "type": "Point", "coordinates": [ 140.455474, 40.701174 ] } },
{ "type": "Feature", "properties": { "ID": 210210000032, "正式名称": "一般財団法人愛成会　弘前愛成会病院", "機関区分": 1, "都道府県コード": 2, "市区町村コード": 202, "所在地": "青森県弘前市北園１丁目６－２", "緯度": 40.581076, "経度": 140.479673, "url": "https://www.iryou.teikyouseido.mhlw.go.jp/znk-web/juminkanja/S2430/initialize?prefCd=02&kikanCd=10210000032&kikanKbn=1", "url2": "https://www.aiseikai-hp.or.jp", "内容": "一般財団法人愛成会　弘前愛成会病院【1:病院】【診療科目:0】【一般病床数:0療養病床数:0精神病床数:328感染症病床数:0合計病床数:328】青森県弘前市北園１丁目６－２" }, "geometry": { "type": "Point", "coordinates": [ 140.479673, 40.581076 ] } },
{ "type": "Feature", "properties": { "ID": 210210000033, "正式名称": "弘前中央病院", "機関区分": 1, "都道府県コード": 2, "市区町村コード": 202, "所在地": "青森県弘前市吉野町３－１", "緯度": 40.597324, "経度": 140.472145, "url": "https://www.iryou.teikyouseido.mhlw.go.jp/znk-web/juminkanja/S2430/initialize?prefCd=02&kikanCd=10210000033&kikanKbn=1", "url2": "https://imn-seimeikai.or.jp/hirochu/", "内容": "弘前中央病院【1:病院】【診療科目:0】【一般病床数:114療養病床数:59精神病床数:0感染症病床数:0合計病床数:173】青森県弘前市吉野町３－１" }, "geometry": { "type": "Point", "coordinates": [ 140.472145, 40.597324 ] } },
{ "type": "Feature", "properties": { "ID": 210210000035, "正式名称": "鳴海病院", "機関区分": 1, "都道府県コード": 2, "市区町村コード": 202, "所在地": "青森県弘前市品川町１９番地", "緯度": 40.597046, "経度": 140.475005, "url": "https://www.iryou.teikyouseido.mhlw.go.jp/znk-web/juminkanja/S2430/initialize?prefCd=02&kikanCd=10210000035&kikanKbn=1", "url2": "https://imn-seimeikai.or.jp/narumi/", "内容": "鳴海病院【1:病院】【診療科目:0】【一般病床数:40療養病床数:74精神病床数:0感染症病床数:0合計病床数:114】青森県弘前市品川町１９番地" }, "geometry": { "type": "Point", "coordinates": [ 140.475005, 40.597046 ] } },
{ "type": "Feature", "properties": { "ID": 210210000036, "正式名称": "公益財団法人鷹揚郷　腎研究所弘前病院", "機関区分": 1, "都道府県コード": 2, "市区町村コード": 202, "所在地": "青森県弘前市大字小沢字山崎９０番地", "緯度": 40.573605, "経度": 140.45648, "url": "https://www.iryou.teikyouseido.mhlw.go.jp/znk-web/juminkanja/S2430/initialize?prefCd=02&kikanCd=10210000036&kikanKbn=1", "url2": "http://www.oyokyo.jp/", "内容": "公益財団法人鷹揚郷　腎研究所弘前病院【1:病院】【診療科目:0】【一般病床数:90療養病床数:0精神病床数:0感染症病床数:0合計病床数:90】青森県弘前市大字小沢字山崎９０番地" }, "geometry": { "type": "Point", "coordinates": [ 140.45648, 40.573605 ] } },
{ "type": "Feature", "properties": { "ID": 210210000037, "正式名称": "一般財団法人双仁会　黒石厚生病院", "機関区分": 1, "都道府県コード": 2, "市区町村コード": 204, "所在地": "青森県黒石市大字黒石字建石９番地１", "緯度": 40.654181, "経度": 140.578188, "url": "https://www.iryou.teikyouseido.mhlw.go.jp/znk-web/juminkanja/S2430/initialize?prefCd=02&kikanCd=10210000037&kikanKbn=1", "url2": "http://soujinkai-kousei.jp/kuroishi/", "内容": "一般財団法人双仁会　黒石厚生病院【1:病院】【診療科目:0】【一般病床数:40療養病床数:173精神病床数:0感染症病床数:0合計病床数:213】青森県黒石市大字黒石字建石９番地１" }, "geometry": { "type": "Point", "coordinates": [ 140.578188, 40.654181 ] } },
{ "type": "Feature", "properties": { "ID": 210210000039, "正式名称": "聖康会病院", "機関区分": 1, "都道府県コード": 2, "市区町村コード": 202, "所在地": "青森県弘前市和泉２丁目１７－１", "緯度": 40.610795, "経度": 140.496864, "url": "https://www.iryou.teikyouseido.mhlw.go.jp/znk-web/juminkanja/S2430/initialize?prefCd=02&kikanCd=10210000039&kikanKbn=1", "url2": "http://www.seikoukai-hospital.or.jp/", "内容": "聖康会病院【1:病院】【診療科目:0】【一般病床数:0療養病床数:0精神病床数:88感染症病床数:0合計病床数:88】青森県弘前市和泉２丁目１７－１" }, "geometry": { "type": "Point", "coordinates": [ 140.496864, 40.610795 ] } },
{ "type": "Feature", "properties": { "ID": 210210000040, "正式名称": "弘愛会病院", "機関区分": 1, "都道府県コード": 2, "市区町村コード": 202, "所在地": "青森県弘前市宮川三丁目１番地の４", "緯度": 40.615156, "経度": 140.485115, "url": "https://www.iryou.teikyouseido.mhlw.go.jp/znk-web/juminkanja/S2430/initialize?prefCd=02&kikanCd=10210000040&kikanKbn=1", "url2": "http://www.kouaikai.com", "内容": "弘愛会病院【1:病院】【診療科目:0】【一般病床数:54療養病床数:30精神病床数:0感染症病床数:0合計病床数:84】青森県弘前市宮川三丁目１番地の４" }, "geometry": { "type": "Point", "coordinates": [ 140.485115, 40.615156 ] } },
{ "type": "Feature", "properties": { "ID": 210210000041, "正式名称": "弘前記念病院", "機関区分": 1, "都道府県コード": 2, "市区町村コード": 202, "所在地": "青森県弘前市境関西田５９番地１", "緯度": 40.611351, "経度": 140.497725, "url": "https://www.iryou.teikyouseido.mhlw.go.jp/znk-web/juminkanja/S2430/initialize?prefCd=02&kikanCd=10210000041&kikanKbn=1", "url2": "http://www.hirosaki-kinen.or.jp", "内容": "弘前記念病院【1:病院】【診療科目:0】【一般病床数:138療養病床数:0精神病床数:0感染症病床数:0合計病床数:138】青森県弘前市境関西田５９番地１" }, "geometry": { "type": "Point", "coordinates": [ 140.497725, 40.611351 ] } },
{ "type": "Feature", "properties": { "ID": 210210000043, "正式名称": "津軽保健生活協同組合　藤代健生病院", "機関区分": 1, "都道府県コード": 2, "市区町村コード": 202, "所在地": "青森県弘前市藤代２－１２－１", "緯度": 40.614544, "経度": 140.453145, "url": "https://www.iryou.teikyouseido.mhlw.go.jp/znk-web/juminkanja/S2430/initialize?prefCd=02&kikanCd=10210000043&kikanKbn=1", "url2": "http://www.fujisiro-hp.info/", "内容": "津軽保健生活協同組合　藤代健生病院【1:病院】【診療科目:0】【一般病床数:0療養病床数:0精神病床数:220感染症病床数:0合計病床数:220】青森県弘前市藤代２－１２－１" }, "geometry": { "type": "Point", "coordinates": [ 140.453145, 40.614544 ] } },
{ "type": "Feature", "properties": { "ID": 210210000044, "正式名称": "弘前メディカルセンター", "機関区分": 1, "都道府県コード": 2, "市区町村コード": 202, "所在地": "青森県弘前市大町２丁目２－９", "緯度": 40.595381, "経度": 140.481172, "url": "https://www.iryou.teikyouseido.mhlw.go.jp/znk-web/juminkanja/S2430/initialize?prefCd=02&kikanCd=10210000044&kikanKbn=1", "url2": "http://www.hokuoukai.com/", "内容": "弘前メディカルセンター【1:病院】【診療科目:0】【一般病床数:97療養病床数:40精神病床数:0感染症病床数:0合計病床数:137】青森県弘前市大町２丁目２－９" }, "geometry": { "type": "Point", "coordinates": [ 140.481172, 40.595381 ] } },
{ "type": "Feature", "properties": { "ID": 210210000046, "正式名称": "医療法人　元秀会　弘前小野病院", "機関区分": 1, "都道府県コード": 2, "市区町村コード": 202, "所在地": "青森県弘前市和泉二丁目１９番地１", "緯度": 40.610434, "経度": 140.497447, "url": "https://www.iryou.teikyouseido.mhlw.go.jp/znk-web/juminkanja/S2430/initialize?prefCd=02&kikanCd=10210000046&kikanKbn=1", "url2": "http://www.hirosaki-ono.jp/", "内容": "医療法人　元秀会　弘前小野病院【1:病院】【診療科目:0】【一般病床数:46療養病床数:47精神病床数:0感染症病床数:0合計病床数:93】青森県弘前市和泉二丁目１９番地１" }, "geometry": { "type": "Point", "coordinates": [ 140.497447, 40.610434 ] } },
{ "type": "Feature", "properties": { "ID": 210210000047, "正式名称": "医療法人社団来蘇圓会　黒石あけぼの病院", "機関区分": 1, "都道府県コード": 2, "市区町村コード": 204, "所在地": "青森県黒石市あけぼの町５２番地", "緯度": 40.658181, "経度": 140.613074, "url": "https://www.iryou.teikyouseido.mhlw.go.jp/znk-web/juminkanja/S2430/initialize?prefCd=02&kikanCd=10210000047&kikanKbn=1", "url2": "http://kuroishi-akebono-hp.or.jp/", "内容": "医療法人社団来蘇圓会　黒石あけぼの病院【1:病院】【診療科目:0】【一般病床数:0療養病床数:0精神病床数:157感染症病床数:0合計病床数:157】青森県黒石市あけぼの町５２番地" }, "geometry": { "type": "Point", "coordinates": [ 140.613074, 40.658181 ] } },
{ "type": "Feature", "properties": { "ID": 210210000048, "正式名称": "ときわ会病院", "機関区分": 1, "都道府県コード": 2, "市区町村コード": 361, "所在地": "青森県南津軽郡藤崎町榊亀田２－１", "緯度": 40.672678, "経度": 140.533303, "url": "https://www.iryou.teikyouseido.mhlw.go.jp/znk-web/juminkanja/S2430/initialize?prefCd=02&kikanCd=10210000048&kikanKbn=1", "url2": "http://www.tokiwakai.or.jp", "内容": "ときわ会病院【1:病院】【診療科目:0】【一般病床数:107療養病床数:42精神病床数:0感染症病床数:0合計病床数:149】青森県南津軽郡藤崎町榊亀田２－１" }, "geometry": { "type": "Point", "coordinates": [ 140.533303, 40.672678 ] } },
{ "type": "Feature", "properties": { "ID": 210210000050, "正式名称": "弘前脳卒中・リハビリテーションセンター", "機関区分": 1, "都道府県コード": 2, "市区町村コード": 202, "所在地": "青森県弘前市扇町一丁目２番地１", "緯度": 40.586743, "経度": 140.50392, "url": "https://www.iryou.teikyouseido.mhlw.go.jp/znk-web/juminkanja/S2430/initialize?prefCd=02&kikanCd=10210000050&kikanKbn=1", "url2": "http://www.reimeikyou.jp/hsc/", "内容": "弘前脳卒中・リハビリテーションセンター【1:病院】【診療科目:0】【一般病床数:79療養病床数:169精神病床数:0感染症病床数:0合計病床数:248】青森県弘前市扇町一丁目２番地１" }, "geometry": { "type": "Point", "coordinates": [ 140.50392, 40.586743 ] } },
{ "type": "Feature", "properties": { "ID": 210210000051, "正式名称": "独立行政法人　国立病院機構　八戸病院", "機関区分": 1, "都道府県コード": 2, "市区町村コード": 203, "所在地": "青森県八戸市吹上３丁目１３－１", "緯度": 40.499853, "経度": 141.496231, "url": "https://www.iryou.teikyouseido.mhlw.go.jp/znk-web/juminkanja/S2430/initialize?prefCd=02&kikanCd=10210000051&kikanKbn=1", "url2": "http://www.hosp.go.jp/~hatinohe/", "内容": "独立行政法人　国立病院機構　八戸病院【1:病院】【診療科目:0】【一般病床数:150療養病床数:0精神病床数:0感染症病床数:0合計病床数:150】青森県八戸市吹上３丁目１３－１" }, "geometry": { "type": "Point", "coordinates": [ 141.496231, 40.499853 ] } },
{ "type": "Feature", "properties": { "ID": 210210000052, "正式名称": "独立行政法人　労働者健康安全機構　青森労災病院", "機関区分": 1, "都道府県コード": 2, "市区町村コード": 203, "所在地": "青森県八戸市白銀町南ヶ丘１番地", "緯度": 40.516602, "経度": 141.54417, "url": "https://www.iryou.teikyouseido.mhlw.go.jp/znk-web/juminkanja/S2430/initialize?prefCd=02&kikanCd=10210000052&kikanKbn=1", "url2": "http://www.aomorih.johas.go.jp/", "内容": "独立行政法人　労働者健康安全機構　青森労災病院【1:病院】【診療科目:0】【一般病床数:250療養病床数:0精神病床数:0感染症病床数:0合計病床数:250】青森県八戸市白銀町南ヶ丘１番地" }, "geometry": { "type": "Point", "coordinates": [ 141.54417, 40.516602 ] } },
{ "type": "Feature", "properties": { "ID": 210210000054, "正式名称": "八戸市立市民病院", "機関区分": 1, "都道府県コード": 2, "市区町村コード": 203, "所在地": "青森県八戸市田向三丁目１番１号", "緯度": 40.492993, "経度": 141.510341, "url": "https://www.iryou.teikyouseido.mhlw.go.jp/znk-web/juminkanja/S2430/initialize?prefCd=02&kikanCd=10210000054&kikanKbn=1", "url2": "http://www.hospital.hachinohe.aomori.jp", "内容": "八戸市立市民病院【1:病院】【診療科目:0】【一般病床数:572療養病床数:0精神病床数:30感染症病床数:6合計病床数:608】青森県八戸市田向三丁目１番１号" }, "geometry": { "type": "Point", "coordinates": [ 141.510341, 40.492993 ] } },
{ "type": "Feature", "properties": { "ID": 210210000055, "正式名称": "国民健康保険五戸総合病院", "機関区分": 1, "都道府県コード": 2, "市区町村コード": 442, "所在地": "青森県三戸郡五戸町沢向１７－３", "緯度": 40.521375, "経度": 141.307246, "url": "https://www.iryou.teikyouseido.mhlw.go.jp/znk-web/juminkanja/S2430/initialize?prefCd=02&kikanCd=10210000055&kikanKbn=1", "url2": "http://www.town.gonohe.aomori.jp/sogobyoin/", "内容": "国民健康保険五戸総合病院【1:病院】【診療科目:0】【一般病床数:165療養病床数:0精神病床数:0感染症病床数:0合計病床数:165】青森県三戸郡五戸町沢向１７－３" }, "geometry": { "type": "Point", "coordinates": [ 141.307246, 40.521375 ] } },
{ "type": "Feature", "properties": { "ID": 210210000056, "正式名称": "三戸町国民健康保険　三戸中央病院", "機関区分": 1, "都道府県コード": 2, "市区町村コード": 441, "所在地": "青森県三戸郡三戸町川守田沖中９－１", "緯度": 40.391082, "経度": 141.268977, "url": "https://www.iryou.teikyouseido.mhlw.go.jp/znk-web/juminkanja/S2430/initialize?prefCd=02&kikanCd=10210000056&kikanKbn=1", "url2": "https://hospital.town.sannohe.aomori.jp/", "内容": "三戸町国民健康保険　三戸中央病院【1:病院】【診療科目:0】【一般病床数:45療養病床数:39精神病床数:0感染症病床数:0合計病床数:84】青森県三戸郡三戸町川守田沖中９－１" }, "geometry": { "type": "Point", "coordinates": [ 141.268977, 40.391082 ] } },
{ "type": "Feature", "properties": { "ID": 210210000057, "正式名称": "国民健康保険南部町医療センター", "機関区分": 1, "都道府県コード": 2, "市区町村コード": 445, "所在地": "青森県三戸郡南部町大字下名久井字白山８７－１", "緯度": 40.40986, "経度": 141.381606, "url": "https://www.iryou.teikyouseido.mhlw.go.jp/znk-web/juminkanja/S2430/initialize?prefCd=02&kikanCd=10210000057&kikanKbn=1", "url2": "https://www.town.aomori-nanbu.lg.jp/site/iryou/", "内容": "国民健康保険南部町医療センター【1:病院】【診療科目:0】【一般病床数:26療養病床数:40精神病床数:0感染症病床数:0合計病床数:66】青森県三戸郡南部町大字下名久井字白山８７－１" }, "geometry": { "type": "Point", "coordinates": [ 141.381606, 40.40986 ] } },
{ "type": "Feature", "properties": { "ID": 210210000058, "正式名称": "国民健康保険おいらせ病院", "機関区分": 1, "都道府県コード": 2, "市区町村コード": 412, "所在地": "青森県上北郡おいらせ町上明堂１番地１", "緯度": 40.592509, "経度": 141.430232, "url": "https://www.iryou.teikyouseido.mhlw.go.jp/znk-web/juminkanja/S2430/initialize?prefCd=02&kikanCd=10210000058&kikanKbn=1", "url2": null, "内容": "国民健康保険おいらせ病院【1:病院】【診療科目:0】【一般病床数:78療養病床数:0精神病床数:0感染症病床数:0合計病床数:78】青森県上北郡おいらせ町上明堂１番地１" }, "geometry": { "type": "Point", "coordinates": [ 141.430232, 40.592509 ] } },
{ "type": "Feature", "properties": { "ID": 210210000059, "正式名称": "八戸赤十字病院", "機関区分": 1, "都道府県コード": 2, "市区町村コード": 203, "所在地": "青森県八戸市田面木中明戸２", "緯度": 40.500852, "経度": 141.447985, "url": "https://www.iryou.teikyouseido.mhlw.go.jp/znk-web/juminkanja/S2430/initialize?prefCd=02&kikanCd=10210000059&kikanKbn=1", "url2": "http://www.hachinohe.jrc.or.jp/", "内容": "八戸赤十字病院【1:病院】【診療科目:0】【一般病床数:374療養病床数:0精神病床数:38感染症病床数:0合計病床数:412】青森県八戸市田面木中明戸２" }, "geometry": { "type": "Point", "coordinates": [ 141.447985, 40.500852 ] } },
{ "type": "Feature", "properties": { "ID": 210210000060, "正式名称": "さくら病院", "機関区分": 1, "都道府県コード": 2, "市区町村コード": 203, "所在地": "青森県八戸市八幡字上樋田８番地１", "緯度": 40.790365, "経度": 140.757945, "url": "https://www.iryou.teikyouseido.mhlw.go.jp/znk-web/juminkanja/S2430/initialize?prefCd=02&kikanCd=10210000060&kikanKbn=1", "url2": "http://www.sinai-sakura.com/", "内容": "さくら病院【1:病院】【診療科目:0】【一般病床数:0療養病床数:0精神病床数:142感染症病床数:0合計病床数:142】青森県八戸市八幡字上樋田８番地１" }, "geometry": { "type": "Point", "coordinates": [ 140.757945, 40.790365 ] } },
{ "type": "Feature", "properties": { "ID": 210210000063, "正式名称": "医療法人　弘仁会　於本病院", "機関区分": 1, "都道府県コード": 2, "市区町村コード": 203, "所在地": "青森県八戸市大工町１０番地", "緯度": 40.506908, "経度": 141.492342, "url": "https://www.iryou.teikyouseido.mhlw.go.jp/znk-web/juminkanja/S2430/initialize?prefCd=02&kikanCd=10210000063&kikanKbn=1", "url2": null, "内容": "医療法人　弘仁会　於本病院【1:病院】【診療科目:0】【一般病床数:0療養病床数:50精神病床数:0感染症病床数:0合計病床数:50】青森県八戸市大工町１０番地" }, "geometry": { "type": "Point", "coordinates": [ 141.492342, 40.506908 ] } },
{ "type": "Feature", "properties": { "ID": 210210000064, "正式名称": "圭仁会病院", "機関区分": 1, "都道府県コード": 2, "市区町村コード": 203, "所在地": "青森県八戸市大字市川町字桔梗野上２－３６", "緯度": 40.557763, "経度": 141.450287, "url": "https://www.iryou.teikyouseido.mhlw.go.jp/znk-web/juminkanja/S2430/initialize?prefCd=02&kikanCd=10210000064&kikanKbn=1", "url2": null, "内容": "圭仁会病院【1:病院】【診療科目:0】【一般病床数:0療養病床数:45精神病床数:0感染症病床数:0合計病床数:45】青森県八戸市大字市川町字桔梗野上２－３６" }, "geometry": { "type": "Point", "coordinates": [ 141.450287, 40.557763 ] } },
{ "type": "Feature", "properties": { "ID": 210210000065, "正式名称": "室岡整形外科記念病院", "機関区分": 1, "都道府県コード": 2, "市区町村コード": 203, "所在地": "青森県八戸市長者三丁目３番２３号", "緯度": 40.501824, "経度": 141.482898, "url": "https://www.iryou.teikyouseido.mhlw.go.jp/znk-web/juminkanja/S2430/initialize?prefCd=02&kikanCd=10210000065&kikanKbn=1", "url2": "http://www.hi-net.ne.jp/murooka/", "内容": "室岡整形外科記念病院【1:病院】【診療科目:0】【一般病床数:50療養病床数:0精神病床数:0感染症病床数:0合計病床数:50】青森県八戸市長者三丁目３番２３号" }, "geometry": { "type": "Point", "coordinates": [ 141.482898, 40.501824 ] } },
{ "type": "Feature", "properties": { "ID": 210210000067, "正式名称": "岸原病院", "機関区分": 1, "都道府県コード": 2, "市区町村コード": 203, "所在地": "青森県八戸市柏崎六丁目２９－６", "緯度": 40.515462, "経度": 141.506145, "url": "https://www.iryou.teikyouseido.mhlw.go.jp/znk-web/juminkanja/S2430/initialize?prefCd=02&kikanCd=10210000067&kikanKbn=1", "url2": null, "内容": "岸原病院【1:病院】【診療科目:0】【一般病床数:42療養病床数:48精神病床数:0感染症病床数:0合計病床数:90】青森県八戸市柏崎六丁目２９－６" }, "geometry": { "type": "Point", "coordinates": [ 141.506145, 40.515462 ] } },
{ "type": "Feature", "properties": { "ID": 210210000068, "正式名称": "総合リハビリ美保野病院", "機関区分": 1, "都道府県コード": 2, "市区町村コード": 203, "所在地": "青森県八戸市大久保大山３１番地２", "緯度": 40.487938, "経度": 141.578141, "url": "https://www.iryou.teikyouseido.mhlw.go.jp/znk-web/juminkanja/S2430/initialize?prefCd=02&kikanCd=10210000068&kikanKbn=1", "url2": "http://www.mihono.jp", "内容": "総合リハビリ美保野病院【1:病院】【診療科目:0】【一般病床数:0療養病床数:123精神病床数:0感染症病床数:0合計病床数:123】青森県八戸市大久保大山３１番地２" }, "geometry": { "type": "Point", "coordinates": [ 141.578141, 40.487938 ] } },
{ "type": "Feature", "properties": { "ID": 210210000069, "正式名称": "八戸城北病院", "機関区分": 1, "都道府県コード": 2, "市区町村コード": 203, "所在地": "青森県八戸市石堂１－１４－１４", "緯度": 40.529544, "経度": 141.480619, "url": "https://www.iryou.teikyouseido.mhlw.go.jp/znk-web/juminkanja/S2430/initialize?prefCd=02&kikanCd=10210000069&kikanKbn=1", "url2": "http://www.jouhoku-hp.jp/", "内容": "八戸城北病院【1:病院】【診療科目:0】【一般病床数:60療養病床数:37精神病床数:0感染症病床数:0合計病床数:97】青森県八戸市石堂１－１４－１４" }, "geometry": { "type": "Point", "coordinates": [ 141.480619, 40.529544 ] } },
{ "type": "Feature", "properties": { "ID": 210210000070, "正式名称": "医療法人　清照会　湊病院", "機関区分": 1, "都道府県コード": 2, "市区町村コード": 203, "所在地": "青森県八戸市新井田松山下野場７－１５", "緯度": 40.504325, "経度": 141.534172, "url": "https://www.iryou.teikyouseido.mhlw.go.jp/znk-web/juminkanja/S2430/initialize?prefCd=02&kikanCd=10210000070&kikanKbn=1", "url2": "http://www.seishou.jp/minato/03access.html", "内容": "医療法人　清照会　湊病院【1:病院】【診療科目:0】【一般病床数:0療養病床数:0精神病床数:278感染症病床数:0合計病床数:278】青森県八戸市新井田松山下野場７－１５" }, "geometry": { "type": "Point", "coordinates": [ 141.534172, 40.504325 ] } },
{ "type": "Feature", "properties": { "ID": 210210000071, "正式名称": "みちのく記念病院", "機関区分": 1, "都道府県コード": 2, "市区町村コード": 203, "所在地": "青森県八戸市小中野１－４－２２", "緯度": 40.517934, "経度": 141.508645, "url": "https://www.iryou.teikyouseido.mhlw.go.jp/znk-web/juminkanja/S2430/initialize?prefCd=02&kikanCd=10210000071&kikanKbn=1", "url2": "http://www.kyourinkai.com/michinoku/", "内容": "みちのく記念病院【1:病院】【診療科目:0】【一般病床数:60療養病床数:79精神病床数:222感染症病床数:0合計病床数:361】青森県八戸市小中野１－４－２２" }, "geometry": { "type": "Point", "coordinates": [ 141.508645, 40.517934 ] } },
{ "type": "Feature", "properties": { "ID": 210210000072, "正式名称": "八戸平和病院", "機関区分": 1, "都道府県コード": 2, "市区町村コード": 203, "所在地": "青森県八戸市湊高台２－４－６", "緯度": 40.50702, "経度": 141.537227, "url": "https://www.iryou.teikyouseido.mhlw.go.jp/znk-web/juminkanja/S2430/initialize?prefCd=02&kikanCd=10210000072&kikanKbn=1", "url2": "https://heiwa-hospital.jp/", "内容": "八戸平和病院【1:病院】【診療科目:0】【一般病床数:121療養病床数:0精神病床数:0感染症病床数:0合計病床数:121】青森県八戸市湊高台２－４－６" }, "geometry": { "type": "Point", "coordinates": [ 141.537227, 40.50702 ] } },
{ "type": "Feature", "properties": { "ID": 210210000073, "正式名称": "社会医療法人　松平病院", "機関区分": 1, "都道府県コード": 2, "市区町村コード": 203, "所在地": "青森県八戸市新井田字出口平１７番地", "緯度": 40.490216, "経度": 141.543644, "url": "https://www.iryou.teikyouseido.mhlw.go.jp/znk-web/juminkanja/S2430/initialize?prefCd=02&kikanCd=10210000073&kikanKbn=1", "url2": "http://www.matsudaira-hospital.or.jp", "内容": "社会医療法人　松平病院【1:病院】【診療科目:0】【一般病床数:0療養病床数:0精神病床数:182感染症病床数:0合計病床数:182】青森県八戸市新井田字出口平１７番地" }, "geometry": { "type": "Point", "coordinates": [ 141.543644, 40.490216 ] } },
{ "type": "Feature", "properties": { "ID": 210210000074, "正式名称": "医療法人　正恵会　石田温泉病院", "機関区分": 1, "都道府県コード": 2, "市区町村コード": 412, "所在地": "青森県上北郡おいらせ町上前田２１番地１", "緯度": 40.602036, "経度": 141.431648, "url": "https://www.iryou.teikyouseido.mhlw.go.jp/znk-web/juminkanja/S2430/initialize?prefCd=02&kikanCd=10210000074&kikanKbn=1", "url2": "https://seikeikai-ao.jp", "内容": "医療法人　正恵会　石田温泉病院【1:病院】【診療科目:0】【一般病床数:0療養病床数:20精神病床数:0感染症病床数:0合計病床数:20】青森県上北郡おいらせ町上前田２１番地１" }, "geometry": { "type": "Point", "coordinates": [ 141.431648, 40.602036 ] } },
{ "type": "Feature", "properties": { "ID": 210210000075, "正式名称": "社会医療法人　博進会　南部病院", "機関区分": 1, "都道府県コード": 2, "市区町村コード": 445, "所在地": "青森県三戸郡南部町沖田面千刈５２－２", "緯度": 40.411608, "経度": 141.280197, "url": "https://www.iryou.teikyouseido.mhlw.go.jp/znk-web/juminkanja/S2430/initialize?prefCd=02&kikanCd=10210000075&kikanKbn=1", "url2": "http://nanbu-hp.or.jp", "内容": "社会医療法人　博進会　南部病院【1:病院】【診療科目:0】【一般病床数:60療養病床数:0精神病床数:0感染症病床数:0合計病床数:60】青森県三戸郡南部町沖田面千刈５２－２" }, "geometry": { "type": "Point", "coordinates": [ 141.280197, 40.411608 ] } },
{ "type": "Feature", "properties": { "ID": 210210000076, "正式名称": "東八戸病院", "機関区分": 1, "都道府県コード": 2, "市区町村コード": 203, "所在地": "青森県八戸市大久保西ノ平２５－４４０", "緯度": 40.500076, "経度": 141.55692, "url": "https://www.iryou.teikyouseido.mhlw.go.jp/znk-web/juminkanja/S2430/initialize?prefCd=02&kikanCd=10210000076&kikanKbn=1", "url2": "http://www.higashi-h-hp.jp", "内容": "東八戸病院【1:病院】【診療科目:0】【一般病床数:0療養病床数:0精神病床数:102感染症病床数:0合計病床数:102】青森県八戸市大久保西ノ平２５－４４０" }, "geometry": { "type": "Point", "coordinates": [ 141.55692, 40.500076 ] } },
{ "type": "Feature", "properties": { "ID": 210210000084, "正式名称": "医療法人　社団清泉会布施病院", "機関区分": 1, "都道府県コード": 2, "市区町村コード": 205, "所在地": "青森県五所川原市芭蕉１８－４", "緯度": 40.817883, "経度": 140.43572, "url": "https://www.iryou.teikyouseido.mhlw.go.jp/znk-web/juminkanja/S2430/initialize?prefCd=02&kikanCd=10210000084&kikanKbn=1", "url2": "https://seisenkai.jpn.org/fusehp/", "内容": "医療法人　社団清泉会布施病院【1:病院】【診療科目:0】【一般病床数:0療養病床数:0精神病床数:120感染症病床数:0合計病床数:120】青森県五所川原市芭蕉１８－４" }, "geometry": { "type": "Point", "coordinates": [ 140.43572, 40.817883 ] } },
{ "type": "Feature", "properties": { "ID": 210210000085, "正式名称": "医療法人　慈仁会　尾野病院", "機関区分": 1, "都道府県コード": 2, "市区町村コード": 205, "所在地": "青森県五所川原市金木町朝日山４５３", "緯度": 40.903475, "経度": 140.453261, "url": "https://www.iryou.teikyouseido.mhlw.go.jp/znk-web/juminkanja/S2430/initialize?prefCd=02&kikanCd=10210000085&kikanKbn=1", "url2": "http://www.ono-hospital.com", "内容": "医療法人　慈仁会　尾野病院【1:病院】【診療科目:0】【一般病床数:0療養病床数:28精神病床数:0感染症病床数:0合計病床数:28】青森県五所川原市金木町朝日山４５３" }, "geometry": { "type": "Point", "coordinates": [ 140.453261, 40.903475 ] } },
{ "type": "Feature", "properties": { "ID": 210210000086, "正式名称": "増田病院", "機関区分": 1, "都道府県コード": 2, "市区町村コード": 205, "所在地": "青森県五所川原市新町４１", "緯度": 40.807357, "経度": 140.443554, "url": "https://www.iryou.teikyouseido.mhlw.go.jp/znk-web/juminkanja/S2430/initialize?prefCd=02&kikanCd=10210000086&kikanKbn=1", "url2": "http://masuda-med.jp/", "内容": "増田病院【1:病院】【診療科目:0】【一般病床数:0療養病床数:75精神病床数:0感染症病床数:0合計病床数:75】青森県五所川原市新町４１" }, "geometry": { "type": "Point", "coordinates": [ 140.443554, 40.807357 ] } },
{ "type": "Feature", "properties": { "ID": 210210000087, "正式名称": "医療法人　誠仁会尾野病院", "機関区分": 1, "都道府県コード": 2, "市区町村コード": 209, "所在地": "青森県つがる市木造若竹５", "緯度": 40.807079, "経度": 140.391336, "url": "https://www.iryou.teikyouseido.mhlw.go.jp/znk-web/juminkanja/S2430/initialize?prefCd=02&kikanCd=10210000087&kikanKbn=1", "url2": "http://www.aomori-seijinkai.or.jp/onohp.html", "内容": "医療法人　誠仁会尾野病院【1:病院】【診療科目:0】【一般病床数:0療養病床数:43精神病床数:0感染症病床数:0合計病床数:43】青森県つがる市木造若竹５" }, "geometry": { "type": "Point", "coordinates": [ 140.391336, 40.807079 ] } },
{ "type": "Feature", "properties": { "ID": 210210000088, "正式名称": "十和田市立中央病院", "機関区分": 1, "都道府県コード": 2, "市区町村コード": 206, "所在地": "青森県十和田市西十二番町１４番８号", "緯度": 40.611669, "経度": 141.202861, "url": "https://www.iryou.teikyouseido.mhlw.go.jp/znk-web/juminkanja/S2430/initialize?prefCd=02&kikanCd=10210000088&kikanKbn=1", "url2": "http://www.hp-chuou-towada.towada.aomori.jp", "内容": "十和田市立中央病院【1:病院】【診療科目:0】【一般病床数:269療養病床数:0精神病床数:50感染症病床数:4合計病床数:323】青森県十和田市西十二番町１４番８号" }, "geometry": { "type": "Point", "coordinates": [ 141.202861, 40.611669 ] } },
{ "type": "Feature", "properties": { "ID": 210210000090, "正式名称": "公立七戸病院", "機関区分": 1, "都道府県コード": 2, "市区町村コード": 402, "所在地": "青森県上北郡七戸町影津内９８番地１", "緯度": 40.698576, "経度": 141.158555, "url": "https://www.iryou.teikyouseido.mhlw.go.jp/znk-web/juminkanja/S2430/initialize?prefCd=02&kikanCd=10210000090&kikanKbn=1", "url2": "http://www.hospital-shichinohe.aomori.jp/", "内容": "公立七戸病院【1:病院】【診療科目:0】【一般病床数:70療養病床数:0精神病床数:0感染症病床数:0合計病床数:70】青森県上北郡七戸町影津内９８番地１" }, "geometry": { "type": "Point", "coordinates": [ 141.158555, 40.698576 ] } },
{ "type": "Feature", "properties": { "ID": 210210000091, "正式名称": "一般財団法人　済誠会　十和田済誠会病院", "機関区分": 1, "都道府県コード": 2, "市区町村コード": 206, "所在地": "青森県十和田市相坂字小林８４番地１４", "緯度": 40.600679, "経度": 141.230117, "url": "https://www.iryou.teikyouseido.mhlw.go.jp/znk-web/juminkanja/S2430/initialize?prefCd=02&kikanCd=10210000091&kikanKbn=1", "url2": "https://towada-saiseikai.or.jp/", "内容": "一般財団法人　済誠会　十和田済誠会病院【1:病院】【診療科目:0】【一般病床数:0療養病床数:0精神病床数:210感染症病床数:0合計病床数:210】青森県十和田市相坂字小林８４番地１４" }, "geometry": { "type": "Point", "coordinates": [ 141.230117, 40.600679 ] } },
{ "type": "Feature", "properties": { "ID": 210210000092, "正式名称": "医療法人泰仁会　十和田第一病院", "機関区分": 1, "都道府県コード": 2, "市区町村コード": 206, "所在地": "青森県十和田市東三番町１０－７０", "緯度": 40.611975, "経度": 141.220026, "url": "https://www.iryou.teikyouseido.mhlw.go.jp/znk-web/juminkanja/S2430/initialize?prefCd=02&kikanCd=10210000092&kikanKbn=1", "url2": "http://www.towadahp.or.jp", "内容": "医療法人泰仁会　十和田第一病院【1:病院】【診療科目:0】【一般病床数:60療養病床数:0精神病床数:0感染症病床数:0合計病床数:60】青森県十和田市東三番町１０－７０" }, "geometry": { "type": "Point", "coordinates": [ 141.220026, 40.611975 ] } },
{ "type": "Feature", "properties": { "ID": 210210000093, "正式名称": "医療法人　赤心会　十和田東病院", "機関区分": 1, "都道府県コード": 2, "市区町村コード": 206, "所在地": "青森県十和田市三本木里ノ沢１－２４７", "緯度": 40.625668, "経度": 141.245829, "url": "https://www.iryou.teikyouseido.mhlw.go.jp/znk-web/juminkanja/S2430/initialize?prefCd=02&kikanCd=10210000093&kikanKbn=1", "url2": "http://towada-higashi.com", "内容": "医療法人　赤心会　十和田東病院【1:病院】【診療科目:0】【一般病床数:50療養病床数:0精神病床数:0感染症病床数:0合計病床数:50】青森県十和田市三本木里ノ沢１－２４７" }, "geometry": { "type": "Point", "coordinates": [ 141.245829, 40.625668 ] } },
{ "type": "Feature", "properties": { "ID": 210210000094, "正式名称": "高松病院", "機関区分": 1, "都道府県コード": 2, "市区町村コード": 206, "所在地": "青森県十和田市三本木里ノ沢１－２４９", "緯度": 40.625918, "経度": 141.247384, "url": "https://www.iryou.teikyouseido.mhlw.go.jp/znk-web/juminkanja/S2430/initialize?prefCd=02&kikanCd=10210000094&kikanKbn=1", "url2": "http://www.takamatsu-hp.jp", "内容": "高松病院【1:病院】【診療科目:0】【一般病床数:0療養病床数:0精神病床数:239感染症病床数:0合計病床数:239】青森県十和田市三本木里ノ沢１－２４９" }, "geometry": { "type": "Point", "coordinates": [ 141.247384, 40.625918 ] } },
{ "type": "Feature", "properties": { "ID": 210210000095, "正式名称": "医療法人社団　良風会　ちびき病院", "機関区分": 1, "都道府県コード": 2, "市区町村コード": 408, "所在地": "青森県上北郡東北町石坂３２－４", "緯度": 40.823451, "経度": 141.122663, "url": "https://www.iryou.teikyouseido.mhlw.go.jp/znk-web/juminkanja/S2430/initialize?prefCd=02&kikanCd=10210000095&kikanKbn=1", "url2": "http://www.chibiki-hp.com", "内容": "医療法人社団　良風会　ちびき病院【1:病院】【診療科目:0】【一般病床数:53療養病床数:57精神病床数:0感染症病床数:0合計病床数:110】青森県上北郡東北町石坂３２－４" }, "geometry": { "type": "Point", "coordinates": [ 141.122663, 40.823451 ] } },
{ "type": "Feature", "properties": { "ID": 210210000098, "正式名称": "北部上北広域事務組合　公立野辺地病院", "機関区分": 1, "都道府県コード": 2, "市区町村コード": 401, "所在地": "青森県上北郡野辺地町鳴沢９番地１２", "緯度": 40.856003, "経度": 141.126439, "url": "https://www.iryou.teikyouseido.mhlw.go.jp/znk-web/juminkanja/S2430/initialize?prefCd=02&kikanCd=10210000098&kikanKbn=1", "url2": "http://www.hospital.noheji.aomori.jp", "内容": "北部上北広域事務組合　公立野辺地病院【1:病院】【診療科目:0】【一般病床数:120療養病床数:31精神病床数:0感染症病床数:0合計病床数:151】青森県上北郡野辺地町鳴沢９番地１２" }, "geometry": { "type": "Point", "coordinates": [ 141.126439, 40.856003 ] } },
{ "type": "Feature", "properties": { "ID": 210210000099, "正式名称": "一般財団法人　仁和会　三沢中央病院", "機関区分": 1, "都道府県コード": 2, "市区町村コード": 207, "所在地": "青森県三沢市中央町三丁目１１番２号", "緯度": 40.680692, "経度": 141.361511, "url": "https://www.iryou.teikyouseido.mhlw.go.jp/znk-web/juminkanja/S2430/initialize?prefCd=02&kikanCd=10210000099&kikanKbn=1", "url2": "http://www.misawach-kojika.com", "内容": "一般財団法人　仁和会　三沢中央病院【1:病院】【診療科目:0】【一般病床数:0療養病床数:84精神病床数:0感染症病床数:0合計病床数:84】青森県三沢市中央町三丁目１１番２号" }, "geometry": { "type": "Point", "coordinates": [ 141.361511, 40.680692 ] } },
{ "type": "Feature", "properties": { "ID": 210210000100, "正式名称": "医療法人　聖心会　三沢聖心会病院", "機関区分": 1, "都道府県コード": 2, "市区町村コード": 207, "所在地": "青森県三沢市淋代三丁目１１１－６", "緯度": 40.729716, "経度": 141.414504, "url": "https://www.iryou.teikyouseido.mhlw.go.jp/znk-web/juminkanja/S2430/initialize?prefCd=02&kikanCd=10210000100&kikanKbn=1", "url2": null, "内容": "医療法人　聖心会　三沢聖心会病院【1:病院】【診療科目:0】【一般病床数:0療養病床数:0精神病床数:140感染症病床数:0合計病床数:140】青森県三沢市淋代三丁目１１１－６" }, "geometry": { "type": "Point", "coordinates": [ 141.414504, 40.729716 ] } },
{ "type": "Feature", "properties": { "ID": 210210000101, "正式名称": "むつリハビリテーション病院", "機関区分": 1, "都道府県コード": 2, "市区町村コード": 208, "所在地": "青森県むつ市桜木町１３－１", "緯度": 41.250544, "経度": 141.131143, "url": "https://www.iryou.teikyouseido.mhlw.go.jp/znk-web/juminkanja/S2430/initialize?prefCd=02&kikanCd=10210000101&kikanKbn=1", "url2": "http://www.rihabiri-mutsu.jp", "内容": "むつリハビリテーション病院【1:病院】【診療科目:0】【一般病床数:0療養病床数:80精神病床数:0感染症病床数:0合計病床数:80】青森県むつ市桜木町１３－１" }, "geometry": { "type": "Point", "coordinates": [ 141.131143, 41.250544 ] } },
{ "type": "Feature", "properties": { "ID": 210210000103, "正式名称": "国民健康保険　大間病院", "機関区分": 1, "都道府県コード": 2, "市区町村コード": 423, "所在地": "青森県下北郡大間町大間大間平２０番地７８", "緯度": 41.5264, "経度": 140.926481, "url": "https://www.iryou.teikyouseido.mhlw.go.jp/znk-web/juminkanja/S2430/initialize?prefCd=02&kikanCd=10210000103&kikanKbn=1", "url2": "http://www.shimokita-mc.jp", "内容": "国民健康保険　大間病院【1:病院】【診療科目:0】【一般病床数:48療養病床数:0精神病床数:0感染症病床数:0合計病床数:48】青森県下北郡大間町大間大間平２０番地７８" }, "geometry": { "type": "Point", "coordinates": [ 140.926481, 41.5264 ] } },
{ "type": "Feature", "properties": { "ID": 210210000105, "正式名称": "むつ総合病院", "機関区分": 1, "都道府県コード": 2, "市区町村コード": 208, "所在地": "青森県むつ市小川町一丁目２番８号", "緯度": 41.293541, "経度": 141.201746, "url": "https://www.iryou.teikyouseido.mhlw.go.jp/znk-web/juminkanja/S2430/initialize?prefCd=02&kikanCd=10210000105&kikanKbn=1", "url2": "http://www.hospital-mutsu.or.jp", "内容": "むつ総合病院【1:病院】【診療科目:0】【一般病床数:376療養病床数:0精神病床数:54感染症病床数:4合計病床数:434】青森県むつ市小川町一丁目２番８号" }, "geometry": { "type": "Point", "coordinates": [ 141.201746, 41.293541 ] } },
{ "type": "Feature", "properties": { "ID": 210210000107, "正式名称": "メディカルコート八戸西病院", "機関区分": 1, "都道府県コード": 2, "市区町村コード": 203, "所在地": "青森県八戸市長苗代字中坪７７", "緯度": 40.516933, "経度": 141.451122, "url": "https://www.iryou.teikyouseido.mhlw.go.jp/znk-web/juminkanja/S2430/initialize?prefCd=02&kikanCd=10210000107&kikanKbn=1", "url2": "http://sg-silver.or.jp/index.php", "内容": "メディカルコート八戸西病院【1:病院】【診療科目:0】【一般病床数:199療養病床数:0精神病床数:0感染症病床数:0合計病床数:199】青森県八戸市長苗代字中坪７７" }, "geometry": { "type": "Point", "coordinates": [ 141.451122, 40.516933 ] } },
{ "type": "Feature", "properties": { "ID": 210210000110, "正式名称": "つがる西北五広域連合かなぎ病院", "機関区分": 1, "都道府県コード": 2, "市区町村コード": 205, "所在地": "青森県五所川原市金木町菅原１３番１", "緯度": 40.900181, "経度": 140.453771, "url": "https://www.iryou.teikyouseido.mhlw.go.jp/znk-web/juminkanja/S2430/initialize?prefCd=02&kikanCd=10210000110&kikanKbn=1", "url2": "http://www.tsgren.jp/kanagi-hospital/", "内容": "つがる西北五広域連合かなぎ病院【1:病院】【診療科目:0】【一般病床数:50療養病床数:20精神病床数:0感染症病床数:0合計病床数:70】青森県五所川原市金木町菅原１３番１" }, "geometry": { "type": "Point", "coordinates": [ 140.453771, 40.900181 ] } },
{ "type": "Feature", "properties": { "ID": 210210000113, "正式名称": "つがる西北五広域連合鰺ヶ沢病院", "機関区分": 1, "都道府県コード": 2, "市区町村コード": 321, "所在地": "青森県西津軽郡鰺ヶ沢町舞戸町字蒲生１０６－１０", "緯度": 40.772357, "経度": 140.219491, "url": "https://www.iryou.teikyouseido.mhlw.go.jp/znk-web/juminkanja/S2430/initialize?prefCd=02&kikanCd=10210000113&kikanKbn=1", "url2": "http://www.tsgren.jp/ajigasawa-hospital/", "内容": "つがる西北五広域連合鰺ヶ沢病院【1:病院】【診療科目:0】【一般病床数:60療養病床数:0精神病床数:0感染症病床数:0合計病床数:60】青森県西津軽郡鰺ヶ沢町舞戸町字蒲生１０６－１０" }, "geometry": { "type": "Point", "coordinates": [ 140.219491, 40.772357 ] } },
{ "type": "Feature", "properties": { "ID": 210210000116, "正式名称": "三沢市立三沢病院", "機関区分": 1, "都道府県コード": 2, "市区町村コード": 207, "所在地": "青森県三沢市三沢字堀口１６４番地６５号", "緯度": 40.688859, "経度": 141.403368, "url": "https://www.iryou.teikyouseido.mhlw.go.jp/znk-web/juminkanja/S2430/initialize?prefCd=02&kikanCd=10210000116&kikanKbn=1", "url2": "http://www.hospital.misawa.aomori.jp/", "内容": "三沢市立三沢病院【1:病院】【診療科目:0】【一般病床数:198療養病床数:0精神病床数:0感染症病床数:0合計病床数:198】青森県三沢市三沢字堀口１６４番地６５号" }, "geometry": { "type": "Point", "coordinates": [ 141.403368, 40.688859 ] } },
{ "type": "Feature", "properties": { "ID": 210210000118, "正式名称": "つがる西北五広域連合つがる総合病院", "機関区分": 1, "都道府県コード": 2, "市区町村コード": 205, "所在地": "青森県五所川原市岩木町１２番地３", "緯度": 40.807912, "経度": 140.441054, "url": "https://www.iryou.teikyouseido.mhlw.go.jp/znk-web/juminkanja/S2430/initialize?prefCd=02&kikanCd=10210000118&kikanKbn=1", "url2": "http://www.tsgren.jp/", "内容": "つがる西北五広域連合つがる総合病院【1:病院】【診療科目:0】【一般病床数:390療養病床数:0精神病床数:44感染症病床数:4合計病床数:438】青森県五所川原市岩木町１２番地３" }, "geometry": { "type": "Point", "coordinates": [ 140.441054, 40.807912 ] } },
{ "type": "Feature", "properties": { "ID": 210210000119, "正式名称": "津軽保健生活協同組合健生病院", "機関区分": 1, "都道府県コード": 2, "市区町村コード": 202, "所在地": "青森県弘前市扇町２－２－２", "緯度": 40.587548, "経度": 140.504864, "url": "https://www.iryou.teikyouseido.mhlw.go.jp/znk-web/juminkanja/S2430/initialize?prefCd=02&kikanCd=10210000119&kikanKbn=1", "url2": "http://www.kensei-hp.jp", "内容": "津軽保健生活協同組合健生病院【1:病院】【診療科目:0】【一般病床数:282療養病床数:0精神病床数:0感染症病床数:0合計病床数:282】青森県弘前市扇町２－２－２" }, "geometry": { "type": "Point", "coordinates": [ 140.504864, 40.587548 ] } },
{ "type": "Feature", "properties": { "ID": 210210000121, "正式名称": "医療法人雄心会　青森新都市病院", "機関区分": 1, "都道府県コード": 2, "市区町村コード": 201, "所在地": "青森県青森市石江３丁目１番地", "緯度": 40.83036, "経度": 140.692563, "url": "https://www.iryou.teikyouseido.mhlw.go.jp/znk-web/juminkanja/S2430/initialize?prefCd=02&kikanCd=10210000121&kikanKbn=1", "url2": "http://aomorishintoshi-hp.yushinkai.jp/", "内容": "医療法人雄心会　青森新都市病院【1:病院】【診療科目:0】【一般病床数:191療養病床数:0精神病床数:0感染症病床数:0合計病床数:191】青森県青森市石江３丁目１番地" }, "geometry": { "type": "Point", "coordinates": [ 140.692563, 40.83036 ] } },
{ "type": "Feature", "properties": { "ID": 210210000122, "正式名称": "内科種市病院", "機関区分": 1, "都道府県コード": 2, "市区町村コード": 203, "所在地": "青森県八戸市是川土間沢１", "緯度": 40.484965, "経度": 141.494232, "url": "https://www.iryou.teikyouseido.mhlw.go.jp/znk-web/juminkanja/S2430/initialize?prefCd=02&kikanCd=10210000122&kikanKbn=1", "url2": null, "内容": "内科種市病院【1:病院】【診療科目:0】【一般病床数:0療養病床数:42精神病床数:0感染症病床数:0合計病床数:42】青森県八戸市是川土間沢１" }, "geometry": { "type": "Point", "coordinates": [ 141.494232, 40.484965 ] } }
]
}
