{
"type": "FeatureCollection",
"name": "geo_02_短期入所療養介護（介護老人保健施設）",
"crs": { "type": "name", "properties": { "name": "urn:ogc:def:crs:OGC:1.3:CRS84" } },
"features": [
{ "type": "Feature", "properties": { "内容": "社会福祉法人諏訪ノ森会　介護老人保健施設いちい荘【短期入所療養介護（介護老人保健施設）】青森県青森市大字諏訪沢字丸山７２番地", "url2": "https://www.kaigokensaku.mhlw.go.jp/02/index.php?action_kouhyou_detail_004_kani=true&JigyosyoCd=0250180023-00&ServiceCd=220&Type=search" }, "geometry": { "type": "Point", "coordinates": [ 140.8330459, 40.8216379 ] } },
{ "type": "Feature", "properties": { "内容": "老人保健施設　すずかけの里【短期入所療養介護（介護老人保健施設）】青森県青森市里見2丁目13番地1号", "url2": "https://www.kaigokensaku.mhlw.go.jp/02/index.php?action_kouhyou_detail_004_kani=true&JigyosyoCd=0250180056-00&ServiceCd=220&Type=search" }, "geometry": { "type": "Point", "coordinates": [ 140.7134924, 40.8156356 ] } },
{ "type": "Feature", "properties": { "内容": "医療法人芙蓉会　介護老人保健施設ニューライフ芙蓉【短期入所療養介護（介護老人保健施設）】青森県青森市妙見３丁目１１-１４", "url2": "https://www.kaigokensaku.mhlw.go.jp/02/index.php?action_kouhyou_detail_004_kani=true&JigyosyoCd=0250180072-00&ServiceCd=220&Type=search" }, "geometry": { "type": "Point", "coordinates": [ 140.763345100000038, 40.7884394 ] } },
{ "type": "Feature", "properties": { "内容": "介護老人保健施設ケア・ガーデン青森【短期入所療養介護（介護老人保健施設）】青森市古館1丁目2-1", "url2": "https://www.kaigokensaku.mhlw.go.jp/02/index.php?action_kouhyou_detail_004_kani=true&JigyosyoCd=0250180098-00&ServiceCd=220&Type=search" }, "geometry": { "type": "Point", "coordinates": [ 140.779295899999966, 40.8062743 ] } },
{ "type": "Feature", "properties": { "内容": "ユニット型介護老人保健施設　青照苑【短期入所療養介護（介護老人保健施設）】青森市羽白字野木和４５", "url2": "https://www.kaigokensaku.mhlw.go.jp/02/index.php?action_kouhyou_detail_004_kani=true&JigyosyoCd=0250180015-00&ServiceCd=220&Type=search" }, "geometry": { "type": "Point", "coordinates": [ 140.678954699999963, 40.8473199 ] } },
{ "type": "Feature", "properties": { "内容": "介護老人保健施設なみおか【短期入所療養介護（介護老人保健施設）】青森県青森市浪岡杉沢字山元454-238", "url2": "https://www.kaigokensaku.mhlw.go.jp/02/index.php?action_kouhyou_detail_004_kani=true&JigyosyoCd=0250180155-00&ServiceCd=220&Type=search" }, "geometry": { "type": "Point", "coordinates": [ 140.5807911, 40.7261287 ] } },
{ "type": "Feature", "properties": { "内容": "介護老人保健施設　青森ナーシングライフ【短期入所療養介護（介護老人保健施設）】青森県青森市大字矢田前字弥生田４７－２", "url2": "https://www.kaigokensaku.mhlw.go.jp/02/index.php?action_kouhyou_detail_004_kani=true&JigyosyoCd=0250180007-00&ServiceCd=220&Type=search" }, "geometry": { "type": "Point", "coordinates": [ 140.808478700000023, 40.8292307 ] } },
{ "type": "Feature", "properties": { "内容": "介護老人保健施設　鳥井野荘【短期入所療養介護（介護老人保健施設）】青森県弘前市大字鳥井野字長田２６５番地", "url2": "https://www.kaigokensaku.mhlw.go.jp/02/index.php?action_kouhyou_detail_004_kani=true&JigyosyoCd=0252280003-00&ServiceCd=220&Type=search" }, "geometry": { "type": "Point", "coordinates": [ 140.4138591, 40.5997527 ] } },
{ "type": "Feature", "properties": { "内容": "老人保健施設ケアセンター弘前【短期入所療養介護（介護老人保健施設）】青森県弘前市山崎一丁目３番地７", "url2": "https://www.kaigokensaku.mhlw.go.jp/02/index.php?action_kouhyou_detail_004_kani=true&JigyosyoCd=0250280005-00&ServiceCd=220&Type=search" }, "geometry": { "type": "Point", "coordinates": [ 140.4719526, 40.574224 ] } },
{ "type": "Feature", "properties": { "内容": "介護老人保健施設ヴィラ弘前【短期入所療養介護（介護老人保健施設）】青森県弘前市大字岩賀２丁目12-11", "url2": "https://www.kaigokensaku.mhlw.go.jp/02/index.php?action_kouhyou_detail_004_kani=true&JigyosyoCd=0250280039-00&ServiceCd=220&Type=search" }, "geometry": { "type": "Point", "coordinates": [ 140.4747902, 40.644492 ] } },
{ "type": "Feature", "properties": { "内容": "介護老人保健施設　幸陽荘【短期入所療養介護（介護老人保健施設）】青森県弘前市清野袋字岡部433-1", "url2": "https://www.kaigokensaku.mhlw.go.jp/02/index.php?action_kouhyou_detail_004_kani=true&JigyosyoCd=0250280054-00&ServiceCd=220&Type=search" }, "geometry": { "type": "Point", "coordinates": [ 140.483210800000052, 40.6363459 ] } },
{ "type": "Feature", "properties": { "内容": "介護老人保健施設　希望ヶ丘ホーム【短期入所療養介護（介護老人保健施設）】青森県弘前市大字小沢字山崎４４－９", "url2": "https://www.kaigokensaku.mhlw.go.jp/02/index.php?action_kouhyou_detail_004_kani=true&JigyosyoCd=0250280062-00&ServiceCd=220&Type=search" }, "geometry": { "type": "Point", "coordinates": [ 140.451991799999973, 40.5662562 ] } },
{ "type": "Feature", "properties": { "内容": "介護老人保健施設はくじゅ【短期入所療養介護（介護老人保健施設）】青森県八戸市河原木字北沼２２－３９", "url2": "https://www.kaigokensaku.mhlw.go.jp/02/index.php?action_kouhyou_detail_004_kani=true&JigyosyoCd=0250380003-00&ServiceCd=220&Type=search" }, "geometry": { "type": "Point", "coordinates": [ 141.484859, 40.5523339 ] } },
{ "type": "Feature", "properties": { "内容": "介護老人保健施設　ひばりの里【短期入所療養介護（介護老人保健施設）】青森県八戸市大字是川字雲畑９ー２", "url2": "https://www.kaigokensaku.mhlw.go.jp/02/index.php?action_kouhyou_detail_004_kani=true&JigyosyoCd=0250380011-00&ServiceCd=220&Type=search" }, "geometry": { "type": "Point", "coordinates": [ 141.4713294, 40.4597612 ] } },
{ "type": "Feature", "properties": { "内容": "介護老人保健施設　南山苑【短期入所療養介護（介護老人保健施設）】青森県八戸市大字田面木字赤坂24-1", "url2": "https://www.kaigokensaku.mhlw.go.jp/02/index.php?action_kouhyou_detail_004_kani=true&JigyosyoCd=0250380052-00&ServiceCd=220&Type=search" }, "geometry": { "type": "Point", "coordinates": [ 141.455097499999965, 40.5000069 ] } },
{ "type": "Feature", "properties": { "内容": "ナーシングホームオリーブ【短期入所療養介護（介護老人保健施設）】八戸市湊高台二丁目４－６", "url2": "https://www.kaigokensaku.mhlw.go.jp/02/index.php?action_kouhyou_detail_004_kani=true&JigyosyoCd=0250380060-00&ServiceCd=220&Type=search" }, "geometry": { "type": "Point", "coordinates": [ 141.53762949999998, 40.5071242 ] } },
{ "type": "Feature", "properties": { "内容": "介護老人保健施設南郷メディエルデプラザ【短期入所療養介護（介護老人保健施設）】青森県八戸市南郷大字島守字阿庄内15番地6", "url2": "https://www.kaigokensaku.mhlw.go.jp/02/index.php?action_kouhyou_detail_004_kani=true&JigyosyoCd=0252780002-00&ServiceCd=220&Type=search" }, "geometry": { "type": "Point", "coordinates": [ 141.456146369836404, 40.407108269987887 ] } },
{ "type": "Feature", "properties": { "内容": "介護老人保健施設「あしたばの里・黒石」【短期入所療養介護（介護老人保健施設）】青森県黒石市末広6番地1", "url2": "https://www.kaigokensaku.mhlw.go.jp/02/index.php?action_kouhyou_detail_004_kani=true&JigyosyoCd=0250480001-00&ServiceCd=220&Type=search" }, "geometry": { "type": "Point", "coordinates": [ 140.595772399999987, 40.6617796 ] } },
{ "type": "Feature", "properties": { "内容": "介護老人保健施設緑風苑【短期入所療養介護（介護老人保健施設）】青森県五所川原市金山字竹崎254", "url2": "https://www.kaigokensaku.mhlw.go.jp/02/index.php?action_kouhyou_detail_004_kani=true&JigyosyoCd=0250580008-00&ServiceCd=220&Type=search" }, "geometry": { "type": "Point", "coordinates": [ 140.475018, 40.8071143 ] } },
{ "type": "Feature", "properties": { "内容": "老人保健施設　みのり苑【短期入所療養介護（介護老人保健施設）】青森県十和田市大字切田字横道100-22", "url2": "https://www.kaigokensaku.mhlw.go.jp/02/index.php?action_kouhyou_detail_004_kani=true&JigyosyoCd=0250680014-00&ServiceCd=220&Type=search" }, "geometry": { "type": "Point", "coordinates": [ 141.192791100000022, 40.5693306 ] } },
{ "type": "Feature", "properties": { "内容": "介護老人保健施設とわだ【短期入所療養介護（介護老人保健施設）】青森県十和田市大字洞内字長田60-6", "url2": "https://www.kaigokensaku.mhlw.go.jp/02/index.php?action_kouhyou_detail_004_kani=true&JigyosyoCd=0250680048-00&ServiceCd=220&Type=search" }, "geometry": { "type": "Point", "coordinates": [ 141.181886500000019, 40.6659893 ] } },
{ "type": "Feature", "properties": { "内容": "介護老人保健施設ハートランド【短期入所療養介護（介護老人保健施設）】十和田市大字相坂字高清水78-450", "url2": "https://www.kaigokensaku.mhlw.go.jp/02/index.php?action_kouhyou_detail_004_kani=true&JigyosyoCd=0250680055-00&ServiceCd=220&Type=search" }, "geometry": { "type": "Point", "coordinates": [ 141.255791300000027, 40.6216813 ] } },
{ "type": "Feature", "properties": { "内容": "老人保健施設　やすらぎ苑【短期入所療養介護（介護老人保健施設）】青森県三沢市大字三沢字淋代平１１６－３０９７", "url2": "https://www.kaigokensaku.mhlw.go.jp/02/index.php?action_kouhyou_detail_004_kani=true&JigyosyoCd=0250780004-00&ServiceCd=220&Type=search" }, "geometry": { "type": "Point", "coordinates": [ 141.374562100000048, 40.7456334 ] } },
{ "type": "Feature", "properties": { "内容": "老人保健施設シルバーケアセンターむつ【短期入所療養介護（介護老人保健施設）】青森県むつ市中央一丁目１８番１号", "url2": "https://www.kaigokensaku.mhlw.go.jp/02/index.php?action_kouhyou_detail_004_kani=true&JigyosyoCd=0250880002-00&ServiceCd=220&Type=search" }, "geometry": { "type": "Point", "coordinates": [ 141.183942099999967, 41.2940872 ] } },
{ "type": "Feature", "properties": { "内容": "介護老人保健施設三笠ケアセンター【短期入所療養介護（介護老人保健施設）】青森県平川市館田西和田195番地", "url2": "https://www.kaigokensaku.mhlw.go.jp/02/index.php?action_kouhyou_detail_004_kani=true&JigyosyoCd=0252380019-00&ServiceCd=220&Type=search" }, "geometry": { "type": "Point", "coordinates": [ 140.5394387, 40.5866316 ] } },
{ "type": "Feature", "properties": { "内容": "介護老人保健施設のぞみ【短期入所療養介護（介護老人保健施設）】青森県平川市李平上山崎54-1", "url2": "https://www.kaigokensaku.mhlw.go.jp/02/index.php?action_kouhyou_detail_004_kani=true&JigyosyoCd=0252380027-00&ServiceCd=220&Type=search" }, "geometry": { "type": "Point", "coordinates": [ 140.5926938, 40.6210709 ] } },
{ "type": "Feature", "properties": { "内容": "一般財団法人　黎明郷　介護老人保健施設　つがる【短期入所療養介護（介護老人保健施設）】青森県平川市碇ヶ関湯向川添30番地", "url2": "https://www.kaigokensaku.mhlw.go.jp/02/index.php?action_kouhyou_detail_004_kani=true&JigyosyoCd=0252380043-00&ServiceCd=220&Type=search" }, "geometry": { "type": "Point", "coordinates": [ 140.62604280000005, 40.4785053 ] } },
{ "type": "Feature", "properties": { "内容": "外ヶ浜町介護老人保健施設たんぽぽ【短期入所療養介護（介護老人保健施設）】青森県東津軽郡外ヶ浜町下蟹田４２番地１", "url2": "https://www.kaigokensaku.mhlw.go.jp/02/index.php?action_kouhyou_detail_004_kani=true&JigyosyoCd=0252080007-00&ServiceCd=220&Type=search" }, "geometry": { "type": "Point", "coordinates": [ 140.639959, 41.0421902 ] } },
{ "type": "Feature", "properties": { "内容": "老人保健施設ながだい荘【短期入所療養介護（介護老人保健施設）】青森県西津軽郡鯵ヶ沢町大字長平町字甲音羽山６５－４１２", "url2": "https://www.kaigokensaku.mhlw.go.jp/02/index.php?action_kouhyou_detail_004_kani=true&JigyosyoCd=0252180013-00&ServiceCd=220&Type=search" }, "geometry": { "type": "Point", "coordinates": [ 140.287495499999977, 40.7118681 ] } },
{ "type": "Feature", "properties": { "内容": "介護老人保健施設　湖水荘【短期入所療養介護（介護老人保健施設）】青森県北津軽郡鶴田町大字廻堰字東下山９１番地２", "url2": "https://www.kaigokensaku.mhlw.go.jp/02/index.php?action_kouhyou_detail_004_kani=true&JigyosyoCd=0252480017-00&ServiceCd=220&Type=search" }, "geometry": { "type": "Point", "coordinates": [ 140.3874935, 40.7580808 ] } },
{ "type": "Feature", "properties": { "内容": "介護老人保健施設　えぼし【短期入所療養介護（介護老人保健施設）】青森県上北郡野辺地町字川目88-1", "url2": "https://www.kaigokensaku.mhlw.go.jp/02/index.php?action_kouhyou_detail_004_kani=true&JigyosyoCd=0252580014-00&ServiceCd=220&Type=search" }, "geometry": { "type": "Point", "coordinates": [ 141.132013499999971, 40.8349221 ] } },
{ "type": "Feature", "properties": { "内容": "介護老人保健施設　のへじ【短期入所療養介護（介護老人保健施設）】青森県上北郡野辺地町字餅粟川原4", "url2": "https://www.kaigokensaku.mhlw.go.jp/02/index.php?action_kouhyou_detail_004_kani=true&JigyosyoCd=0252580030-00&ServiceCd=220&Type=search" }, "geometry": { "type": "Point", "coordinates": [ 141.1278522, 40.8542341 ] } },
{ "type": "Feature", "properties": { "内容": "介護老人保健施設　ナーシングセンター柏葉【短期入所療養介護（介護老人保健施設）】青森県上北郡七戸町字笊田川久保100-1", "url2": "https://www.kaigokensaku.mhlw.go.jp/02/index.php?action_kouhyou_detail_004_kani=true&JigyosyoCd=0252580006-00&ServiceCd=220&Type=search" }, "geometry": { "type": "Point", "coordinates": [ 141.159810200000038, 40.6978985 ] } },
{ "type": "Feature", "properties": { "内容": "六ヶ所村介護老人保健施設ニッコウキスゲ【短期入所療養介護（介護老人保健施設）】青森県上北郡六ヶ所村大字尾駮字野附986-4", "url2": "https://www.kaigokensaku.mhlw.go.jp/02/index.php?action_kouhyou_detail_004_kani=true&JigyosyoCd=0272502022-00&ServiceCd=220&Type=search" }, "geometry": { "type": "Point", "coordinates": [ 141.374944, 40.9650053 ] } },
{ "type": "Feature", "properties": { "内容": "介護老人保健施設しもだ【短期入所療養介護（介護老人保健施設）】青森県上北郡おいらせ町山崎2592-7", "url2": "https://www.kaigokensaku.mhlw.go.jp/02/index.php?action_kouhyou_detail_004_kani=true&JigyosyoCd=0252580022-00&ServiceCd=220&Type=search" }, "geometry": { "type": "Point", "coordinates": [ 141.401954199999977, 40.6141385 ] } },
{ "type": "Feature", "properties": { "内容": "東通村介護老人保健施設「のはなしょうぶ」【短期入所療養介護（介護老人保健施設）】青森県下北郡東通村砂子又字里１７番地２", "url2": "https://www.kaigokensaku.mhlw.go.jp/02/index.php?action_kouhyou_detail_004_kani=true&JigyosyoCd=0252680004-00&ServiceCd=220&Type=search" }, "geometry": { "type": "Point", "coordinates": [ 141.337477400000012, 41.2766568 ] } },
{ "type": "Feature", "properties": { "内容": "老人保健施設ほほえみ三戸【短期入所療養介護（介護老人保健施設）】青森県三戸郡三戸町大字同心町字諏訪内１０番地", "url2": "https://www.kaigokensaku.mhlw.go.jp/02/index.php?action_kouhyou_detail_004_kani=true&JigyosyoCd=0252780044-00&ServiceCd=220&Type=search" }, "geometry": { "type": "Point", "coordinates": [ 141.2533489, 40.3759427 ] } },
{ "type": "Feature", "properties": { "内容": "田子町介護老人保健施設　老健たっこ【短期入所療養介護（介護老人保健施設）】青森県三戸郡田子町大字田子字前田２－１７", "url2": "https://www.kaigokensaku.mhlw.go.jp/02/index.php?action_kouhyou_detail_004_kani=true&JigyosyoCd=0252780051-00&ServiceCd=220&Type=search" }, "geometry": { "type": "Point", "coordinates": [ 141.1545079, 40.3410531 ] } },
{ "type": "Feature", "properties": { "内容": "介護老人保健施設　孔明荘【短期入所療養介護（介護老人保健施設）】青森県三戸郡南部町大字苫米地字蒼前11番1", "url2": "https://www.kaigokensaku.mhlw.go.jp/02/index.php?action_kouhyou_detail_004_kani=true&JigyosyoCd=0252780010-00&ServiceCd=220&Type=search" }, "geometry": { "type": "Point", "coordinates": [ 141.3891779, 40.4665793 ] } }
]
}
