{
"type": "FeatureCollection",
"name": "geo_02_訪問看護",
"crs": { "type": "name", "properties": { "name": "urn:ogc:def:crs:OGC:1.3:CRS84" } },
"features": [
{ "type": "Feature", "properties": { "内容": "ワンだふる訪問看護ステーション【訪問看護】青森県青森市中佃二丁目10番6号コーポかまた102号", "url": "https://www.kaigokensaku.mhlw.go.jp/02/index.php?action_kouhyou_detail_004_kani=true&JigyosyoCd=0260190525-00&ServiceCd=130&Type=search", "url2": "https://wander-ful1101.my.canva.site/" }, "geometry": { "type": "Point", "coordinates": [ 140.7817056, 40.8180863 ] } },
{ "type": "Feature", "properties": { "内容": "ツクイ青森訪問看護ステーション【訪問看護】青森県青森市本町1丁目4番17号大樹生命青森ビル4階", "url": "https://www.kaigokensaku.mhlw.go.jp/02/index.php?action_kouhyou_detail_004_kani=true&JigyosyoCd=0260190517-00&ServiceCd=130&Type=search", "url2": "https://corp.tsukui.net" }, "geometry": { "type": "Point", "coordinates": [ 140.7496633, 40.8236151 ] } },
{ "type": "Feature", "properties": { "内容": "青森厚生病院　介護事業部【訪問看護】青森県青森市大字新城字山田488番地１", "url": "https://www.kaigokensaku.mhlw.go.jp/02/index.php?action_kouhyou_detail_004_kani=true&JigyosyoCd=0210114989-00&ServiceCd=130&Type=search", "url2": null }, "geometry": { "type": "Point", "coordinates": [ 140.67721610000001, 40.8363053 ] } },
{ "type": "Feature", "properties": { "内容": "医療法人明友会嶋中内科循環器科【訪問看護】青森県青森市青柳２丁目9-38", "url": "https://www.kaigokensaku.mhlw.go.jp/02/index.php?action_kouhyou_detail_004_kani=true&JigyosyoCd=0210116703-00&ServiceCd=130&Type=search", "url2": "http://www3.ocn.ne.jp/~simanaka/index.html" }, "geometry": { "type": "Point", "coordinates": [ 140.757725, 40.8259025 ] } },
{ "type": "Feature", "properties": { "内容": "訪問看護ステーションすずかけ【訪問看護】青森市里見2丁目13番1号社会福祉法人　すずかけの里", "url": "https://www.kaigokensaku.mhlw.go.jp/02/index.php?action_kouhyou_detail_004_kani=true&JigyosyoCd=0260190012-00&ServiceCd=130&Type=search", "url2": "http://www.amc-headquarters-med.or.jp" }, "geometry": { "type": "Point", "coordinates": [ 140.713356, 40.8156162 ] } },
{ "type": "Feature", "properties": { "内容": "訪問看護ステーションやよい【訪問看護】青森市大字矢田前字弥生田47-2", "url": "https://www.kaigokensaku.mhlw.go.jp/02/index.php?action_kouhyou_detail_004_kani=true&JigyosyoCd=0260190079-00&ServiceCd=130&Type=search", "url2": "http://www.keiju-w.or.jp/" }, "geometry": { "type": "Point", "coordinates": [ 140.808478700000023, 40.8292307 ] } },
{ "type": "Feature", "properties": { "内容": "じけいかい訪問看護ステーション【訪問看護】青森県青森市安田字近野146番地1青森慈恵会病院内", "url": "https://www.kaigokensaku.mhlw.go.jp/02/index.php?action_kouhyou_detail_004_kani=true&JigyosyoCd=0260190137-00&ServiceCd=130&Type=search", "url2": "http://www.jikei-kai.org" }, "geometry": { "type": "Point", "coordinates": [ 140.705431149098303, 40.803114005474114 ] } },
{ "type": "Feature", "properties": { "内容": "訪問看護ステーションのぞみ【訪問看護】青森県青森市東大野一丁目１－１２レトア１０１", "url": "https://www.kaigokensaku.mhlw.go.jp/02/index.php?action_kouhyou_detail_004_kani=true&JigyosyoCd=0260190145-00&ServiceCd=130&Type=search", "url2": null }, "geometry": { "type": "Point", "coordinates": [ 140.741003182803297, 40.804637108341289 ] } },
{ "type": "Feature", "properties": { "内容": "協立訪問看護ステーション【訪問看護】青森市問屋町１丁目１５番１０号看護多機能型居宅介護事業所ひまわり　2階", "url": "https://www.kaigokensaku.mhlw.go.jp/02/index.php?action_kouhyou_detail_004_kani=true&JigyosyoCd=0260190160-00&ServiceCd=130&Type=search", "url2": "http://www.aomori-h-coop.com" }, "geometry": { "type": "Point", "coordinates": [ 140.758350842852792, 40.790548016014291 ] } },
{ "type": "Feature", "properties": { "内容": "医療法人　芙蓉会　訪問看護ステーション　マザー【訪問看護】青森県青森市妙見３丁目１１－１４総合ケアセンターさんらく", "url": "https://www.kaigokensaku.mhlw.go.jp/02/index.php?action_kouhyou_detail_004_kani=true&JigyosyoCd=0260190178-00&ServiceCd=130&Type=search", "url2": "https://www.fuyoukai.or.jp/sanraku/jigyousho/houmon/mother.html" }, "geometry": { "type": "Point", "coordinates": [ 140.763345100000038, 40.7884394 ] } },
{ "type": "Feature", "properties": { "内容": "訪問看護ステーションはーとけあ【訪問看護】青森市青葉１丁目２－２２", "url": "https://www.kaigokensaku.mhlw.go.jp/02/index.php?action_kouhyou_detail_004_kani=true&JigyosyoCd=0260190210-00&ServiceCd=130&Type=search", "url2": "http://www.heartcare-service.com/facility.html" }, "geometry": { "type": "Point", "coordinates": [ 140.742662244603281, 40.805653899036521 ] } },
{ "type": "Feature", "properties": { "内容": "訪問看護ステーションあうら【訪問看護】青森県青森市幸畑2丁目6-10", "url": "https://www.kaigokensaku.mhlw.go.jp/02/index.php?action_kouhyou_detail_004_kani=true&JigyosyoCd=0260190228-00&ServiceCd=130&Type=search", "url2": "http://www.aura-group.jp/" }, "geometry": { "type": "Point", "coordinates": [ 140.782801800000016, 40.784987500000014 ] } },
{ "type": "Feature", "properties": { "内容": "訪問看護ステーションユリカ【訪問看護】青森県青森市橋本２丁目15番8号", "url": "https://www.kaigokensaku.mhlw.go.jp/02/index.php?action_kouhyou_detail_004_kani=true&JigyosyoCd=0260190244-00&ServiceCd=130&Type=search", "url2": "www.yurika-hashimoto.com" }, "geometry": { "type": "Point", "coordinates": [ 140.753608799999938, 40.8219861 ] } },
{ "type": "Feature", "properties": { "内容": "訪問看護ステーションあかり【訪問看護】青森県青森市羽白字沢田719-3", "url": "https://www.kaigokensaku.mhlw.go.jp/02/index.php?action_kouhyou_detail_004_kani=true&JigyosyoCd=0260190277-00&ServiceCd=130&Type=search", "url2": null }, "geometry": { "type": "Point", "coordinates": [ 140.6851792, 40.8597654 ] } },
{ "type": "Feature", "properties": { "内容": "あおかい訪問看護【訪問看護】青森県青森市古川2-15-7JMG古川ビル", "url": "https://www.kaigokensaku.mhlw.go.jp/02/index.php?action_kouhyou_detail_004_kani=true&JigyosyoCd=0260190285-00&ServiceCd=130&Type=search", "url2": "https://aokaigo.co.jp" }, "geometry": { "type": "Point", "coordinates": [ 140.738223554991691, 40.821547278131504 ] } },
{ "type": "Feature", "properties": { "内容": "訪問看護ステーション　デューン青森【訪問看護】青森県青森市長島2丁目16-2岩渕ビル2階", "url": "https://www.kaigokensaku.mhlw.go.jp/02/index.php?action_kouhyou_detail_004_kani=true&JigyosyoCd=0260190293-00&ServiceCd=130&Type=search", "url2": null }, "geometry": { "type": "Point", "coordinates": [ 140.742818199999988, 40.8215023 ] } },
{ "type": "Feature", "properties": { "内容": "医療法人雄心会　新都市訪問看護ステーション【訪問看護】青森県青森市大字石江3-2-4ひまわり薬局2F", "url": "https://www.kaigokensaku.mhlw.go.jp/02/index.php?action_kouhyou_detail_004_kani=true&JigyosyoCd=0260190301-00&ServiceCd=130&Type=search", "url2": "https://aomorishintoshi-hp.yushinkai.jp/" }, "geometry": { "type": "Point", "coordinates": [ 140.69215403951921, 40.829624956198359 ] } },
{ "type": "Feature", "properties": { "内容": "ほ〜むおんナースステーション【訪問看護】小柳１丁目１７－２１", "url": "https://www.kaigokensaku.mhlw.go.jp/02/index.php?action_kouhyou_detail_004_kani=true&JigyosyoCd=0260190319-00&ServiceCd=130&Type=search", "url2": "https://www.homeon.info" }, "geometry": { "type": "Point", "coordinates": [ 140.79143063995059, 40.820907735850511 ] } },
{ "type": "Feature", "properties": { "内容": "ナースステーションまごの手【訪問看護】青森県青森市沖館５丁目８－５", "url": "https://www.kaigokensaku.mhlw.go.jp/02/index.php?action_kouhyou_detail_004_kani=true&JigyosyoCd=0260190343-00&ServiceCd=130&Type=search", "url2": "https://magocoro-co.jp/" }, "geometry": { "type": "Point", "coordinates": [ 140.72068677175821, 40.83341978874315 ] } },
{ "type": "Feature", "properties": { "内容": "アピイ訪問看護ステーション【訪問看護】青森県青森市問屋町1丁目7-21", "url": "https://www.kaigokensaku.mhlw.go.jp/02/index.php?action_kouhyou_detail_004_kani=true&JigyosyoCd=0260190350-00&ServiceCd=130&Type=search", "url2": "https://www.ape-life.co.jp/" }, "geometry": { "type": "Point", "coordinates": [ 140.757596019530837, 40.78860133444212 ] } },
{ "type": "Feature", "properties": { "内容": "訪問看護ステーション　いなせ【訪問看護】青森市小柳１丁目１７番１１号Lumino小柳１０３号", "url": "https://www.kaigokensaku.mhlw.go.jp/02/index.php?action_kouhyou_detail_004_kani=true&JigyosyoCd=0260190376-00&ServiceCd=130&Type=search", "url2": null }, "geometry": { "type": "Point", "coordinates": [ 140.7909718, 40.8217597 ] } },
{ "type": "Feature", "properties": { "内容": "リニエ訪問看護ステーション青森青葉【訪問看護】〒030-0846青森県青森市青葉3-9-8三成ビル2階E号室", "url": "https://www.kaigokensaku.mhlw.go.jp/02/index.php?action_kouhyou_detail_004_kani=true&JigyosyoCd=0260190400-00&ServiceCd=130&Type=search", "url2": "https://linie-group.jp/office/houmonkango-aomoriaoba/" }, "geometry": { "type": "Point", "coordinates": [ 140.7565185, 40.8015847 ] } },
{ "type": "Feature", "properties": { "内容": "医心館訪問看護ステーション青森【訪問看護】奥野三丁目14番21号", "url": "https://www.kaigokensaku.mhlw.go.jp/02/index.php?action_kouhyou_detail_004_kani=true&JigyosyoCd=0260190418-00&ServiceCd=130&Type=search", "url2": null }, "geometry": { "type": "Point", "coordinates": [ 139.705424099999988, 35.6923171 ] } },
{ "type": "Feature", "properties": { "内容": "訪問看護ステーションえにし【訪問看護】青森県青森市南佃2丁目17-1メゾンオリンピアB号", "url": "https://www.kaigokensaku.mhlw.go.jp/02/index.php?action_kouhyou_detail_004_kani=true&JigyosyoCd=0260190426-00&ServiceCd=130&Type=search", "url2": null }, "geometry": { "type": "Point", "coordinates": [ 140.7853883, 40.8162327 ] } },
{ "type": "Feature", "properties": { "内容": "訪問看護ステーション心【訪問看護】青森県青森市佃3丁目1番5号", "url": "https://www.kaigokensaku.mhlw.go.jp/02/index.php?action_kouhyou_detail_004_kani=true&JigyosyoCd=0260190434-00&ServiceCd=130&Type=search", "url2": null }, "geometry": { "type": "Point", "coordinates": [ 140.7817906, 40.8232832 ] } },
{ "type": "Feature", "properties": { "内容": "訪問看護ステーション　バンドー青森【訪問看護】青森県青森市野木字山口15-11", "url": "https://www.kaigokensaku.mhlw.go.jp/02/index.php?action_kouhyou_detail_004_kani=true&JigyosyoCd=0260190442-00&ServiceCd=130&Type=search", "url2": "http://www.bwfg.co.jp/" }, "geometry": { "type": "Point", "coordinates": [ 140.745627099999979, 40.7652862 ] } },
{ "type": "Feature", "properties": { "内容": "訪問看護ステーション健心【訪問看護】青森県青森市篠田3丁目12-21ハイツそうま1号室", "url": "https://www.kaigokensaku.mhlw.go.jp/02/index.php?action_kouhyou_detail_004_kani=true&JigyosyoCd=0260190459-00&ServiceCd=130&Type=search", "url2": "https://www.houmonkango-kensin.com" }, "geometry": { "type": "Point", "coordinates": [ 140.723150800000013, 40.8264451 ] } },
{ "type": "Feature", "properties": { "内容": "ナースステーションいきいきケア【訪問看護】青森県青森市佃1丁目23-10", "url": "https://www.kaigokensaku.mhlw.go.jp/02/index.php?action_kouhyou_detail_004_kani=true&JigyosyoCd=0260190475-00&ServiceCd=130&Type=search", "url2": "https://iki-iki.co.jp/company/" }, "geometry": { "type": "Point", "coordinates": [ 140.7770456, 40.8206065 ] } },
{ "type": "Feature", "properties": { "内容": "サンライズ訪問看護ステーション【訪問看護】青森県上北郡東北町旭南3丁目296-2", "url": "https://www.kaigokensaku.mhlw.go.jp/02/index.php?action_kouhyou_detail_004_kani=true&JigyosyoCd=0262590094-00&ServiceCd=130&Type=search", "url2": null }, "geometry": { "type": "Point", "coordinates": [ 141.276137, 40.7306503 ] } },
{ "type": "Feature", "properties": { "内容": "ハピネス訪問看護ステーション【訪問看護】青森県青森市浪岡大字下十川字村元59-1", "url": "https://www.kaigokensaku.mhlw.go.jp/02/index.php?action_kouhyou_detail_004_kani=true&JigyosyoCd=0260190327-00&ServiceCd=130&Type=search", "url2": null }, "geometry": { "type": "Point", "coordinates": [ 140.558993500000042, 40.6927331 ] } },
{ "type": "Feature", "properties": { "内容": "ナースステーションめりい【訪問看護】青森県青森市中佃3丁目7番5号丸忠ハイツ　201号室", "url": "https://www.kaigokensaku.mhlw.go.jp/02/index.php?action_kouhyou_detail_004_kani=true&JigyosyoCd=0260190335-00&ServiceCd=130&Type=search", "url2": null }, "geometry": { "type": "Point", "coordinates": [ 140.786805800000025, 40.817019 ] } },
{ "type": "Feature", "properties": { "内容": "訪問看護リハビリステーションスマイル【訪問看護】青森県青森市問屋町2－14－6", "url": "https://www.kaigokensaku.mhlw.go.jp/02/index.php?action_kouhyou_detail_004_kani=true&JigyosyoCd=0260190236-00&ServiceCd=130&Type=search", "url2": "caresmile.net" }, "geometry": { "type": "Point", "coordinates": [ 140.758137790807382, 40.788260762719936 ] } },
{ "type": "Feature", "properties": { "内容": "リリオンナースステーション【訪問看護】青森県青森市自由ヶ丘1丁目３－１", "url": "https://www.kaigokensaku.mhlw.go.jp/02/index.php?action_kouhyou_detail_004_kani=true&JigyosyoCd=0260190491-00&ServiceCd=130&Type=search", "url2": null }, "geometry": { "type": "Point", "coordinates": [ 140.7959598, 40.8154821 ] } },
{ "type": "Feature", "properties": { "内容": "訪問看護リハビリセンターぷらっと【訪問看護】青森市松森3丁目17－69　10号", "url": "https://www.kaigokensaku.mhlw.go.jp/02/index.php?action_kouhyou_detail_004_kani=true&JigyosyoCd=0260190533-00&ServiceCd=130&Type=search", "url2": "http://www.clover-net.co.jp/" }, "geometry": { "type": "Point", "coordinates": [ 140.776659600000016, 40.810807477897775 ] } },
{ "type": "Feature", "properties": { "内容": "訪問看護ステーションフウカ【訪問看護】青森県青森市南佃2丁目18-7", "url": "https://www.kaigokensaku.mhlw.go.jp/02/index.php?action_kouhyou_detail_004_kani=true&JigyosyoCd=0260190368-00&ServiceCd=130&Type=search", "url2": "http://hhk-peace.jp" }, "geometry": { "type": "Point", "coordinates": [ 140.717205799999959, 40.8076127 ] } },
{ "type": "Feature", "properties": { "内容": "えみい訪問看護ステーション【訪問看護】青森県青森市中央1丁目18-9ハイツTOMI　A棟102号室", "url": "https://www.kaigokensaku.mhlw.go.jp/02/index.php?action_kouhyou_detail_004_kani=true&JigyosyoCd=0260190483-00&ServiceCd=130&Type=search", "url2": null }, "geometry": { "type": "Point", "coordinates": [ 140.747835900000013, 40.8202223 ] } },
{ "type": "Feature", "properties": { "内容": "株式会社　光仁介護サービス　まちだ訪問看護ステーション【訪問看護】青森県青森市大字羽白字沢田44番地2", "url": "https://www.kaigokensaku.mhlw.go.jp/02/index.php?action_kouhyou_detail_004_kani=true&JigyosyoCd=0260190251-00&ServiceCd=130&Type=search", "url2": null }, "geometry": { "type": "Point", "coordinates": [ 140.690520500000048, 40.8547552 ] } },
{ "type": "Feature", "properties": { "内容": "ＥＳＴクリニック　訪問看護部【訪問看護】青森県弘前市福村字新舘添20-1ＥＳＴクリニック", "url": "https://www.kaigokensaku.mhlw.go.jp/02/index.php?action_kouhyou_detail_004_kani=true&JigyosyoCd=0210215034-00&ServiceCd=130&Type=search", "url2": "www.estclinic.com" }, "geometry": { "type": "Point", "coordinates": [ 140.517567064418017, 40.6044147 ] } },
{ "type": "Feature", "properties": { "内容": "医療法人仙知会八幡町クリニック【訪問看護】青森県弘前市大字青山４丁目２７番地１０", "url": "https://www.kaigokensaku.mhlw.go.jp/02/index.php?action_kouhyou_detail_004_kani=true&JigyosyoCd=0210215679-00&ServiceCd=130&Type=search", "url2": "https://senchikai.jp/" }, "geometry": { "type": "Point", "coordinates": [ 140.484744, 40.6240986 ] } },
{ "type": "Feature", "properties": { "内容": "訪問看護ステーション　ことぶき【訪問看護】青森県弘前市大字清野袋字岡部433-1老人保健施設　幸陽荘　内", "url": "https://www.kaigokensaku.mhlw.go.jp/02/index.php?action_kouhyou_detail_004_kani=true&JigyosyoCd=0260290002-00&ServiceCd=130&Type=search", "url2": null }, "geometry": { "type": "Point", "coordinates": [ 140.483210800000052, 40.636345899999966 ] } },
{ "type": "Feature", "properties": { "内容": "城東訪問看護ステーション【訪問看護】青森県弘前市城東中央４丁目１－２グラン城東１階", "url": "https://www.kaigokensaku.mhlw.go.jp/02/index.php?action_kouhyou_detail_004_kani=true&JigyosyoCd=0260290036-00&ServiceCd=130&Type=search", "url2": null }, "geometry": { "type": "Point", "coordinates": [ 140.495348979762298, 40.599884320566929 ] } },
{ "type": "Feature", "properties": { "内容": "津軽保健生活協同組合　健生訪問看護ステーションたまち【訪問看護】青森県弘前市大字向外瀬字豊田292の1健生介護センター虹　1階", "url": "https://www.kaigokensaku.mhlw.go.jp/02/index.php?action_kouhyou_detail_004_kani=true&JigyosyoCd=0260290044-00&ServiceCd=130&Type=search", "url2": null }, "geometry": { "type": "Point", "coordinates": [ 140.482228054816659, 40.630091718406611 ] } },
{ "type": "Feature", "properties": { "内容": "訪問看護ステーション　ふれあい【訪問看護】青森県弘前市八幡町3-1-1", "url": "https://www.kaigokensaku.mhlw.go.jp/02/index.php?action_kouhyou_detail_004_kani=true&JigyosyoCd=0260290077-00&ServiceCd=130&Type=search", "url2": "http://www.kouaikai.com" }, "geometry": { "type": "Point", "coordinates": [ 140.4840898, 40.6148513 ] } },
{ "type": "Feature", "properties": { "内容": "訪問看護ステーション　バンドー弘前【訪問看護】青森県弘前市神田1丁目7-14", "url": "https://www.kaigokensaku.mhlw.go.jp/02/index.php?action_kouhyou_detail_004_kani=true&JigyosyoCd=0260290143-00&ServiceCd=130&Type=search", "url2": "http://www.bwfg.co.jp/" }, "geometry": { "type": "Point", "coordinates": [ 140.4879932, 40.616690800000015 ] } },
{ "type": "Feature", "properties": { "内容": "訪問看護ステーションほのか【訪問看護】青森県弘前市大字泉野五丁目６番地７訪問看護ステーション　ほのか", "url": "https://www.kaigokensaku.mhlw.go.jp/02/index.php?action_kouhyou_detail_004_kani=true&JigyosyoCd=0260290176-00&ServiceCd=130&Type=search", "url2": null }, "geometry": { "type": "Point", "coordinates": [ 140.494805545403665, 40.571788508471961 ] } },
{ "type": "Feature", "properties": { "内容": "訪問看護ステーション　アシスト【訪問看護】青森県弘前市川先３丁目４番地５", "url": "https://www.kaigokensaku.mhlw.go.jp/02/index.php?action_kouhyou_detail_004_kani=true&JigyosyoCd=0260290184-00&ServiceCd=130&Type=search", "url2": null }, "geometry": { "type": "Point", "coordinates": [ 140.493171299999972, 40.5850686 ] } },
{ "type": "Feature", "properties": { "内容": "訪問看護ステーション　あいびす【訪問看護】青森県弘前市大字館野１丁目３－２３", "url": "https://www.kaigokensaku.mhlw.go.jp/02/index.php?action_kouhyou_detail_004_kani=true&JigyosyoCd=0260290192-00&ServiceCd=130&Type=search", "url2": null }, "geometry": { "type": "Point", "coordinates": [ 140.465273710285828, 40.576125461414051 ] } },
{ "type": "Feature", "properties": { "内容": "有限会社　ケアサポートかがやき【訪問看護】青森県弘前市大字野田一丁目４番地１６", "url": "https://www.kaigokensaku.mhlw.go.jp/02/index.php?action_kouhyou_detail_004_kani=true&JigyosyoCd=0260290242-00&ServiceCd=130&Type=search", "url2": null }, "geometry": { "type": "Point", "coordinates": [ 140.480887700000039, 40.607885400000015 ] } },
{ "type": "Feature", "properties": { "内容": "ひいらぎ訪問看護ステーション【訪問看護】弘前市大字南大町一丁目11番地3", "url": "https://www.kaigokensaku.mhlw.go.jp/02/index.php?action_kouhyou_detail_004_kani=true&JigyosyoCd=0260290267-00&ServiceCd=130&Type=search", "url2": null }, "geometry": { "type": "Point", "coordinates": [ 140.486296700000025, 40.5912678 ] } },
{ "type": "Feature", "properties": { "内容": "訪問看護ステーション高舘山【訪問看護】青森県弘前市大字五代字沼田13-5", "url": "https://www.kaigokensaku.mhlw.go.jp/02/index.php?action_kouhyou_detail_004_kani=true&JigyosyoCd=0260290275-00&ServiceCd=130&Type=search", "url2": "http://zenseikai.com/" }, "geometry": { "type": "Point", "coordinates": [ 140.408158899999989, 40.6127545 ] } },
{ "type": "Feature", "properties": { "内容": "訪問看護事業所　共【訪問看護】青森県弘前市大字清原２丁目10-20", "url": "https://www.kaigokensaku.mhlw.go.jp/02/index.php?action_kouhyou_detail_004_kani=true&JigyosyoCd=0260290291-00&ServiceCd=130&Type=search", "url2": "tomosugou@gmail.coⅿ" }, "geometry": { "type": "Point", "coordinates": [ 140.486452900000018, 40.5789939 ] } },
{ "type": "Feature", "properties": { "内容": "石川訪問看護ステーションやすらぎ【訪問看護】青森県弘前市大字石川字大仏下２５－１", "url": "https://www.kaigokensaku.mhlw.go.jp/02/index.php?action_kouhyou_detail_004_kani=true&JigyosyoCd=0260290341-00&ServiceCd=130&Type=search", "url2": null }, "geometry": { "type": "Point", "coordinates": [ 140.5425649, 40.551732800000011 ] } },
{ "type": "Feature", "properties": { "内容": "訪問看護ステーションひなた【訪問看護】青森県弘前市宮川3丁目17－13", "url": "https://www.kaigokensaku.mhlw.go.jp/02/index.php?action_kouhyou_detail_004_kani=true&JigyosyoCd=0260290366-00&ServiceCd=130&Type=search", "url2": "http://www.jhd.ne.jp/" }, "geometry": { "type": "Point", "coordinates": [ 140.485879923448209, 40.614262711449086 ] } },
{ "type": "Feature", "properties": { "内容": "ビーンズ訪問看護ステーション【訪問看護】高田三丁目1-10", "url": "https://www.kaigokensaku.mhlw.go.jp/02/index.php?action_kouhyou_detail_004_kani=true&JigyosyoCd=0260290374-00&ServiceCd=130&Type=search", "url2": "http://hirosaki.rehabilitation.pro/" }, "geometry": { "type": "Point", "coordinates": [ 140.50723830000004, 40.597404 ] } },
{ "type": "Feature", "properties": { "内容": "三笠訪問看護ステーション【訪問看護】青森県弘前市堀越柳元２９３", "url": "https://www.kaigokensaku.mhlw.go.jp/02/index.php?action_kouhyou_detail_004_kani=true&JigyosyoCd=0260290416-00&ServiceCd=130&Type=search", "url2": "http://www.ans.co.jp/sankyo/mikasaen/" }, "geometry": { "type": "Point", "coordinates": [ 140.523168700000042, 40.5662582 ] } },
{ "type": "Feature", "properties": { "内容": "訪問看護ステーションゆとり【訪問看護】青森県弘前市大字高屋字本宮５１９－１住宅型有料老人ホームゆとり", "url": "https://www.kaigokensaku.mhlw.go.jp/02/index.php?action_kouhyou_detail_004_kani=true&JigyosyoCd=0260290424-00&ServiceCd=130&Type=search", "url2": null }, "geometry": { "type": "Point", "coordinates": [ 140.4251339, 40.6187693 ] } },
{ "type": "Feature", "properties": { "内容": "弘前医療福祉大学在宅ケア研究所附属訪問看護リハビリステーションそら【訪問看護】青森県弘前市小比内3丁目18-1", "url": "https://www.kaigokensaku.mhlw.go.jp/02/index.php?action_kouhyou_detail_004_kani=true&JigyosyoCd=0260290432-00&ServiceCd=130&Type=search", "url2": "https://sora.hirosakiuhw.jp" }, "geometry": { "type": "Point", "coordinates": [ 140.5001167, 40.5885785 ] } },
{ "type": "Feature", "properties": { "内容": "訪問看護リハビリステーションかふく【訪問看護】青森県弘前市大字清水三丁目1番地15サービス付高齢者向け住宅シニアハウス三和", "url": "https://www.kaigokensaku.mhlw.go.jp/02/index.php?action_kouhyou_detail_004_kani=true&JigyosyoCd=0260290440-00&ServiceCd=130&Type=search", "url2": "http://baII-hearIt.com" }, "geometry": { "type": "Point", "coordinates": [ 140.45272, 40.5806057 ] } },
{ "type": "Feature", "properties": { "内容": "訪問看護ステーション翡翠【訪問看護】青森県弘前市大字寒沢町16-36DORMYやました103号", "url": "https://www.kaigokensaku.mhlw.go.jp/02/index.php?action_kouhyou_detail_004_kani=true&JigyosyoCd=0260290457-00&ServiceCd=130&Type=search", "url2": null }, "geometry": { "type": "Point", "coordinates": [ 140.4678878, 40.5896766 ] } },
{ "type": "Feature", "properties": { "内容": "医心館訪問看護ステーション弘前【訪問看護】青森県弘前市大字外崎４丁目２－３", "url": "https://www.kaigokensaku.mhlw.go.jp/02/index.php?action_kouhyou_detail_004_kani=true&JigyosyoCd=0260290465-00&ServiceCd=130&Type=search", "url2": null }, "geometry": { "type": "Point", "coordinates": [ 140.4926518, 40.5966162 ] } },
{ "type": "Feature", "properties": { "内容": "ツクイ弘前訪問看護ステーション【訪問看護】青森県弘前市駅前2丁目2－5弘前第一生命ビルディング2階", "url": "https://www.kaigokensaku.mhlw.go.jp/02/index.php?action_kouhyou_detail_004_kani=true&JigyosyoCd=0260290481-00&ServiceCd=130&Type=search", "url2": "tsukui.net" }, "geometry": { "type": "Point", "coordinates": [ 140.4818247, 40.6002606 ] } },
{ "type": "Feature", "properties": { "内容": "株式会社　志心会　訪問看護ステーションえふ【訪問看護】青森県弘前市城東中央1-12-4ワンミリオン中央B号室", "url": "https://www.kaigokensaku.mhlw.go.jp/02/index.php?action_kouhyou_detail_004_kani=true&JigyosyoCd=0260290515-00&ServiceCd=130&Type=search", "url2": "https://houkan-efu.simdif.com" }, "geometry": { "type": "Point", "coordinates": [ 140.487349528836091, 40.599026369759997 ] } },
{ "type": "Feature", "properties": { "内容": "訪問看護ステーションのぞみ【訪問看護】青森県弘前市大字八幡町1丁目2番地2", "url": "https://www.kaigokensaku.mhlw.go.jp/02/index.php?action_kouhyou_detail_004_kani=true&JigyosyoCd=0262290026-00&ServiceCd=130&Type=search", "url2": "http://senchikai.me/" }, "geometry": { "type": "Point", "coordinates": [ 140.479700662032627, 40.615388353906795 ] } },
{ "type": "Feature", "properties": { "内容": "訪問看護ステーション　トナカイハウス【訪問看護】青森県弘前市大字大川字中桜川１８番地１０", "url": "https://www.kaigokensaku.mhlw.go.jp/02/index.php?action_kouhyou_detail_004_kani=true&JigyosyoCd=0260290119-00&ServiceCd=130&Type=search", "url2": "https://www.houtokukai.org/" }, "geometry": { "type": "Point", "coordinates": [ 140.455568166366447, 40.677466607161882 ] } },
{ "type": "Feature", "properties": { "内容": "ハーモニーナースステーション【訪問看護】八戸市類家3丁目4-12", "url": "https://www.kaigokensaku.mhlw.go.jp/02/index.php?action_kouhyou_detail_004_kani=true&JigyosyoCd=0260390430-00&ServiceCd=130&Type=search", "url2": null }, "geometry": { "type": "Point", "coordinates": [ 141.503370422090143, 40.508754392582077 ] } },
{ "type": "Feature", "properties": { "内容": "シルバークリニック【訪問看護】青森県八戸市大字河原木字八太郎山１０－４４４", "url": "https://www.kaigokensaku.mhlw.go.jp/02/index.php?action_kouhyou_detail_004_kani=true&JigyosyoCd=0210316287-00&ServiceCd=130&Type=search", "url2": "http://sg-silver.com/" }, "geometry": { "type": "Point", "coordinates": [ 141.483898504893432, 40.5521198914346 ] } },
{ "type": "Feature", "properties": { "内容": "ねんりん訪問看護ステーション【訪問看護】青森県八戸市小中野一丁目4番52号", "url": "https://www.kaigokensaku.mhlw.go.jp/02/index.php?action_kouhyou_detail_004_kani=true&JigyosyoCd=0260390026-00&ServiceCd=130&Type=search", "url2": "http://www.nanrokukai.com/" }, "geometry": { "type": "Point", "coordinates": [ 141.506358344180256, 40.517124883723405 ] } },
{ "type": "Feature", "properties": { "内容": "リハビリパ－ク訪問看護ステ－ション【訪問看護】青森県八戸市小中野4-1-60", "url": "https://www.kaigokensaku.mhlw.go.jp/02/index.php?action_kouhyou_detail_004_kani=true&JigyosyoCd=0260390067-00&ServiceCd=130&Type=search", "url2": null }, "geometry": { "type": "Point", "coordinates": [ 141.507616393019561, 40.51958210195744 ] } },
{ "type": "Feature", "properties": { "内容": "長者訪問看護ステーション【訪問看護】青森県八戸市大字糠塚字下道7-39", "url": "https://www.kaigokensaku.mhlw.go.jp/02/index.php?action_kouhyou_detail_004_kani=true&JigyosyoCd=0260390075-00&ServiceCd=130&Type=search", "url2": "http://www.choujanomori-naika.com" }, "geometry": { "type": "Point", "coordinates": [ 141.489294041664152, 40.506122117777778 ] } },
{ "type": "Feature", "properties": { "内容": "訪問看護ステーションケアポート【訪問看護】青森県八戸市河原木字北沼22-39", "url": "https://www.kaigokensaku.mhlw.go.jp/02/index.php?action_kouhyou_detail_004_kani=true&JigyosyoCd=0260390083-00&ServiceCd=130&Type=search", "url2": "http://sg-kumiai.or.jp/careport/" }, "geometry": { "type": "Point", "coordinates": [ 141.484859, 40.5523339 ] } },
{ "type": "Feature", "properties": { "内容": "訪問看護・介護ステーション　五福【訪問看護】青森県八戸市大字田面木字赤坂16-3", "url": "https://www.kaigokensaku.mhlw.go.jp/02/index.php?action_kouhyou_detail_004_kani=true&JigyosyoCd=0260390117-00&ServiceCd=130&Type=search", "url2": "http://www.seijin.or.jp/" }, "geometry": { "type": "Point", "coordinates": [ 141.455204363104286, 40.500057147571397 ] } },
{ "type": "Feature", "properties": { "内容": "八戸市医師会訪問看護ステーション【訪問看護】青森県八戸市柏崎六丁目２６－１八戸市医師会交流センター内", "url": "https://www.kaigokensaku.mhlw.go.jp/02/index.php?action_kouhyou_detail_004_kani=true&JigyosyoCd=0260390125-00&ServiceCd=130&Type=search", "url2": "https://houkan.8kouryu.com/" }, "geometry": { "type": "Point", "coordinates": [ 141.506204799999978, 40.5143949 ] } },
{ "type": "Feature", "properties": { "内容": "八戸医療生活協同組合　生協訪問看護ステーション虹【訪問看護】八戸市南類家1丁目13-10", "url": "https://www.kaigokensaku.mhlw.go.jp/02/index.php?action_kouhyou_detail_004_kani=true&JigyosyoCd=0260390141-00&ServiceCd=130&Type=search", "url2": "http://www.hachinohe-iryou.jp" }, "geometry": { "type": "Point", "coordinates": [ 141.503687307758497, 40.503992273465521 ] } },
{ "type": "Feature", "properties": { "内容": "八太郎山の家訪問看護ステーション【訪問看護】青森県八戸市大字河原木字八太郎山3-140八太郎山の家", "url": "https://www.kaigokensaku.mhlw.go.jp/02/index.php?action_kouhyou_detail_004_kani=true&JigyosyoCd=0260390174-00&ServiceCd=130&Type=search", "url2": "http://www.akibakai.com" }, "geometry": { "type": "Point", "coordinates": [ 141.48897820000002, 40.5433795 ] } },
{ "type": "Feature", "properties": { "内容": "訪問看護ステーション　売市訪問看護サービス【訪問看護】青森県八戸市売市１丁目２－２７", "url": "https://www.kaigokensaku.mhlw.go.jp/02/index.php?action_kouhyou_detail_004_kani=true&JigyosyoCd=0260390182-00&ServiceCd=130&Type=search", "url2": null }, "geometry": { "type": "Point", "coordinates": [ 141.4784931, 40.5075939 ] } },
{ "type": "Feature", "properties": { "内容": "訪問看護ステーションえがおみょう【訪問看護】八戸市大字妙字分枝３８番地３", "url": "https://www.kaigokensaku.mhlw.go.jp/02/index.php?action_kouhyou_detail_004_kani=true&JigyosyoCd=0260390224-00&ServiceCd=130&Type=search", "url2": "https://myosuien.jp" }, "geometry": { "type": "Point", "coordinates": [ 141.534030799999982, 40.4857519 ] } },
{ "type": "Feature", "properties": { "内容": "ニチイケアセンター八戸訪問看護ステーション【訪問看護】青森県八戸市根城3丁目4-17", "url": "https://www.kaigokensaku.mhlw.go.jp/02/index.php?action_kouhyou_detail_004_kani=true&JigyosyoCd=0260390240-00&ServiceCd=130&Type=search", "url2": "http://www.nichiigakkan.co.jp" }, "geometry": { "type": "Point", "coordinates": [ 141.475986499999976, 40.5026377 ] } },
{ "type": "Feature", "properties": { "内容": "ビリーブ訪問看護八戸中央【訪問看護】類家５丁目27-1", "url": "https://www.kaigokensaku.mhlw.go.jp/02/index.php?action_kouhyou_detail_004_kani=true&JigyosyoCd=0260390281-00&ServiceCd=130&Type=search", "url2": "http://www.believecare.jp/visit_nurse.html" }, "geometry": { "type": "Point", "coordinates": [ 141.510488382417265, 40.505916230710753 ] } },
{ "type": "Feature", "properties": { "内容": "訪問看護ステーションやわた【訪問看護】青森県八戸市大字八幡字下樋田1番地４", "url": "https://www.kaigokensaku.mhlw.go.jp/02/index.php?action_kouhyou_detail_004_kani=true&JigyosyoCd=0260390299-00&ServiceCd=130&Type=search", "url2": "http://medicalfrontier.or.jp/" }, "geometry": { "type": "Point", "coordinates": [ 141.437009799999942, 40.4952875 ] } },
{ "type": "Feature", "properties": { "内容": "訪問看護ステーション　愛和の里リーベ【訪問看護】青森県八戸市大久保下長根20-5", "url": "https://www.kaigokensaku.mhlw.go.jp/02/index.php?action_kouhyou_detail_004_kani=true&JigyosyoCd=0260390315-00&ServiceCd=130&Type=search", "url2": "https://aiwanosato.com/" }, "geometry": { "type": "Point", "coordinates": [ 141.551890945921969, 40.513818689332254 ] } },
{ "type": "Feature", "properties": { "内容": "訪問看護ステーションふくろう【訪問看護】青森県八戸市江陽1丁目3番16号", "url": "https://www.kaigokensaku.mhlw.go.jp/02/index.php?action_kouhyou_detail_004_kani=true&JigyosyoCd=0260390349-00&ServiceCd=130&Type=search", "url2": "http://www.care-owl.com/" }, "geometry": { "type": "Point", "coordinates": [ 141.501067641833515, 40.51948190473685 ] } },
{ "type": "Feature", "properties": { "内容": "訪問看護ステーションひだまり家【訪問看護】青森県八戸市新井田字平ノ前７－１", "url": "https://www.kaigokensaku.mhlw.go.jp/02/index.php?action_kouhyou_detail_004_kani=true&JigyosyoCd=0260390364-00&ServiceCd=130&Type=search", "url2": null }, "geometry": { "type": "Point", "coordinates": [ 141.531140630763844, 40.509008326022702 ] } },
{ "type": "Feature", "properties": { "内容": "しろがね訪問看護ステーション【訪問看護】青森県八戸市大字白銀町字堀ノ内6番5", "url": "https://www.kaigokensaku.mhlw.go.jp/02/index.php?action_kouhyou_detail_004_kani=true&JigyosyoCd=0260390380-00&ServiceCd=130&Type=search", "url2": null }, "geometry": { "type": "Point", "coordinates": [ 141.543475899999976, 40.5184619 ] } },
{ "type": "Feature", "properties": { "内容": "訪問看護ステーションアットティー【訪問看護】尻内町鴨ヶ池138-2peer小夏D棟", "url": "https://www.kaigokensaku.mhlw.go.jp/02/index.php?action_kouhyou_detail_004_kani=true&JigyosyoCd=0260390398-00&ServiceCd=130&Type=search", "url2": "http;//at-t.co.jp" }, "geometry": { "type": "Point", "coordinates": [ 141.431949076234474, 40.513348057591458 ] } },
{ "type": "Feature", "properties": { "内容": "あい楽訪問看護リハステーション【訪問看護】青森県八戸市大字新井田字石動木平１－１１", "url": "https://www.kaigokensaku.mhlw.go.jp/02/index.php?action_kouhyou_detail_004_kani=true&JigyosyoCd=0260390471-00&ServiceCd=130&Type=search", "url2": null }, "geometry": { "type": "Point", "coordinates": [ 141.525347300000021, 40.5022629 ] } },
{ "type": "Feature", "properties": { "内容": "あいケア訪問看護ステーション【訪問看護】青森県八戸市南類家1丁目3-8", "url": "https://www.kaigokensaku.mhlw.go.jp/02/index.php?action_kouhyou_detail_004_kani=true&JigyosyoCd=0260390497-00&ServiceCd=130&Type=search", "url2": null }, "geometry": { "type": "Point", "coordinates": [ 141.505480641799238, 40.502994107062086 ] } },
{ "type": "Feature", "properties": { "内容": "医心館訪問看護ステーション八戸【訪問看護】青森県八戸市田向五丁目12番1号", "url": "https://www.kaigokensaku.mhlw.go.jp/02/index.php?action_kouhyou_detail_004_kani=true&JigyosyoCd=0260390505-00&ServiceCd=130&Type=search", "url2": null }, "geometry": { "type": "Point", "coordinates": [ 141.5142277, 40.4888347 ] } },
{ "type": "Feature", "properties": { "内容": "訪問看護ステーション結【訪問看護】青森県八戸市東白山台３丁目20-5", "url": "https://www.kaigokensaku.mhlw.go.jp/02/index.php?action_kouhyou_detail_004_kani=true&JigyosyoCd=0260390539-00&ServiceCd=130&Type=search", "url2": "http://www.shunkoukai.or.jp" }, "geometry": { "type": "Point", "coordinates": [ 141.4622608, 40.4822512 ] } },
{ "type": "Feature", "properties": { "内容": "訪問看護ステーションわすれな【訪問看護】青森県八戸市根城3丁目14‐20シャルマンＣ５", "url": "https://www.kaigokensaku.mhlw.go.jp/02/index.php?action_kouhyou_detail_004_kani=true&JigyosyoCd=0260390547-00&ServiceCd=130&Type=search", "url2": null }, "geometry": { "type": "Point", "coordinates": [ 141.475092499999988, 40.5054613 ] } },
{ "type": "Feature", "properties": { "内容": "訪問看護ステーション蘭【訪問看護】青森県八戸市北白山台5丁目2-5", "url": "https://www.kaigokensaku.mhlw.go.jp/02/index.php?action_kouhyou_detail_004_kani=true&JigyosyoCd=0260390554-00&ServiceCd=130&Type=search", "url2": "https://kourin-ran.com" }, "geometry": { "type": "Point", "coordinates": [ 141.463594312880161, 40.485345939760521 ] } },
{ "type": "Feature", "properties": { "内容": "ナーシング　ケア　しずく【訪問看護】青森県八戸市根城１丁目３６番９号", "url": "https://www.kaigokensaku.mhlw.go.jp/02/index.php?action_kouhyou_detail_004_kani=true&JigyosyoCd=0260390562-00&ServiceCd=130&Type=search", "url2": "https://nursing-sizuku.com/" }, "geometry": { "type": "Point", "coordinates": [ 141.4789697, 40.5029505 ] } },
{ "type": "Feature", "properties": { "内容": "岸原病院【訪問看護】青森県八戸市柏崎六丁目２９－６", "url": "https://www.kaigokensaku.mhlw.go.jp/02/index.php?action_kouhyou_detail_004_kani=true&JigyosyoCd=0210313573-00&ServiceCd=130&Type=search", "url2": null }, "geometry": { "type": "Point", "coordinates": [ 141.506137700000011, 40.5154413 ] } },
{ "type": "Feature", "properties": { "内容": "訪問看護ステーションゆとり【訪問看護】尻内町字表河原31-2", "url": "https://www.kaigokensaku.mhlw.go.jp/02/index.php?action_kouhyou_detail_004_kani=true&JigyosyoCd=0260390257-00&ServiceCd=130&Type=search", "url2": "http://yutori-hachinohe.jimdo.com/" }, "geometry": { "type": "Point", "coordinates": [ 141.440107500000067, 40.5028629 ] } },
{ "type": "Feature", "properties": { "内容": "たものき訪問看護事業所【訪問看護】大字田面木字堤下９－４１０６号", "url": "https://www.kaigokensaku.mhlw.go.jp/02/index.php?action_kouhyou_detail_004_kani=true&JigyosyoCd=0260390331-00&ServiceCd=130&Type=search", "url2": null }, "geometry": { "type": "Point", "coordinates": [ 141.446267499999976, 40.5001844 ] } },
{ "type": "Feature", "properties": { "内容": "あおいそら訪問看護ステーション【訪問看護】八戸市類家５丁目38-11マイ・アネックスA　２号室", "url": "https://www.kaigokensaku.mhlw.go.jp/02/index.php?action_kouhyou_detail_004_kani=true&JigyosyoCd=0260390570-00&ServiceCd=130&Type=search", "url2": "https://aoisora-houkan.studio.site/" }, "geometry": { "type": "Point", "coordinates": [ 141.51329, 40.5031326 ] } },
{ "type": "Feature", "properties": { "内容": "ツクイ八戸訪問看護ステーション【訪問看護】青森県八戸市大字十三日町25番地オオハシヒルズ4階", "url": "https://www.kaigokensaku.mhlw.go.jp/02/index.php?action_kouhyou_detail_004_kani=true&JigyosyoCd=0260390588-00&ServiceCd=130&Type=search", "url2": "https://corp.tsukui.net" }, "geometry": { "type": "Point", "coordinates": [ 141.489386, 40.5085452 ] } },
{ "type": "Feature", "properties": { "内容": "あおい訪問看護ステーション【訪問看護】青森県八戸市城下4丁目9番5号", "url": "https://www.kaigokensaku.mhlw.go.jp/02/index.php?action_kouhyou_detail_004_kani=true&JigyosyoCd=0260390372-00&ServiceCd=130&Type=search", "url2": "https://www.aoihoukan.com/" }, "geometry": { "type": "Point", "coordinates": [ 141.491616318287811, 40.521673772799353 ] } },
{ "type": "Feature", "properties": { "内容": "訪問看護ステーション　ケアパークこうよう【訪問看護】青森県八戸市江陽二丁目１番３２号クローバーズ・ピアこうよう", "url": "https://www.kaigokensaku.mhlw.go.jp/02/index.php?action_kouhyou_detail_004_kani=true&JigyosyoCd=0260390448-00&ServiceCd=130&Type=search", "url2": "https://www.net-pier.org/" }, "geometry": { "type": "Point", "coordinates": [ 141.498894, 40.5192332 ] } },
{ "type": "Feature", "properties": { "内容": "ミライフルホームナースサービス八戸【訪問看護】青森県八戸市南類家二丁目１７番１９号", "url": "https://www.kaigokensaku.mhlw.go.jp/02/index.php?action_kouhyou_detail_004_kani=true&JigyosyoCd=0260390513-00&ServiceCd=130&Type=search", "url2": "http://melife1.com" }, "geometry": { "type": "Point", "coordinates": [ 141.5040941, 40.5014065 ] } },
{ "type": "Feature", "properties": { "内容": "訪問看護ステーション　はるかぜ【訪問看護】青森県八戸市大字尻内町字三条目3番地1", "url": "https://www.kaigokensaku.mhlw.go.jp/02/index.php?action_kouhyou_detail_004_kani=true&JigyosyoCd=0260390455-00&ServiceCd=130&Type=search", "url2": "https://harukaze-houmon.com/" }, "geometry": { "type": "Point", "coordinates": [ 141.432278263754284, 40.512964749771363 ] } },
{ "type": "Feature", "properties": { "内容": "杏の里訪問看護ステーション【訪問看護】青森県八戸市大字大久保字大山３１－２", "url": "https://www.kaigokensaku.mhlw.go.jp/02/index.php?action_kouhyou_detail_004_kani=true&JigyosyoCd=0260390042-00&ServiceCd=130&Type=search", "url2": "info@mihono.jp" }, "geometry": { "type": "Point", "coordinates": [ 141.577784761238036, 40.488586443166547 ] } },
{ "type": "Feature", "properties": { "内容": "訪問看護事業所ラインヒルズ【訪問看護】青森県八戸市新井田木戸場20", "url": "https://www.kaigokensaku.mhlw.go.jp/02/index.php?action_kouhyou_detail_004_kani=true&JigyosyoCd=0260390406-00&ServiceCd=130&Type=search", "url2": null }, "geometry": { "type": "Point", "coordinates": [ 141.527566500000034, 40.5088737 ] } },
{ "type": "Feature", "properties": { "内容": "オードリー　ナースステーション【訪問看護】田面木外久保12-5メゾンサイトウ", "url": "https://www.kaigokensaku.mhlw.go.jp/02/index.php?action_kouhyou_detail_004_kani=true&JigyosyoCd=0260390489-00&ServiceCd=130&Type=search", "url2": "http://audry.jp" }, "geometry": { "type": "Point", "coordinates": [ 141.449184939830843, 40.494517852570048 ] } },
{ "type": "Feature", "properties": { "内容": "ハート訪問看護ステーション【訪問看護】黒石市松原78番地13", "url": "https://www.kaigokensaku.mhlw.go.jp/02/index.php?action_kouhyou_detail_004_kani=true&JigyosyoCd=0260490024-00&ServiceCd=130&Type=search", "url2": null }, "geometry": { "type": "Point", "coordinates": [ 140.6047223, 40.6583993 ] } },
{ "type": "Feature", "properties": { "内容": "訪問看護ステーション　あんずの里【訪問看護】青森県黒石市大字牡丹平字福民西77-1", "url": "https://www.kaigokensaku.mhlw.go.jp/02/index.php?action_kouhyou_detail_004_kani=true&JigyosyoCd=0260490057-00&ServiceCd=130&Type=search", "url2": null }, "geometry": { "type": "Point", "coordinates": [ 140.614128777770929, 40.643724470400016 ] } },
{ "type": "Feature", "properties": { "内容": "訪問看護ステーションはと【訪問看護】青森県黒石市大字浅瀬石字扇田379", "url": "https://www.kaigokensaku.mhlw.go.jp/02/index.php?action_kouhyou_detail_004_kani=true&JigyosyoCd=0260490099-00&ServiceCd=130&Type=search", "url2": null }, "geometry": { "type": "Point", "coordinates": [ 140.6105832, 40.6261843 ] } },
{ "type": "Feature", "properties": { "内容": "訪問看護ステーション結【訪問看護】青森県五所川原市字芭蕉18-4", "url": "https://www.kaigokensaku.mhlw.go.jp/02/index.php?action_kouhyou_detail_004_kani=true&JigyosyoCd=0260590062-00&ServiceCd=130&Type=search", "url2": null }, "geometry": { "type": "Point", "coordinates": [ 140.4359749, 40.8175974 ] } },
{ "type": "Feature", "properties": { "内容": "訪問看護ステーション　マスダ【訪問看護】五所川原市新町41番地", "url": "https://www.kaigokensaku.mhlw.go.jp/02/index.php?action_kouhyou_detail_004_kani=true&JigyosyoCd=0260590013-00&ServiceCd=130&Type=search", "url2": null }, "geometry": { "type": "Point", "coordinates": [ 140.443753600000036, 40.8072994 ] } },
{ "type": "Feature", "properties": { "内容": "訪問看護のざと【訪問看護】青森県五所川原市大字神山字牧原56-1", "url": "https://www.kaigokensaku.mhlw.go.jp/02/index.php?action_kouhyou_detail_004_kani=true&JigyosyoCd=0260590070-00&ServiceCd=130&Type=search", "url2": "http://www.nh-nozato.jp/1.html" }, "geometry": { "type": "Point", "coordinates": [ 140.516412599999967, 40.7847451 ] } },
{ "type": "Feature", "properties": { "内容": "訪問看護ステーション　ハルニレ【訪問看護】青森県五所川原市大字水野尾字懸樋218-1", "url": "https://www.kaigokensaku.mhlw.go.jp/02/index.php?action_kouhyou_detail_004_kani=true&JigyosyoCd=0260590088-00&ServiceCd=130&Type=search", "url2": "http://www.takusinnkai.or.jp" }, "geometry": { "type": "Point", "coordinates": [ 140.481571, 40.790294 ] } },
{ "type": "Feature", "properties": { "内容": "訪問看護ステーションいしずえ五所川原【訪問看護】青森県五所川原市栄町34-6", "url": "https://www.kaigokensaku.mhlw.go.jp/02/index.php?action_kouhyou_detail_004_kani=true&JigyosyoCd=0260590104-00&ServiceCd=130&Type=search", "url2": "https://ishizue-goshogawara.jp" }, "geometry": { "type": "Point", "coordinates": [ 140.4455683, 40.79921 ] } },
{ "type": "Feature", "properties": { "内容": "訪問看護ステーション　みちのく【訪問看護】青森県十和田市三本木字里ノ沢148-5有料老人ホームロイヤルヴィラみちのく内", "url": "https://www.kaigokensaku.mhlw.go.jp/02/index.php?action_kouhyou_detail_004_kani=true&JigyosyoCd=0260690045-00&ServiceCd=130&Type=search", "url2": "http://www.takamatsu-hp.jp/" }, "geometry": { "type": "Point", "coordinates": [ 141.246092693750342, 40.624578167609968 ] } },
{ "type": "Feature", "properties": { "内容": "訪問看護ステーションちくば【訪問看護】青森県十和田市東三番町10番55-6号", "url": "https://www.kaigokensaku.mhlw.go.jp/02/index.php?action_kouhyou_detail_004_kani=true&JigyosyoCd=0260690060-00&ServiceCd=130&Type=search", "url2": null }, "geometry": { "type": "Point", "coordinates": [ 141.221342880005295, 40.612656106921072 ] } },
{ "type": "Feature", "properties": { "内容": "訪問看護ステーションえがお【訪問看護】青森県十和田市穂並町6-27", "url": "https://www.kaigokensaku.mhlw.go.jp/02/index.php?action_kouhyou_detail_004_kani=true&JigyosyoCd=0260690094-00&ServiceCd=130&Type=search", "url2": "https://www.sg-heart.or.jp/" }, "geometry": { "type": "Point", "coordinates": [ 141.220878881363888, 40.606019662598371 ] } },
{ "type": "Feature", "properties": { "内容": "訪問看護ステーション　ふたば【訪問看護】青森県十和田市東三番町6番33号", "url": "https://www.kaigokensaku.mhlw.go.jp/02/index.php?action_kouhyou_detail_004_kani=true&JigyosyoCd=0260690102-00&ServiceCd=130&Type=search", "url2": null }, "geometry": { "type": "Point", "coordinates": [ 141.219304, 40.6115992 ] } },
{ "type": "Feature", "properties": { "内容": "訪問看護ステーションどんぐり村【訪問看護】青森県十和田市大字三本木字一本木沢93-7", "url": "https://www.kaigokensaku.mhlw.go.jp/02/index.php?action_kouhyou_detail_004_kani=true&JigyosyoCd=0260690128-00&ServiceCd=130&Type=search", "url2": "http：//ikigai-towada.net" }, "geometry": { "type": "Point", "coordinates": [ 141.230572200000012, 40.6377957 ] } },
{ "type": "Feature", "properties": { "内容": "みどりの風訪問看護ステーション【訪問看護】青森県十和田市西三番町２２－３２", "url": "https://www.kaigokensaku.mhlw.go.jp/02/index.php?action_kouhyou_detail_004_kani=true&JigyosyoCd=0260690136-00&ServiceCd=130&Type=search", "url2": "https://midori-mori.jimdo.com" }, "geometry": { "type": "Point", "coordinates": [ 141.209735518832417, 40.610103845200406 ] } },
{ "type": "Feature", "properties": { "内容": "訪問看護ステーションTsugu【訪問看護】青森県十和田市大字三本木字西小稲189番地6", "url": "https://www.kaigokensaku.mhlw.go.jp/02/index.php?action_kouhyou_detail_004_kani=true&JigyosyoCd=0260690144-00&ServiceCd=130&Type=search", "url2": null }, "geometry": { "type": "Point", "coordinates": [ 141.206761653243603, 40.597673248492974 ] } },
{ "type": "Feature", "properties": { "内容": "訪問看護ステーションえいと【訪問看護】青森県三沢市松園町３丁目6-16中野プラザ206", "url": "https://www.kaigokensaku.mhlw.go.jp/02/index.php?action_kouhyou_detail_004_kani=true&JigyosyoCd=0260790118-00&ServiceCd=130&Type=search", "url2": null }, "geometry": { "type": "Point", "coordinates": [ 141.364780200000013, 40.6766221 ] } },
{ "type": "Feature", "properties": { "内容": "訪問看護ステーションケアポートみさわ【訪問看護】青森県三沢市三沢字園沢219-104", "url": "https://www.kaigokensaku.mhlw.go.jp/02/index.php?action_kouhyou_detail_004_kani=true&JigyosyoCd=0260790043-00&ServiceCd=130&Type=search", "url2": "http://www.sg-silver.or.jp/careport/" }, "geometry": { "type": "Point", "coordinates": [ 141.404206599999952, 40.6776046 ] } },
{ "type": "Feature", "properties": { "内容": "のぞみ訪問看護ステーション【訪問看護】青森県三沢市中央町4丁目6-13", "url": "https://www.kaigokensaku.mhlw.go.jp/02/index.php?action_kouhyou_detail_004_kani=true&JigyosyoCd=0260790076-00&ServiceCd=130&Type=search", "url2": "https://syafuku-nozomi.jimdo.com/" }, "geometry": { "type": "Point", "coordinates": [ 141.36248546817626, 40.678583745864842 ] } },
{ "type": "Feature", "properties": { "内容": "ハッピー訪問看護ステーション【訪問看護】青森県三沢市字古間木山１４１－１８４", "url": "https://www.kaigokensaku.mhlw.go.jp/02/index.php?action_kouhyou_detail_004_kani=true&JigyosyoCd=0260790084-00&ServiceCd=130&Type=search", "url2": null }, "geometry": { "type": "Point", "coordinates": [ 141.359980343794319, 40.671113291932627 ] } },
{ "type": "Feature", "properties": { "内容": "ニチイケアセンター三沢訪問看護ステーション【訪問看護】青森県三沢市大町２丁目８－３", "url": "https://www.kaigokensaku.mhlw.go.jp/02/index.php?action_kouhyou_detail_004_kani=true&JigyosyoCd=0260790092-00&ServiceCd=130&Type=search", "url2": null }, "geometry": { "type": "Point", "coordinates": [ 141.3624853, 40.6780284 ] } },
{ "type": "Feature", "properties": { "内容": "かすがだい訪問看護ステーション【訪問看護】三沢市春日台2-152-414春日台介護センター　事務所", "url": "https://www.kaigokensaku.mhlw.go.jp/02/index.php?action_kouhyou_detail_004_kani=true&JigyosyoCd=0260790100-00&ServiceCd=130&Type=search", "url2": null }, "geometry": { "type": "Point", "coordinates": [ 141.346234900000013, 40.6698551 ] } },
{ "type": "Feature", "properties": { "内容": "三沢訪問看護ステーション【訪問看護】青森県三沢市栄町三丁目１２５－１栄町コラボケアセンター", "url": "https://www.kaigokensaku.mhlw.go.jp/02/index.php?action_kouhyou_detail_004_kani=true&JigyosyoCd=0260790001-00&ServiceCd=130&Type=search", "url2": "http://www.rakuseikai.or.jp/" }, "geometry": { "type": "Point", "coordinates": [ 141.361213600000042, 40.6707513 ] } },
{ "type": "Feature", "properties": { "内容": "ひばり訪問看護ステーション【訪問看護】青森県三沢市大字三沢字南山60番地2号", "url": "https://www.kaigokensaku.mhlw.go.jp/02/index.php?action_kouhyou_detail_004_kani=true&JigyosyoCd=0260790035-00&ServiceCd=130&Type=search", "url2": "http://www.joukdkoukai.or.jp/" }, "geometry": { "type": "Point", "coordinates": [ 141.390776389135794, 40.683862141721768 ] } },
{ "type": "Feature", "properties": { "内容": "みちのく訪問看護ステーション【訪問看護】青森県むつ市十二林１７番１号", "url": "https://www.kaigokensaku.mhlw.go.jp/02/index.php?action_kouhyou_detail_004_kani=true&JigyosyoCd=0260890009-00&ServiceCd=130&Type=search", "url2": "http://michinokuso.or.jp" }, "geometry": { "type": "Point", "coordinates": [ 141.185326543377641, 41.29877431694257 ] } },
{ "type": "Feature", "properties": { "内容": "公済会訪問看護ステーションやまびこ【訪問看護】青森県むつ市小川町一丁目１番５号", "url": "https://www.kaigokensaku.mhlw.go.jp/02/index.php?action_kouhyou_detail_004_kani=true&JigyosyoCd=0260890017-00&ServiceCd=130&Type=search", "url2": "https://cjp-kousaikai.or.jp/" }, "geometry": { "type": "Point", "coordinates": [ 141.201146599999987, 41.29276 ] } },
{ "type": "Feature", "properties": { "内容": "訪問看護ステーション　むつ【訪問看護】青森県むつ市緑町16番18号ヴィヴィエンダＡ棟事務所", "url": "https://www.kaigokensaku.mhlw.go.jp/02/index.php?action_kouhyou_detail_004_kani=true&JigyosyoCd=0260890033-00&ServiceCd=130&Type=search", "url2": "http://kango-mutsu.com" }, "geometry": { "type": "Point", "coordinates": [ 141.196613263229466, 41.288362613212762 ] } },
{ "type": "Feature", "properties": { "内容": "バンドーウエルフェアグループ株式会社　訪問看護事業部　むつ【訪問看護】青森kwんむつ市新町32-15", "url": "https://www.kaigokensaku.mhlw.go.jp/02/index.php?action_kouhyou_detail_004_kani=true&JigyosyoCd=0260890041-00&ServiceCd=130&Type=search", "url2": "http://www.bwfg.co.jp/" }, "geometry": { "type": "Point", "coordinates": [ 141.213845, 41.2893419 ] } },
{ "type": "Feature", "properties": { "内容": "えむナースステーション【訪問看護】青森県むつ市小川町一丁目1番12号", "url": "https://www.kaigokensaku.mhlw.go.jp/02/index.php?action_kouhyou_detail_004_kani=true&JigyosyoCd=0260890058-00&ServiceCd=130&Type=search", "url2": null }, "geometry": { "type": "Point", "coordinates": [ 141.200315100000012, 41.2930439 ] } },
{ "type": "Feature", "properties": { "内容": "合同会社訪問看護ステーションにじの樹【訪問看護】青森県つがる市木造赤根３－１６メゾンドアカネ101号", "url": "https://www.kaigokensaku.mhlw.go.jp/02/index.php?action_kouhyou_detail_004_kani=true&JigyosyoCd=0260990031-00&ServiceCd=130&Type=search", "url2": null }, "geometry": { "type": "Point", "coordinates": [ 140.3985961, 40.810216600000039 ] } },
{ "type": "Feature", "properties": { "内容": "ほほえみナースステーション【訪問看護】青森県平川市館山前田80番地5", "url": "https://www.kaigokensaku.mhlw.go.jp/02/index.php?action_kouhyou_detail_004_kani=true&JigyosyoCd=0261090047-00&ServiceCd=130&Type=search", "url2": "https://hohoemi-aomori.com/" }, "geometry": { "type": "Point", "coordinates": [ 140.536642, 40.5952172 ] } },
{ "type": "Feature", "properties": { "内容": "平内町国民健康保険平内中央病院【訪問看護】青森県東津軽郡平内町大字小湊字外ノ沢１－１", "url": "https://www.kaigokensaku.mhlw.go.jp/02/index.php?action_kouhyou_detail_004_kani=true&JigyosyoCd=0212010748-00&ServiceCd=130&Type=search", "url2": "https://www.hiranai-chp.jp/" }, "geometry": { "type": "Point", "coordinates": [ 140.946998898147569, 40.919796472658817 ] } },
{ "type": "Feature", "properties": { "内容": "TOWAナースステーション【訪問看護】青森県東津軽郡平内町大字小湊字愛宕92番地1", "url": "https://www.kaigokensaku.mhlw.go.jp/02/index.php?action_kouhyou_detail_004_kani=true&JigyosyoCd=0262090020-00&ServiceCd=130&Type=search", "url2": "https://towakosan-towahome.com/" }, "geometry": { "type": "Point", "coordinates": [ 140.9504313, 40.92271 ] } },
{ "type": "Feature", "properties": { "内容": "あじがさわ訪問看護ステーションしあわせ【訪問看護】青森県西津軽郡鰺ヶ沢町大字南浮田町字金沢街道ノ沢55-9", "url": "https://www.kaigokensaku.mhlw.go.jp/02/index.php?action_kouhyou_detail_004_kani=true&JigyosyoCd=0262190010-00&ServiceCd=130&Type=search", "url2": null }, "geometry": { "type": "Point", "coordinates": [ 140.2427573, 40.7762307 ] } },
{ "type": "Feature", "properties": { "内容": "深浦町訪問看護ステーション【訪問看護】青森県西津軽郡深浦町大字広戸字家野上１０４－１深浦町保健センター", "url": "https://www.kaigokensaku.mhlw.go.jp/02/index.php?action_kouhyou_detail_004_kani=true&JigyosyoCd=0262190002-00&ServiceCd=130&Type=search", "url2": "http://www.town.fukaura.lg.jp/" }, "geometry": { "type": "Point", "coordinates": [ 139.939329751250597, 40.660616160904496 ] } },
{ "type": "Feature", "properties": { "内容": "ときわ会訪問看護ステーション【訪問看護】青森県南津軽郡藤崎町大字榊字亀田2-1介護センター2F", "url": "https://www.kaigokensaku.mhlw.go.jp/02/index.php?action_kouhyou_detail_004_kani=true&JigyosyoCd=0262390040-00&ServiceCd=130&Type=search", "url2": "https://www.tokiwakai.or.jp" }, "geometry": { "type": "Point", "coordinates": [ 140.533080615945721, 40.673641295839033 ] } },
{ "type": "Feature", "properties": { "内容": "大鰐町訪問看護ステーション【訪問看護】青森県南津軽郡大鰐町大字蔵館字川原田４０番地４町立大鰐診療所内", "url": "https://www.kaigokensaku.mhlw.go.jp/02/index.php?action_kouhyou_detail_004_kani=true&JigyosyoCd=0262390107-00&ServiceCd=130&Type=search", "url2": "http://www.town.owani.lg.jp/shinryojo/station/index.html" }, "geometry": { "type": "Point", "coordinates": [ 140.580960299999987, 40.5199307 ] } },
{ "type": "Feature", "properties": { "内容": "訪問看護ステーション　ライラック【訪問看護】青森県北津軽郡板柳町掛落林字前田262-1", "url": "https://www.kaigokensaku.mhlw.go.jp/02/index.php?action_kouhyou_detail_004_kani=true&JigyosyoCd=0262490055-00&ServiceCd=130&Type=search", "url2": "lilac-group.jp" }, "geometry": { "type": "Point", "coordinates": [ 140.441108100000065, 40.7181415 ] } },
{ "type": "Feature", "properties": { "内容": "鶴田町社会福祉協議会　訪問看護ステーション【訪問看護】青森県北津軽郡鶴田町大字鶴田字鷹ノ尾34番地", "url": "https://www.kaigokensaku.mhlw.go.jp/02/index.php?action_kouhyou_detail_004_kani=true&JigyosyoCd=0262490030-00&ServiceCd=130&Type=search", "url2": "http://turuta-shakyo.or.jp/" }, "geometry": { "type": "Point", "coordinates": [ 140.428514960851999, 40.761498566640633 ] } },
{ "type": "Feature", "properties": { "内容": "公立野辺地病院訪問看護ステーション【訪問看護】青森県上北郡野辺地町字鳴沢9番地12", "url": "https://www.kaigokensaku.mhlw.go.jp/02/index.php?action_kouhyou_detail_004_kani=true&JigyosyoCd=0262590060-00&ServiceCd=130&Type=search", "url2": "hosptal-noheji-aomori.jp" }, "geometry": { "type": "Point", "coordinates": [ 141.12875740000004, 40.8644693 ] } },
{ "type": "Feature", "properties": { "内容": "公立七戸病院訪問看護ステーション【訪問看護】青森県上北郡七戸町字影津内98-1", "url": "https://www.kaigokensaku.mhlw.go.jp/02/index.php?action_kouhyou_detail_004_kani=true&JigyosyoCd=0262590102-00&ServiceCd=130&Type=search", "url2": "http://hospital-shichinohe.aomori.jp" }, "geometry": { "type": "Point", "coordinates": [ 141.1583896, 40.698574 ] } },
{ "type": "Feature", "properties": { "内容": "医療法人　瑞翔会　旭日クリニック【訪問看護】青森県上北郡東北町大字上野字南谷地258-1", "url": "https://www.kaigokensaku.mhlw.go.jp/02/index.php?action_kouhyou_detail_004_kani=true&JigyosyoCd=0212511711-00&ServiceCd=130&Type=search", "url2": "https://asahi-clinic.jp/" }, "geometry": { "type": "Point", "coordinates": [ 141.279305300000033, 40.731535 ] } },
{ "type": "Feature", "properties": { "内容": "六ヶ所村地域家庭医療センター【訪問看護】青森県上北郡六ヶ所村尾駮字野附986番地4", "url": "https://www.kaigokensaku.mhlw.go.jp/02/index.php?action_kouhyou_detail_004_kani=true&JigyosyoCd=0212511943-00&ServiceCd=130&Type=search", "url2": "http://rokkasyo.jadecom.or.jp" }, "geometry": { "type": "Point", "coordinates": [ 141.36956330000001, 40.9696039 ] } },
{ "type": "Feature", "properties": { "内容": "訪問看護ステーションケアポートしもだ【訪問看護】青森県上北郡おいらせ町山崎２６０８－５", "url": "https://www.kaigokensaku.mhlw.go.jp/02/index.php?action_kouhyou_detail_004_kani=true&JigyosyoCd=0262590011-00&ServiceCd=130&Type=search", "url2": "www.sg-silver.or.jp/careport" }, "geometry": { "type": "Point", "coordinates": [ 141.4015571, 40.6128664 ] } },
{ "type": "Feature", "properties": { "内容": "訪問看護ステーションエール【訪問看護】青森県上北郡おいらせ町緑ヶ丘6丁目50-2010", "url": "https://www.kaigokensaku.mhlw.go.jp/02/index.php?action_kouhyou_detail_004_kani=true&JigyosyoCd=0262590110-00&ServiceCd=130&Type=search", "url2": "https://vns-yell.com/" }, "geometry": { "type": "Point", "coordinates": [ 141.3692667, 40.6634567 ] } },
{ "type": "Feature", "properties": { "内容": "一部事務組合下北医療センター国民健康保険大間病院【訪問看護】青森県下北郡大間町大字大間字大間平20-78", "url": "https://www.kaigokensaku.mhlw.go.jp/02/index.php?action_kouhyou_detail_004_kani=true&JigyosyoCd=0212610919-00&ServiceCd=130&Type=search", "url2": "http://www.shimokita-mc.jp/oma/index.html" }, "geometry": { "type": "Point", "coordinates": [ 140.92738410000004, 41.5263569 ] } },
{ "type": "Feature", "properties": { "内容": "一部事務組合下北医療センター東通村診療所【訪問看護】青森県下北郡東通村大字砂子又字里１７番地２", "url": "https://www.kaigokensaku.mhlw.go.jp/02/index.php?action_kouhyou_detail_004_kani=true&JigyosyoCd=0212610943-00&ServiceCd=130&Type=search", "url2": "https://higashidori.jadecom.or.jp" }, "geometry": { "type": "Point", "coordinates": [ 141.337477400000012, 41.2766568 ] } },
{ "type": "Feature", "properties": { "内容": "三戸町国民健康保険三戸中央病院【訪問看護】青森県三戸郡三戸町大字川守田字沖中９番地１", "url": "https://www.kaigokensaku.mhlw.go.jp/02/index.php?action_kouhyou_detail_004_kani=true&JigyosyoCd=0212711170-00&ServiceCd=130&Type=search", "url2": "https://hospital.town.sannohe.aomori.jp/" }, "geometry": { "type": "Point", "coordinates": [ 141.268960099999958, 40.3912219 ] } },
{ "type": "Feature", "properties": { "内容": "ごのへ訪問看護ステーションinさくら荘【訪問看護】青森県三戸郡五戸町大字倉石中市字新山平６４-１", "url": "https://www.kaigokensaku.mhlw.go.jp/02/index.php?action_kouhyou_detail_004_kani=true&JigyosyoCd=0262790066-00&ServiceCd=130&Type=search", "url2": "https://www.sakuraso.or.jp" }, "geometry": { "type": "Point", "coordinates": [ 141.2617199, 40.5112313 ] } },
{ "type": "Feature", "properties": { "内容": "訪問看護リハビリステーション愛あい【訪問看護】青森県三戸郡五戸町字下長下タ９１－８", "url": "https://www.kaigokensaku.mhlw.go.jp/02/index.php?action_kouhyou_detail_004_kani=true&JigyosyoCd=0262790132-00&ServiceCd=130&Type=search", "url2": "http://www.kango-aiai.com/" }, "geometry": { "type": "Point", "coordinates": [ 141.314336651753933, 40.505519372548285 ] } },
{ "type": "Feature", "properties": { "内容": "田子町訪問看護ステーション【訪問看護】青森県三戸郡田子町大字田子字前田２－１", "url": "https://www.kaigokensaku.mhlw.go.jp/02/index.php?action_kouhyou_detail_004_kani=true&JigyosyoCd=0262790082-00&ServiceCd=130&Type=search", "url2": null }, "geometry": { "type": "Point", "coordinates": [ 141.153824699999973, 40.3410614 ] } },
{ "type": "Feature", "properties": { "内容": "はらクリ訪問看護ステーション【訪問看護】青森県三戸郡南部町大字苫米地字白山堂13-2", "url": "https://www.kaigokensaku.mhlw.go.jp/02/index.php?action_kouhyou_detail_004_kani=true&JigyosyoCd=0262790124-00&ServiceCd=130&Type=search", "url2": "hc-houkan@tea.ocn.ne.jp" }, "geometry": { "type": "Point", "coordinates": [ 141.386351800000057, 40.4672236 ] } },
{ "type": "Feature", "properties": { "内容": "訪問看護ステーション想い【訪問看護】青森県三戸郡南部町大字大向字小波田47番地2", "url": "https://www.kaigokensaku.mhlw.go.jp/02/index.php?action_kouhyou_detail_004_kani=true&JigyosyoCd=0262790140-00&ServiceCd=130&Type=search", "url2": "http://hp.kaipoke.biz/ade/" }, "geometry": { "type": "Point", "coordinates": [ 141.274892599999987, 40.3966043 ] } },
{ "type": "Feature", "properties": { "内容": "訪問看護リハビリステーション和み【訪問看護】青森県三戸郡南部町大字剣吉字岩ノ下４番地1", "url": "https://www.kaigokensaku.mhlw.go.jp/02/index.php?action_kouhyou_detail_004_kani=true&JigyosyoCd=0262790173-00&ServiceCd=130&Type=search", "url2": "http://hp.kaipoke.biz/dzc/" }, "geometry": { "type": "Point", "coordinates": [ 141.3434499, 40.4465484 ] } },
{ "type": "Feature", "properties": { "内容": "ナースセンターサイン【訪問看護】青森県三戸郡階上町蒼前西3丁目9-1806セカンドホームサインの家内", "url": "https://www.kaigokensaku.mhlw.go.jp/02/index.php?action_kouhyou_detail_004_kani=true&JigyosyoCd=0262790157-00&ServiceCd=130&Type=search", "url2": "http://sign-aomori.com" }, "geometry": { "type": "Point", "coordinates": [ 141.5710939, 40.4746955 ] } }
]
}
