{
"type": "FeatureCollection",
"name": "geo_02_小学校",
"crs": { "type": "name", "properties": { "name": "urn:ogc:def:crs:EPSG::6668" } },
"features": [
{ "type": "Feature", "properties": { "P29_001": "02202", "P29_002": "B102110000019", "P29_003": "16001", "P29_004": "弘前大学教育学部附属小学校", "P29_005": "青森県弘前市学園町1-1", "P29_006": "1", "P29_007": "1", "P29_008": "00", "P29_009": null }, "geometry": { "type": "Point", "coordinates": [ 140.482213737215119, 40.579238515677353 ] } },
{ "type": "Feature", "properties": { "P29_001": "02201", "P29_002": "B102210000017", "P29_003": "16001", "P29_004": "青森市立造道小学校", "P29_005": "青森県青森市造道3-4-16", "P29_006": "3", "P29_007": "1", "P29_008": "00", "P29_009": null }, "geometry": { "type": "Point", "coordinates": [ 140.78550831399275, 40.829076951201884 ] } },
{ "type": "Feature", "properties": { "P29_001": "02201", "P29_002": "B102210000026", "P29_003": "16001", "P29_004": "青森市立浪打小学校", "P29_005": "青森県青森市浪打1-4-1", "P29_006": "3", "P29_007": "1", "P29_008": "00", "P29_009": null }, "geometry": { "type": "Point", "coordinates": [ 140.777028997073785, 40.8237829959956 ] } },
{ "type": "Feature", "properties": { "P29_001": "02201", "P29_002": "B102210000035", "P29_003": "16001", "P29_004": "青森市立佃小学校", "P29_005": "青森県青森市佃2-6-1", "P29_006": "3", "P29_007": "1", "P29_008": "00", "P29_009": null }, "geometry": { "type": "Point", "coordinates": [ 140.778177267781757, 40.819553375483039 ] } },
{ "type": "Feature", "properties": { "P29_001": "02201", "P29_002": "B102210000044", "P29_003": "16001", "P29_004": "青森市立合浦小学校", "P29_005": "青森県青森市茶屋町32-17", "P29_006": "3", "P29_007": "1", "P29_008": "00", "P29_009": null }, "geometry": { "type": "Point", "coordinates": [ 140.767639472755491, 40.828034701817117 ] } },
{ "type": "Feature", "properties": { "P29_001": "02201", "P29_002": "B102210000053", "P29_003": "16001", "P29_004": "青森市立堤小学校", "P29_005": "青森県青森市松原2-4-4", "P29_006": "3", "P29_007": "1", "P29_008": "00", "P29_009": null }, "geometry": { "type": "Point", "coordinates": [ 140.761513082635673, 40.819076715554381 ] } },
{ "type": "Feature", "properties": { "P29_001": "02201", "P29_002": "B102210000062", "P29_003": "16001", "P29_004": "青森市立莨町小学校", "P29_005": "青森県青森市青柳2-7-25", "P29_006": "3", "P29_007": "1", "P29_008": "00", "P29_009": null }, "geometry": { "type": "Point", "coordinates": [ 140.758453304830908, 40.827378814014793 ] } },
{ "type": "Feature", "properties": { "P29_001": "02201", "P29_002": "B102210000071", "P29_003": "16001", "P29_004": "青森市立橋本小学校", "P29_005": "青森県青森市橋本1-9-17", "P29_006": "3", "P29_007": "1", "P29_008": "00", "P29_009": null }, "geometry": { "type": "Point", "coordinates": [ 140.753296195516782, 40.824598033721344 ] } },
{ "type": "Feature", "properties": { "P29_001": "02201", "P29_002": "B102210000080", "P29_003": "16001", "P29_004": "青森市立浦町小学校", "P29_005": "青森県青森市中央2-17-13", "P29_006": "3", "P29_007": "1", "P29_008": "00", "P29_009": null }, "geometry": { "type": "Point", "coordinates": [ 140.748748754131185, 40.819005797062459 ] } },
{ "type": "Feature", "properties": { "P29_001": "02201", "P29_002": "B102210000099", "P29_003": "16001", "P29_004": "青森市立長島小学校", "P29_005": "青森県青森市長島3-8-1", "P29_006": "3", "P29_007": "1", "P29_008": "00", "P29_009": null }, "geometry": { "type": "Point", "coordinates": [ 140.740529034853353, 40.821649245832852 ] } },
{ "type": "Feature", "properties": { "P29_001": "02201", "P29_002": "B102210000106", "P29_003": "16001", "P29_004": "青森市立古川小学校", "P29_005": "青森県青森市古川3-7-14", "P29_006": "3", "P29_007": "1", "P29_008": "00", "P29_009": null }, "geometry": { "type": "Point", "coordinates": [ 140.73376699196973, 40.82224740998501 ] } },
{ "type": "Feature", "properties": { "P29_001": "02201", "P29_002": "B102210000115", "P29_003": "16001", "P29_004": "青森市立甲田小学校", "P29_005": "青森県青森市金沢1-6-1", "P29_006": "3", "P29_007": "1", "P29_008": "00", "P29_009": null }, "geometry": { "type": "Point", "coordinates": [ 140.733875112298705, 40.814177223054408 ] } },
{ "type": "Feature", "properties": { "P29_001": "02201", "P29_002": "B102210000124", "P29_003": "16001", "P29_004": "青森市立千刈小学校", "P29_005": "青森県青森市千刈1-10-20", "P29_006": "3", "P29_007": "1", "P29_008": "00", "P29_009": null }, "geometry": { "type": "Point", "coordinates": [ 140.727300021493789, 40.823698459660299 ] } },
{ "type": "Feature", "properties": { "P29_001": "02201", "P29_002": "B102210000133", "P29_003": "16001", "P29_004": "青森市立篠田小学校", "P29_005": "青森県青森市篠田3-16-2", "P29_006": "3", "P29_007": "1", "P29_008": "00", "P29_009": null }, "geometry": { "type": "Point", "coordinates": [ 140.719320864086569, 40.828157118271321 ] } },
{ "type": "Feature", "properties": { "P29_001": "02201", "P29_002": "B102210000142", "P29_003": "16001", "P29_004": "青森市立沖館小学校", "P29_005": "青森県青森市沖館5-3-1", "P29_006": "3", "P29_007": "1", "P29_008": "00", "P29_009": null }, "geometry": { "type": "Point", "coordinates": [ 140.721717153437709, 40.83196898458278 ] } },
{ "type": "Feature", "properties": { "P29_001": "02201", "P29_002": "B102210000151", "P29_003": "16001", "P29_004": "青森市立油川小学校", "P29_005": "青森県青森市油川字船岡36", "P29_006": "3", "P29_007": "1", "P29_008": "00", "P29_009": null }, "geometry": { "type": "Point", "coordinates": [ 140.691931644978268, 40.850542231670033 ] } },
{ "type": "Feature", "properties": { "P29_001": "02201", "P29_002": "B102210000160", "P29_003": "16001", "P29_004": "青森市立荒川小学校", "P29_005": "青森県青森市荒川柴田92-5", "P29_006": "3", "P29_007": "1", "P29_008": "00", "P29_009": null }, "geometry": { "type": "Point", "coordinates": [ 140.740879062313866, 40.787935955449434 ] } },
{ "type": "Feature", "properties": { "P29_001": "02201", "P29_002": "B102210000179", "P29_003": "16001", "P29_004": "青森市立高田小学校", "P29_005": "青森県青森市高田字川瀬200-5", "P29_006": "3", "P29_007": "1", "P29_008": "00", "P29_009": null }, "geometry": { "type": "Point", "coordinates": [ 140.724735066950728, 40.770482373568832 ] } },
{ "type": "Feature", "properties": { "P29_001": "02201", "P29_002": "B102210000188", "P29_003": "16001", "P29_004": "青森市立原別小学校", "P29_005": "青森県青森市原別字袖崎8", "P29_006": "3", "P29_007": "1", "P29_008": "00", "P29_009": null }, "geometry": { "type": "Point", "coordinates": [ 140.811372307668137, 40.834810879549238 ] } },
{ "type": "Feature", "properties": { "P29_001": "02201", "P29_002": "B102210000197", "P29_003": "16001", "P29_004": "青森市立浜館小学校", "P29_005": "青森県青森市田屋敷字下り松17", "P29_006": "3", "P29_007": "1", "P29_008": "00", "P29_009": null }, "geometry": { "type": "Point", "coordinates": [ 140.790106450569482, 40.805747334920916 ] } },
{ "type": "Feature", "properties": { "P29_001": "02201", "P29_002": "B102210000204", "P29_003": "16001", "P29_004": "青森市立筒井小学校", "P29_005": "青森県青森市筒井1-1-1", "P29_006": "3", "P29_007": "1", "P29_008": "00", "P29_009": null }, "geometry": { "type": "Point", "coordinates": [ 140.764940461879604, 40.808491028338175 ] } },
{ "type": "Feature", "properties": { "P29_001": "02201", "P29_002": "B102210000213", "P29_003": "16001", "P29_004": "青森市立横内小学校", "P29_005": "青森県青森市野尻字野田60", "P29_006": "3", "P29_007": "1", "P29_008": "00", "P29_009": null }, "geometry": { "type": "Point", "coordinates": [ 140.770700809282374, 40.781689421428098 ] } },
{ "type": "Feature", "properties": { "P29_001": "02201", "P29_002": "B102210000222", "P29_003": "16001", "P29_004": "青森市立新城小学校", "P29_005": "青森県青森市新城字平岡266-14", "P29_006": "3", "P29_007": "1", "P29_008": "00", "P29_009": null }, "geometry": { "type": "Point", "coordinates": [ 140.687475248674247, 40.829121478739793 ] } },
{ "type": "Feature", "properties": { "P29_001": "02201", "P29_002": "B102210000231", "P29_003": "16001", "P29_004": "青森市立野内小学校", "P29_005": "青森県青森市野内字菊川155", "P29_006": "3", "P29_007": "1", "P29_008": "00", "P29_009": null }, "geometry": { "type": "Point", "coordinates": [ 140.818724661448186, 40.849460319564628 ] } },
{ "type": "Feature", "properties": { "P29_001": "02201", "P29_002": "B102210000240", "P29_003": "16001", "P29_004": "青森市立金沢小学校", "P29_005": "青森県青森市金沢4-5-1", "P29_006": "3", "P29_007": "1", "P29_008": "00", "P29_009": null }, "geometry": { "type": "Point", "coordinates": [ 140.729661681735791, 40.809500459746168 ] } },
{ "type": "Feature", "properties": { "P29_001": "02201", "P29_002": "B102210000259", "P29_003": "16001", "P29_004": "青森市立三内小学校", "P29_005": "青森県青森市里見1-9-1", "P29_006": "3", "P29_007": "1", "P29_008": "00", "P29_009": null }, "geometry": { "type": "Point", "coordinates": [ 140.711885952014541, 40.817785115760195 ] } },
{ "type": "Feature", "properties": { "P29_001": "02201", "P29_002": "B102210000268", "P29_003": "16001", "P29_004": "青森市立浜田小学校", "P29_005": "青森県青森市浜田字豊田36-2", "P29_006": "3", "P29_007": "1", "P29_008": "00", "P29_009": null }, "geometry": { "type": "Point", "coordinates": [ 140.756766398884508, 40.805564235769872 ] } },
{ "type": "Feature", "properties": { "P29_001": "02201", "P29_002": "B102210000277", "P29_003": "16001", "P29_004": "青森市立小柳小学校", "P29_005": "青森県青森市小柳4-6-1", "P29_006": "3", "P29_007": "1", "P29_008": "00", "P29_009": null }, "geometry": { "type": "Point", "coordinates": [ 140.794515540498907, 40.819039500551625 ] } },
{ "type": "Feature", "properties": { "P29_001": "02201", "P29_002": "B102210000286", "P29_003": "16001", "P29_004": "青森市立泉川小学校", "P29_005": "青森県青森市浪館字泉川1-1", "P29_006": "3", "P29_007": "1", "P29_008": "00", "P29_009": null }, "geometry": { "type": "Point", "coordinates": [ 140.721511079775382, 40.806838145080157 ] } },
{ "type": "Feature", "properties": { "P29_001": "02201", "P29_002": "B102210000295", "P29_003": "16001", "P29_004": "青森市立浪館小学校", "P29_005": "青森県青森市浪館前田3-23-1", "P29_006": "3", "P29_007": "1", "P29_008": "00", "P29_009": null }, "geometry": { "type": "Point", "coordinates": [ 140.716042503157524, 40.811044890140785 ] } },
{ "type": "Feature", "properties": { "P29_001": "02201", "P29_002": "B102210000302", "P29_003": "16001", "P29_004": "青森市立幸畑小学校", "P29_005": "青森県青森市幸畑字松元50-2", "P29_006": "3", "P29_007": "1", "P29_008": "00", "P29_009": null }, "geometry": { "type": "Point", "coordinates": [ 140.783262398046276, 40.787653846868302 ] } },
{ "type": "Feature", "properties": { "P29_001": "02201", "P29_002": "B102210000311", "P29_003": "16001", "P29_004": "青森市立大野小学校", "P29_005": "青森県青森市東大野1-3-1", "P29_006": "3", "P29_007": "1", "P29_008": "00", "P29_009": null }, "geometry": { "type": "Point", "coordinates": [ 140.742502973175959, 40.804190506649221 ] } },
{ "type": "Feature", "properties": { "P29_001": "02201", "P29_002": "B102210000320", "P29_003": "16001", "P29_004": "青森市立戸山西小学校", "P29_005": "青森県青森市蛍沢3-1-1", "P29_006": "3", "P29_007": "1", "P29_008": "00", "P29_009": null }, "geometry": { "type": "Point", "coordinates": [ 140.800265970901961, 40.802121178529561 ] } },
{ "type": "Feature", "properties": { "P29_001": "02201", "P29_002": "B102210000339", "P29_003": "16001", "P29_004": "青森市立筒井南小学校", "P29_005": "青森県青森市筒井字八ッ橋46-1", "P29_006": "3", "P29_007": "1", "P29_008": "00", "P29_009": null }, "geometry": { "type": "Point", "coordinates": [ 140.769738427391701, 40.797243120808886 ] } },
{ "type": "Feature", "properties": { "P29_001": "02201", "P29_002": "B102210000348", "P29_003": "16001", "P29_004": "青森市立三内西小学校", "P29_005": "青森県青森市三内字丸山86-1", "P29_006": "3", "P29_007": "1", "P29_008": "00", "P29_009": null }, "geometry": { "type": "Point", "coordinates": [ 140.705567448074561, 40.816640564607049 ] } },
{ "type": "Feature", "properties": { "P29_001": "02201", "P29_002": "B102210000357", "P29_003": "16001", "P29_004": "青森市立新城中央小学校", "P29_005": "青森県青森市新城字平岡141-1", "P29_006": "3", "P29_007": "1", "P29_008": "00", "P29_009": null }, "geometry": { "type": "Point", "coordinates": [ 140.674683766681341, 40.825649356553676 ] } },
{ "type": "Feature", "properties": { "P29_001": "02201", "P29_002": "B102210000366", "P29_003": "16001", "P29_004": "青森市立東陽小学校", "P29_005": "青森県青森市宮田字玉水181-1", "P29_006": "3", "P29_007": "1", "P29_008": "00", "P29_009": null }, "geometry": { "type": "Point", "coordinates": [ 140.829028943881355, 40.840712486241252 ] } },
{ "type": "Feature", "properties": { "P29_001": "02201", "P29_002": "B102210000375", "P29_003": "16001", "P29_004": "青森市立北小学校", "P29_005": "青森県青森市清水字浜元181", "P29_006": "3", "P29_007": "1", "P29_008": "00", "P29_009": null }, "geometry": { "type": "Point", "coordinates": [ 140.674336998633777, 40.900606996313719 ] } },
{ "type": "Feature", "properties": { "P29_001": "02202", "P29_002": "B102210000384", "P29_003": "16001", "P29_004": "弘前市立自得小学校", "P29_005": "青森県弘前市鬼沢字菖蒲沢109-4", "P29_006": "3", "P29_007": "1", "P29_008": "00", "P29_009": null }, "geometry": { "type": "Point", "coordinates": [ 140.414030314999508, 40.685747967601898 ] } },
{ "type": "Feature", "properties": { "P29_001": "02202", "P29_002": "B102210000428", "P29_003": "16001", "P29_004": "弘前市立高杉小学校", "P29_005": "青森県弘前市高杉字神原7-1", "P29_006": "3", "P29_007": "1", "P29_008": "00", "P29_009": null }, "geometry": { "type": "Point", "coordinates": [ 140.434347853969939, 40.657771452313803 ] } },
{ "type": "Feature", "properties": { "P29_001": "02202", "P29_002": "B102210000437", "P29_003": "16001", "P29_004": "弘前市立船沢小学校", "P29_005": "青森県弘前市細越字早稲田42", "P29_006": "3", "P29_007": "1", "P29_008": "00", "P29_009": null }, "geometry": { "type": "Point", "coordinates": [ 140.413719551550088, 40.640592827529623 ] } },
{ "type": "Feature", "properties": { "P29_001": "02202", "P29_002": "B102210000446", "P29_003": "16001", "P29_004": "弘前市立三省小学校", "P29_005": "青森県弘前市中崎字野脇142-2", "P29_006": "3", "P29_007": "1", "P29_008": "00", "P29_009": null }, "geometry": { "type": "Point", "coordinates": [ 140.459079680648102, 40.655357384511895 ] } },
{ "type": "Feature", "properties": { "P29_001": "02202", "P29_002": "B102210000455", "P29_003": "16001", "P29_004": "弘前市立致遠小学校", "P29_005": "青森県弘前市浜の町北1-7-1", "P29_006": "3", "P29_007": "1", "P29_008": "00", "P29_009": null }, "geometry": { "type": "Point", "coordinates": [ 140.460919576540306, 40.625363013816866 ] } },
{ "type": "Feature", "properties": { "P29_001": "02202", "P29_002": "B102210000464", "P29_003": "16001", "P29_004": "弘前市立城東小学校", "P29_005": "青森県弘前市大久保字西田105-40", "P29_006": "3", "P29_007": "1", "P29_008": "00", "P29_009": null }, "geometry": { "type": "Point", "coordinates": [ 140.492154893756634, 40.629168660965135 ] } },
{ "type": "Feature", "properties": { "P29_001": "02202", "P29_002": "B102210000473", "P29_003": "16001", "P29_004": "弘前市立福村小学校", "P29_005": "青森県弘前市福村1-1-1", "P29_006": "3", "P29_007": "1", "P29_008": "00", "P29_009": null }, "geometry": { "type": "Point", "coordinates": [ 140.511866383189727, 40.607646033751564 ] } },
{ "type": "Feature", "properties": { "P29_001": "02202", "P29_002": "B102210000482", "P29_003": "16001", "P29_004": "弘前市立豊田小学校", "P29_005": "青森県弘前市豊田1-4-1", "P29_006": "3", "P29_007": "1", "P29_008": "00", "P29_009": null }, "geometry": { "type": "Point", "coordinates": [ 140.498072740941979, 40.593978336815255 ] } },
{ "type": "Feature", "properties": { "P29_001": "02202", "P29_002": "B102210000491", "P29_003": "16001", "P29_004": "弘前市立堀越小学校", "P29_005": "青森県弘前市門外1-3-3", "P29_006": "3", "P29_007": "1", "P29_008": "00", "P29_009": null }, "geometry": { "type": "Point", "coordinates": [ 140.49901273869844, 40.580808419629498 ] } },
{ "type": "Feature", "properties": { "P29_001": "02202", "P29_002": "B102210000507", "P29_003": "16001", "P29_004": "弘前市立文京小学校", "P29_005": "青森県弘前市中野1-1-1", "P29_006": "3", "P29_007": "1", "P29_008": "00", "P29_009": null }, "geometry": { "type": "Point", "coordinates": [ 140.474629404437991, 40.583729821276833 ] } },
{ "type": "Feature", "properties": { "P29_001": "02202", "P29_002": "B102210000516", "P29_003": "16001", "P29_004": "弘前市立千年小学校", "P29_005": "青森県弘前市小栗山字川合119-7", "P29_006": "3", "P29_007": "1", "P29_008": "00", "P29_009": null }, "geometry": { "type": "Point", "coordinates": [ 140.487031610860498, 40.567246921975013 ] } },
{ "type": "Feature", "properties": { "P29_001": "02202", "P29_002": "B102210000525", "P29_003": "16001", "P29_004": "弘前市立大和沢小学校", "P29_005": "青森県弘前市狼森字天王12-1", "P29_006": "3", "P29_007": "1", "P29_008": "00", "P29_009": null }, "geometry": { "type": "Point", "coordinates": [ 140.470986358452393, 40.556967273863954 ] } },
{ "type": "Feature", "properties": { "P29_001": "02202", "P29_002": "B102210000534", "P29_003": "16001", "P29_004": "弘前市立小沢小学校", "P29_005": "青森県弘前市大開2-5-1", "P29_006": "3", "P29_007": "1", "P29_008": "00", "P29_009": null }, "geometry": { "type": "Point", "coordinates": [ 140.444417481803896, 40.573604206642372 ] } },
{ "type": "Feature", "properties": { "P29_001": "02202", "P29_002": "B102210000543", "P29_003": "16001", "P29_004": "弘前市立青柳小学校", "P29_005": "青森県弘前市悪戸字村元7-2", "P29_006": "3", "P29_007": "1", "P29_008": "00", "P29_009": null }, "geometry": { "type": "Point", "coordinates": [ 140.426971204395784, 40.591194267588222 ] } },
{ "type": "Feature", "properties": { "P29_001": "02202", "P29_002": "B102210000552", "P29_003": "16001", "P29_004": "弘前市立東目屋小学校", "P29_005": "青森県弘前市桜庭字清水流39", "P29_006": "3", "P29_007": "1", "P29_008": "00", "P29_009": null }, "geometry": { "type": "Point", "coordinates": [ 140.336187517515157, 40.58920421637724 ] } },
{ "type": "Feature", "properties": { "P29_001": "02202", "P29_002": "B102210000561", "P29_003": "16001", "P29_004": "弘前市立和徳小学校", "P29_005": "青森県弘前市代官町107-3", "P29_006": "3", "P29_007": "1", "P29_008": "00", "P29_009": null }, "geometry": { "type": "Point", "coordinates": [ 140.481126480077194, 40.603870609643408 ] } },
{ "type": "Feature", "properties": { "P29_001": "02202", "P29_002": "B102210000570", "P29_003": "16001", "P29_004": "弘前市立時敏小学校", "P29_005": "青森県弘前市宮園1-5-1", "P29_006": "3", "P29_007": "1", "P29_008": "00", "P29_009": null }, "geometry": { "type": "Point", "coordinates": [ 140.477057931555265, 40.614348641382804 ] } },
{ "type": "Feature", "properties": { "P29_001": "02202", "P29_002": "B102210000589", "P29_003": "16001", "P29_004": "弘前市立城西小学校", "P29_005": "青森県弘前市新町236-1", "P29_006": "3", "P29_007": "1", "P29_008": "00", "P29_009": null }, "geometry": { "type": "Point", "coordinates": [ 140.458694789509991, 40.61037554441139 ] } },
{ "type": "Feature", "properties": { "P29_001": "02202", "P29_002": "B102210000598", "P29_003": "16001", "P29_004": "弘前市立第三大成小学校", "P29_005": "青森県弘前市富田町47", "P29_006": "3", "P29_007": "1", "P29_008": "00", "P29_009": null }, "geometry": { "type": "Point", "coordinates": [ 140.482591774770356, 40.587056181749126 ] } },
{ "type": "Feature", "properties": { "P29_001": "02202", "P29_002": "B102210000605", "P29_003": "16001", "P29_004": "弘前市立朝陽小学校", "P29_005": "青森県弘前市在府町36", "P29_006": "3", "P29_007": "1", "P29_008": "00", "P29_009": null }, "geometry": { "type": "Point", "coordinates": [ 140.460921397499874, 40.598116162726036 ] } },
{ "type": "Feature", "properties": { "P29_001": "02202", "P29_002": "B102210000614", "P29_003": "16001", "P29_004": "弘前市立桔梗野小学校", "P29_005": "青森県弘前市桔梗野2-21", "P29_006": "3", "P29_007": "1", "P29_008": "00", "P29_009": null }, "geometry": { "type": "Point", "coordinates": [ 140.462714473269244, 40.59226253500654 ] } },
{ "type": "Feature", "properties": { "P29_001": "02202", "P29_002": "B102210000623", "P29_003": "16001", "P29_004": "弘前市立石川小学校", "P29_005": "青森県弘前市石川字庄司川添19-1", "P29_006": "3", "P29_007": "1", "P29_008": "00", "P29_009": null }, "geometry": { "type": "Point", "coordinates": [ 140.549478569389464, 40.551469366142562 ] } },
{ "type": "Feature", "properties": { "P29_001": "02202", "P29_002": "B102210000632", "P29_003": "16001", "P29_004": "弘前市立西小学校", "P29_005": "青森県弘前市茜町3-2-1", "P29_006": "3", "P29_007": "1", "P29_008": "00", "P29_009": null }, "geometry": { "type": "Point", "coordinates": [ 140.44484199752219, 40.601020998475114 ] } },
{ "type": "Feature", "properties": { "P29_001": "02202", "P29_002": "B102210000641", "P29_003": "16001", "P29_004": "弘前市立松原小学校", "P29_005": "青森県弘前市松原東2-17", "P29_006": "3", "P29_007": "1", "P29_008": "00", "P29_009": null }, "geometry": { "type": "Point", "coordinates": [ 140.481573993472836, 40.573744623035729 ] } },
{ "type": "Feature", "properties": { "P29_001": "02202", "P29_002": "B102210000650", "P29_003": "16001", "P29_004": "弘前市立東小学校", "P29_005": "青森県弘前市城東中央5-6-1", "P29_006": "3", "P29_007": "1", "P29_008": "00", "P29_009": null }, "geometry": { "type": "Point", "coordinates": [ 140.498861905905954, 40.601514791574147 ] } },
{ "type": "Feature", "properties": { "P29_001": "02202", "P29_002": "B102210000669", "P29_003": "16001", "P29_004": "弘前市立北小学校", "P29_005": "青森県弘前市青山3-15-1", "P29_006": "3", "P29_007": "1", "P29_008": "00", "P29_009": null }, "geometry": { "type": "Point", "coordinates": [ 140.479450657536916, 40.623350998703771 ] } },
{ "type": "Feature", "properties": { "P29_001": "02202", "P29_002": "B102210000678", "P29_003": "16001", "P29_004": "弘前市立大成小学校", "P29_005": "青森県弘前市御幸町13-1", "P29_006": "3", "P29_007": "1", "P29_008": "00", "P29_009": null }, "geometry": { "type": "Point", "coordinates": [ 140.476165917939994, 40.59468882642696 ] } },
{ "type": "Feature", "properties": { "P29_001": "02202", "P29_002": "B102210000687", "P29_003": "16001", "P29_004": "弘前市立裾野小学校", "P29_005": "青森県弘前市十面沢字轡293", "P29_006": "3", "P29_007": "1", "P29_008": "00", "P29_009": null }, "geometry": { "type": "Point", "coordinates": [ 140.356851832622766, 40.717702252733787 ] } },
{ "type": "Feature", "properties": { "P29_001": "02203", "P29_002": "B102210000696", "P29_003": "16001", "P29_004": "八戸市立八戸小学校", "P29_005": "青森県八戸市長根3-24-1", "P29_006": "3", "P29_007": "1", "P29_008": "00", "P29_009": null }, "geometry": { "type": "Point", "coordinates": [ 141.477566361926279, 40.515988462090917 ] } },
{ "type": "Feature", "properties": { "P29_001": "02203", "P29_002": "B102210000703", "P29_003": "16001", "P29_004": "八戸市立吹上小学校", "P29_005": "青森県八戸市吹上1-14-36", "P29_006": "3", "P29_007": "1", "P29_008": "00", "P29_009": null }, "geometry": { "type": "Point", "coordinates": [ 141.497893001503456, 40.503337905251662 ] } },
{ "type": "Feature", "properties": { "P29_001": "02203", "P29_002": "B102210000712", "P29_003": "16001", "P29_004": "八戸市立長者小学校", "P29_005": "青森県八戸市長者3-2-1", "P29_006": "3", "P29_007": "1", "P29_008": "00", "P29_009": null }, "geometry": { "type": "Point", "coordinates": [ 141.484061727951229, 40.501602206454187 ] } },
{ "type": "Feature", "properties": { "P29_001": "02203", "P29_002": "B102210000721", "P29_003": "16001", "P29_004": "八戸市立中居林小学校", "P29_005": "青森県八戸市石手洗字一本木29", "P29_006": "3", "P29_007": "1", "P29_008": "00", "P29_009": null }, "geometry": { "type": "Point", "coordinates": [ 141.496178988486804, 40.48493334280311 ] } },
{ "type": "Feature", "properties": { "P29_001": "02203", "P29_002": "B102210000730", "P29_003": "16001", "P29_004": "八戸市立柏崎小学校", "P29_005": "青森県八戸市青葉2-7-1", "P29_006": "3", "P29_007": "1", "P29_008": "00", "P29_009": null }, "geometry": { "type": "Point", "coordinates": [ 141.510990002212424, 40.512591997182732 ] } },
{ "type": "Feature", "properties": { "P29_001": "02203", "P29_002": "B102210000749", "P29_003": "16001", "P29_004": "八戸市立小中野小学校", "P29_005": "青森県八戸市小中野5-2-17", "P29_006": "3", "P29_007": "1", "P29_008": "00", "P29_009": null }, "geometry": { "type": "Point", "coordinates": [ 141.514106791926764, 40.520516714486078 ] } },
{ "type": "Feature", "properties": { "P29_001": "02203", "P29_002": "B102210000758", "P29_003": "16001", "P29_004": "八戸市立江陽小学校", "P29_005": "青森県八戸市江陽5-9-24", "P29_006": "3", "P29_007": "1", "P29_008": "00", "P29_009": null }, "geometry": { "type": "Point", "coordinates": [ 141.510852384972054, 40.521763012387986 ] } },
{ "type": "Feature", "properties": { "P29_001": "02203", "P29_002": "B102210000767", "P29_003": "16001", "P29_004": "八戸市立湊小学校", "P29_005": "青森県八戸市湊町字中道7-1", "P29_006": "3", "P29_007": "1", "P29_008": "00", "P29_009": null }, "geometry": { "type": "Point", "coordinates": [ 141.529734134658781, 40.521443688412155 ] } },
{ "type": "Feature", "properties": { "P29_001": "02203", "P29_002": "B102210000776", "P29_003": "16001", "P29_004": "八戸市立青潮小学校", "P29_005": "青森県八戸市湊町字鮫ノ口23-4", "P29_006": "3", "P29_007": "1", "P29_008": "00", "P29_009": null }, "geometry": { "type": "Point", "coordinates": [ 141.529024461586374, 40.513753772487988 ] } },
{ "type": "Feature", "properties": { "P29_001": "02203", "P29_002": "B102210000785", "P29_003": "16001", "P29_004": "八戸市立白銀小学校", "P29_005": "青森県八戸市白銀町字大久保道1-1", "P29_006": "3", "P29_007": "1", "P29_008": "00", "P29_009": null }, "geometry": { "type": "Point", "coordinates": [ 141.545663551988071, 40.520326458093187 ] } },
{ "type": "Feature", "properties": { "P29_001": "02203", "P29_002": "B102210000794", "P29_003": "16001", "P29_004": "八戸市立町畑小学校", "P29_005": "青森県八戸市大久保字下町畑29-2", "P29_006": "3", "P29_007": "1", "P29_008": "00", "P29_009": null }, "geometry": { "type": "Point", "coordinates": [ 141.550971379269242, 40.493170300456065 ] } },
{ "type": "Feature", "properties": { "P29_001": "02203", "P29_002": "B102210000801", "P29_003": "16001", "P29_004": "八戸市立鮫小学校", "P29_005": "青森県八戸市鮫町字上手代森19", "P29_006": "3", "P29_007": "1", "P29_008": "00", "P29_009": null }, "geometry": { "type": "Point", "coordinates": [ 141.560965806043754, 40.530021410364796 ] } },
{ "type": "Feature", "properties": { "P29_001": "02203", "P29_002": "B102210000810", "P29_003": "16001", "P29_004": "八戸市立種差小学校", "P29_005": "青森県八戸市鮫町字赤コウ55-59", "P29_006": "3", "P29_007": "1", "P29_008": "00", "P29_009": null }, "geometry": { "type": "Point", "coordinates": [ 141.6034909506742, 40.513296636928033 ] } },
{ "type": "Feature", "properties": { "P29_001": "02203", "P29_002": "B102210000829", "P29_003": "16001", "P29_004": "八戸市立大久喜小学校", "P29_005": "青森県八戸市鮫町字大作平44-29", "P29_006": "3", "P29_007": "1", "P29_008": "00", "P29_009": null }, "geometry": { "type": "Point", "coordinates": [ 141.628891215545366, 40.494090430772452 ] } },
{ "type": "Feature", "properties": { "P29_001": "02203", "P29_002": "B102210000838", "P29_003": "16001", "P29_004": "八戸市立金浜小学校", "P29_005": "青森県八戸市金浜字外ノ久保43-3", "P29_006": "3", "P29_007": "1", "P29_008": "00", "P29_009": null }, "geometry": { "type": "Point", "coordinates": [ 141.619867802857328, 40.477239356200165 ] } },
{ "type": "Feature", "properties": { "P29_001": "02203", "P29_002": "B102210000847", "P29_003": "16001", "P29_004": "八戸市立根城小学校", "P29_005": "青森県八戸市根城4-22-27", "P29_006": "3", "P29_007": "1", "P29_008": "00", "P29_009": null }, "geometry": { "type": "Point", "coordinates": [ 141.473129362926869, 40.507433593224889 ] } },
{ "type": "Feature", "properties": { "P29_001": "02203", "P29_002": "B102210000856", "P29_003": "16001", "P29_004": "八戸市立田面木小学校", "P29_005": "青森県八戸市田面木字山道下タ13-2", "P29_006": "3", "P29_007": "1", "P29_008": "00", "P29_009": null }, "geometry": { "type": "Point", "coordinates": [ 141.447990225857978, 40.497263601618201 ] } },
{ "type": "Feature", "properties": { "P29_001": "02203", "P29_002": "B102210000865", "P29_003": "16001", "P29_004": "八戸市立下長小学校", "P29_005": "青森県八戸市長苗代字太古殿1-1", "P29_006": "3", "P29_007": "1", "P29_008": "00", "P29_009": null }, "geometry": { "type": "Point", "coordinates": [ 141.464936101329016, 40.526999039499081 ] } },
{ "type": "Feature", "properties": { "P29_001": "02203", "P29_002": "B102210000874", "P29_003": "16001", "P29_004": "八戸市立根岸小学校", "P29_005": "青森県八戸市日計5-8-1", "P29_006": "3", "P29_007": "1", "P29_008": "00", "P29_009": null }, "geometry": { "type": "Point", "coordinates": [ 141.485404000798241, 40.542263002075245 ] } },
{ "type": "Feature", "properties": { "P29_001": "02203", "P29_002": "B102210000883", "P29_003": "16001", "P29_004": "八戸市立是川小学校", "P29_005": "青森県八戸市是川4-1", "P29_006": "3", "P29_007": "1", "P29_008": "00", "P29_009": null }, "geometry": { "type": "Point", "coordinates": [ 141.50147578153107, 40.467522058479894 ] } },
{ "type": "Feature", "properties": { "P29_001": "02203", "P29_002": "B102210000892", "P29_003": "16001", "P29_004": "八戸市立三条小学校", "P29_005": "青森県八戸市尻内町字三条目4-4", "P29_006": "3", "P29_007": "1", "P29_008": "00", "P29_009": null }, "geometry": { "type": "Point", "coordinates": [ 141.428979137981258, 40.513062844131866 ] } },
{ "type": "Feature", "properties": { "P29_001": "02203", "P29_002": "B102210000909", "P29_003": "16001", "P29_004": "八戸市立明治小学校", "P29_005": "青森県八戸市八幡字館ノ下12-2", "P29_006": "3", "P29_007": "1", "P29_008": "00", "P29_009": null }, "geometry": { "type": "Point", "coordinates": [ 141.431747970129095, 40.486844215209793 ] } },
{ "type": "Feature", "properties": { "P29_001": "02203", "P29_002": "B102210000918", "P29_003": "16001", "P29_004": "八戸市立桔梗野小学校", "P29_005": "青森県八戸市市川町字尻引前山31-2", "P29_006": "3", "P29_007": "1", "P29_008": "00", "P29_009": null }, "geometry": { "type": "Point", "coordinates": [ 141.447031514091634, 40.559982646984942 ] } },
{ "type": "Feature", "properties": { "P29_001": "02203", "P29_002": "B102210000927", "P29_003": "16001", "P29_004": "八戸市立轟木小学校", "P29_005": "青森県八戸市市川町字和野22-4", "P29_006": "3", "P29_007": "1", "P29_008": "00", "P29_009": null }, "geometry": { "type": "Point", "coordinates": [ 141.432229347749143, 40.576211329082547 ] } },
{ "type": "Feature", "properties": { "P29_001": "02203", "P29_002": "B102210000936", "P29_003": "16001", "P29_004": "八戸市立多賀小学校", "P29_005": "青森県八戸市市川町字古館30-1", "P29_006": "3", "P29_007": "1", "P29_008": "00", "P29_009": null }, "geometry": { "type": "Point", "coordinates": [ 141.461896049532328, 40.584498827116697 ] } },
{ "type": "Feature", "properties": { "P29_001": "02203", "P29_002": "B102210000945", "P29_003": "16001", "P29_004": "八戸市立豊崎小学校", "P29_005": "青森県八戸市豊崎町字下永福寺12-3", "P29_006": "3", "P29_007": "1", "P29_008": "00", "P29_009": null }, "geometry": { "type": "Point", "coordinates": [ 141.382697282113952, 40.514793112310159 ] } },
{ "type": "Feature", "properties": { "P29_001": "02203", "P29_002": "B102210000954", "P29_003": "16001", "P29_004": "八戸市立新井田小学校", "P29_005": "青森県八戸市新井田字館平20", "P29_006": "3", "P29_007": "1", "P29_008": "00", "P29_009": null }, "geometry": { "type": "Point", "coordinates": [ 141.520404578029797, 40.490854304142928 ] } },
{ "type": "Feature", "properties": { "P29_001": "02203", "P29_002": "B102210000963", "P29_003": "16001", "P29_004": "八戸市立旭ヶ丘小学校", "P29_005": "青森県八戸市旭ヶ丘1-1-6", "P29_006": "3", "P29_007": "1", "P29_008": "00", "P29_009": null }, "geometry": { "type": "Point", "coordinates": [ 141.535324519784638, 40.495126468526223 ] } },
{ "type": "Feature", "properties": { "P29_001": "02203", "P29_002": "B102210000972", "P29_003": "16001", "P29_004": "八戸市立多賀台小学校", "P29_005": "青森県八戸市多賀台3-9", "P29_006": "3", "P29_007": "1", "P29_008": "00", "P29_009": null }, "geometry": { "type": "Point", "coordinates": [ 141.442023293339389, 40.5882476800357 ] } },
{ "type": "Feature", "properties": { "P29_001": "02203", "P29_002": "B102210000981", "P29_003": "16001", "P29_004": "八戸市立白鴎小学校", "P29_005": "青森県八戸市白銀町字中平13-3", "P29_006": "3", "P29_007": "1", "P29_008": "00", "P29_009": null }, "geometry": { "type": "Point", "coordinates": [ 141.550160405312312, 40.52102862949242 ] } },
{ "type": "Feature", "properties": { "P29_001": "02203", "P29_002": "B102210000990", "P29_003": "16001", "P29_004": "八戸市立城下小学校", "P29_005": "青森県八戸市城下4-3-42", "P29_006": "3", "P29_007": "1", "P29_008": "00", "P29_009": null }, "geometry": { "type": "Point", "coordinates": [ 141.489733585087265, 40.522234598341036 ] } },
{ "type": "Feature", "properties": { "P29_001": "02203", "P29_002": "B102210001007", "P29_003": "16001", "P29_004": "八戸市立図南小学校", "P29_005": "青森県八戸市糠塚字大開4-1", "P29_006": "3", "P29_007": "1", "P29_008": "00", "P29_009": null }, "geometry": { "type": "Point", "coordinates": [ 141.480180096744306, 40.486526459397226 ] } },
{ "type": "Feature", "properties": { "P29_001": "02203", "P29_002": "B102210001016", "P29_003": "16001", "P29_004": "八戸市立高館小学校", "P29_005": "青森県八戸市河原木字小田56-16", "P29_006": "3", "P29_007": "1", "P29_008": "00", "P29_009": null }, "geometry": { "type": "Point", "coordinates": [ 141.466117630902176, 40.541683446769966 ] } },
{ "type": "Feature", "properties": { "P29_001": "02203", "P29_002": "B102210001025", "P29_003": "16001", "P29_004": "八戸市立江南小学校", "P29_005": "青森県八戸市根城9-22-50", "P29_006": "3", "P29_007": "1", "P29_008": "00", "P29_009": null }, "geometry": { "type": "Point", "coordinates": [ 141.466775520921516, 40.510740378964279 ] } },
{ "type": "Feature", "properties": { "P29_001": "02203", "P29_002": "B102210001034", "P29_003": "16001", "P29_004": "八戸市立城北小学校", "P29_005": "青森県八戸市石堂1-22-6", "P29_006": "3", "P29_007": "1", "P29_008": "00", "P29_009": null }, "geometry": { "type": "Point", "coordinates": [ 141.477256996450677, 40.531056004698705 ] } },
{ "type": "Feature", "properties": { "P29_001": "02203", "P29_002": "B102210001043", "P29_003": "16001", "P29_004": "八戸市立西園小学校", "P29_005": "青森県八戸市尻内町字嶋田24-1", "P29_006": "3", "P29_007": "1", "P29_008": "00", "P29_009": null }, "geometry": { "type": "Point", "coordinates": [ 141.444542722173395, 40.509552724077345 ] } },
{ "type": "Feature", "properties": { "P29_001": "02203", "P29_002": "B102210001052", "P29_003": "16001", "P29_004": "八戸市立白銀南小学校", "P29_005": "青森県八戸市大久保字鷹待場38-2", "P29_006": "3", "P29_007": "1", "P29_008": "00", "P29_009": null }, "geometry": { "type": "Point", "coordinates": [ 141.555702077167439, 40.511924927390034 ] } },
{ "type": "Feature", "properties": { "P29_001": "02203", "P29_002": "B102210001070", "P29_003": "16001", "P29_004": "八戸市立白山台小学校", "P29_005": "青森県八戸市東白山台2-31-1", "P29_006": "3", "P29_007": "1", "P29_008": "00", "P29_009": null }, "geometry": { "type": "Point", "coordinates": [ 141.467666623718259, 40.485094398637898 ] } },
{ "type": "Feature", "properties": { "P29_001": "02203", "P29_002": "B102210001089", "P29_003": "16001", "P29_004": "八戸市立西白山台小学校", "P29_005": "青森県八戸市西白山台4-15-1", "P29_006": "3", "P29_007": "1", "P29_008": "00", "P29_009": null }, "geometry": { "type": "Point", "coordinates": [ 141.454962575731486, 40.47692855096448 ] } },
{ "type": "Feature", "properties": { "P29_001": "02204", "P29_002": "B102210001098", "P29_003": "16001", "P29_004": "黒石市立東英小学校", "P29_005": "青森県黒石市上山形字築館9-1", "P29_006": "3", "P29_007": "1", "P29_008": "00", "P29_009": null }, "geometry": { "type": "Point", "coordinates": [ 140.663491042886335, 40.61082009834643 ] } },
{ "type": "Feature", "properties": { "P29_001": "02204", "P29_002": "B102210001105", "P29_003": "16001", "P29_004": "黒石市立六郷小学校", "P29_005": "青森県黒石市三島宮元380-1", "P29_006": "3", "P29_007": "1", "P29_008": "00", "P29_009": null }, "geometry": { "type": "Point", "coordinates": [ 140.620006034523499, 40.671758794839967 ] } },
{ "type": "Feature", "properties": { "P29_001": "02204", "P29_002": "B102210001114", "P29_003": "16001", "P29_004": "黒石市立黒石小学校", "P29_005": "青森県黒石市株梗木字中渡1-1", "P29_006": "3", "P29_007": "1", "P29_008": "00", "P29_009": null }, "geometry": { "type": "Point", "coordinates": [ 140.590680547170933, 40.654983257132457 ] } },
{ "type": "Feature", "properties": { "P29_001": "02204", "P29_002": "B102210001123", "P29_003": "16001", "P29_004": "黒石市立黒石東小学校", "P29_005": "青森県黒石市春日町70", "P29_006": "3", "P29_007": "1", "P29_008": "00", "P29_009": null }, "geometry": { "type": "Point", "coordinates": [ 140.60505763923021, 40.644939051505133 ] } },
{ "type": "Feature", "properties": { "P29_001": "02205", "P29_002": "B102210001132", "P29_003": "16001", "P29_004": "五所川原市立五所川原小学校", "P29_005": "青森県五所川原市新宮字岡田161", "P29_006": "3", "P29_007": "1", "P29_008": "00", "P29_009": null }, "geometry": { "type": "Point", "coordinates": [ 140.438476377164562, 40.822111329410767 ] } },
{ "type": "Feature", "properties": { "P29_001": "02205", "P29_002": "B102210001141", "P29_003": "16001", "P29_004": "五所川原市立南小学校", "P29_005": "青森県五所川原市字蓮沼2", "P29_006": "3", "P29_007": "1", "P29_008": "00", "P29_009": null }, "geometry": { "type": "Point", "coordinates": [ 140.443445005224731, 40.802111004759581 ] } },
{ "type": "Feature", "properties": { "P29_001": "02205", "P29_002": "B102210001150", "P29_003": "16001", "P29_004": "五所川原市立栄小学校", "P29_005": "青森県五所川原市姥萢字船橋156-2", "P29_006": "3", "P29_007": "1", "P29_008": "00", "P29_009": null }, "geometry": { "type": "Point", "coordinates": [ 140.456858529785649, 40.789713092981465 ] } },
{ "type": "Feature", "properties": { "P29_001": "02205", "P29_002": "B102210001169", "P29_003": "16001", "P29_004": "五所川原市立松島小学校", "P29_005": "青森県五所川原市米田字八ッ橋8", "P29_006": "3", "P29_007": "1", "P29_008": "00", "P29_009": null }, "geometry": { "type": "Point", "coordinates": [ 140.474403590433525, 40.804409182269147 ] } },
{ "type": "Feature", "properties": { "P29_001": "02205", "P29_002": "B102210001178", "P29_003": "16001", "P29_004": "五所川原市立中央小学校", "P29_005": "青森県五所川原市松島町2-94", "P29_006": "3", "P29_007": "1", "P29_008": "00", "P29_009": null }, "geometry": { "type": "Point", "coordinates": [ 140.455934950647844, 40.806273731113734 ] } },
{ "type": "Feature", "properties": { "P29_001": "02205", "P29_002": "B102210001187", "P29_003": "16001", "P29_004": "五所川原市立三輪小学校", "P29_005": "青森県五所川原市七ツ館字虫流6-5", "P29_006": "3", "P29_007": "1", "P29_008": "00", "P29_009": null }, "geometry": { "type": "Point", "coordinates": [ 140.47406544820933, 40.779408133308856 ] } },
{ "type": "Feature", "properties": { "P29_001": "02205", "P29_002": "B102210001196", "P29_003": "16001", "P29_004": "五所川原市立三好小学校", "P29_005": "青森県五所川原市鶴ヶ岡字唐橋25-2", "P29_006": "3", "P29_007": "1", "P29_008": "00", "P29_009": null }, "geometry": { "type": "Point", "coordinates": [ 140.409912243460468, 40.848836322869317 ] } },
{ "type": "Feature", "properties": { "P29_001": "02205", "P29_002": "B102210001203", "P29_003": "16001", "P29_004": "五所川原市立東峰小学校", "P29_005": "青森県五所川原市神山字山越1-26", "P29_006": "3", "P29_007": "1", "P29_008": "00", "P29_009": null }, "geometry": { "type": "Point", "coordinates": [ 140.516850146383007, 40.787940236739075 ] } },
{ "type": "Feature", "properties": { "P29_001": "02205", "P29_002": "B102210001212", "P29_003": "16001", "P29_004": "五所川原市立いずみ小学校", "P29_005": "青森県五所川原市飯詰字石田184", "P29_006": "3", "P29_007": "1", "P29_008": "00", "P29_009": null }, "geometry": { "type": "Point", "coordinates": [ 140.49213581778875, 40.83524071428112 ] } },
{ "type": "Feature", "properties": { "P29_001": "02206", "P29_002": "B102210001221", "P29_003": "16001", "P29_004": "十和田市立三本木小学校", "P29_005": "青森県十和田市東三番町36-1", "P29_006": "3", "P29_007": "1", "P29_008": "00", "P29_009": null }, "geometry": { "type": "Point", "coordinates": [ 141.221595533885449, 40.614209580184529 ] } },
{ "type": "Feature", "properties": { "P29_001": "02206", "P29_002": "B102210001230", "P29_003": "16001", "P29_004": "十和田市立北園小学校", "P29_005": "青森県十和田市西十一番町50-18", "P29_006": "3", "P29_007": "1", "P29_008": "00", "P29_009": null }, "geometry": { "type": "Point", "coordinates": [ 141.19940680792908, 40.614914212303006 ] } },
{ "type": "Feature", "properties": { "P29_001": "02206", "P29_002": "B102210001249", "P29_003": "16001", "P29_004": "十和田市立南小学校", "P29_005": "青森県十和田市西十五番町3-1", "P29_006": "3", "P29_007": "1", "P29_008": "00", "P29_009": null }, "geometry": { "type": "Point", "coordinates": [ 141.213728351346276, 40.602763262725539 ] } },
{ "type": "Feature", "properties": { "P29_001": "02206", "P29_002": "B102210001258", "P29_003": "16001", "P29_004": "十和田市立東小学校", "P29_005": "青森県十和田市一本木沢1-1-1", "P29_006": "3", "P29_007": "1", "P29_008": "00", "P29_009": null }, "geometry": { "type": "Point", "coordinates": [ 141.227851920877441, 40.628761172090371 ] } },
{ "type": "Feature", "properties": { "P29_001": "02206", "P29_002": "B102210001267", "P29_003": "16001", "P29_004": "十和田市立西小学校", "P29_005": "青森県十和田市三本木字西金崎6-2", "P29_006": "3", "P29_007": "1", "P29_008": "00", "P29_009": null }, "geometry": { "type": "Point", "coordinates": [ 141.177663408038114, 40.609545512997357 ] } },
{ "type": "Feature", "properties": { "P29_001": "02206", "P29_002": "B102210001285", "P29_003": "16001", "P29_004": "十和田市立藤坂小学校", "P29_005": "青森県十和田市相坂字小林355-1", "P29_006": "3", "P29_007": "1", "P29_008": "00", "P29_009": null }, "geometry": { "type": "Point", "coordinates": [ 141.238242512089414, 40.594285860223728 ] } },
{ "type": "Feature", "properties": { "P29_001": "02206", "P29_002": "B102210001294", "P29_003": "16001", "P29_004": "十和田市立高清水小学校", "P29_005": "青森県十和田市相坂字高清水900", "P29_006": "3", "P29_007": "1", "P29_008": "00", "P29_009": null }, "geometry": { "type": "Point", "coordinates": [ 141.258087567799492, 40.638024945393667 ] } },
{ "type": "Feature", "properties": { "P29_001": "02206", "P29_002": "B102210001310", "P29_003": "16001", "P29_004": "十和田市立深持小学校", "P29_005": "青森県十和田市深持字林12-3", "P29_006": "3", "P29_007": "1", "P29_008": "00", "P29_009": null }, "geometry": { "type": "Point", "coordinates": [ 141.146230171247055, 40.618529902236048 ] } },
{ "type": "Feature", "properties": { "P29_001": "02206", "P29_002": "B102210001338", "P29_003": "16001", "P29_004": "十和田市立ちとせ小学校", "P29_005": "青森県十和田市元町西6-2-1", "P29_006": "3", "P29_007": "1", "P29_008": "00", "P29_009": null }, "geometry": { "type": "Point", "coordinates": [ 141.198891923720083, 40.625971193483117 ] } },
{ "type": "Feature", "properties": { "P29_001": "02206", "P29_002": "B102210001347", "P29_003": "16001", "P29_004": "十和田市立四和小学校", "P29_005": "青森県十和田市米田字高谷140", "P29_006": "3", "P29_007": "1", "P29_008": "00", "P29_009": null }, "geometry": { "type": "Point", "coordinates": [ 141.234943214962158, 40.5478969852212 ] } },
{ "type": "Feature", "properties": { "P29_001": "02207", "P29_002": "B102210001356", "P29_003": "16001", "P29_004": "三沢市立古間木小学校", "P29_005": "青森県三沢市古間木1-152-139", "P29_006": "3", "P29_007": "1", "P29_008": "00", "P29_009": null }, "geometry": { "type": "Point", "coordinates": [ 141.347063748404963, 40.671779191540693 ] } },
{ "type": "Feature", "properties": { "P29_001": "02207", "P29_002": "B102210001365", "P29_003": "16001", "P29_004": "三沢市立上久保小学校", "P29_005": "青森県三沢市大町1-3-9", "P29_006": "3", "P29_007": "1", "P29_008": "00", "P29_009": null }, "geometry": { "type": "Point", "coordinates": [ 141.358218177046354, 40.678457037790643 ] } },
{ "type": "Feature", "properties": { "P29_001": "02207", "P29_002": "B102210001374", "P29_003": "16001", "P29_004": "三沢市立岡三沢小学校", "P29_005": "青森県三沢市岡三沢3-1-1", "P29_006": "3", "P29_007": "1", "P29_008": "00", "P29_009": null }, "geometry": { "type": "Point", "coordinates": [ 141.373695167721934, 40.687787543569989 ] } },
{ "type": "Feature", "properties": { "P29_001": "02207", "P29_002": "B102210001383", "P29_003": "16001", "P29_004": "三沢市立三沢小学校", "P29_005": "青森県三沢市三沢字園沢93-2", "P29_006": "3", "P29_007": "1", "P29_008": "00", "P29_009": null }, "geometry": { "type": "Point", "coordinates": [ 141.400051723270906, 40.684081928162975 ] } },
{ "type": "Feature", "properties": { "P29_001": "02207", "P29_002": "B102210001392", "P29_003": "16001", "P29_004": "三沢市立三川目小学校", "P29_005": "青森県三沢市鹿中2-145-459", "P29_006": "3", "P29_007": "1", "P29_008": "00", "P29_009": null }, "geometry": { "type": "Point", "coordinates": [ 141.427413498955275, 40.68184370915057 ] } },
{ "type": "Feature", "properties": { "P29_001": "02207", "P29_002": "B102210001409", "P29_003": "16001", "P29_004": "三沢市立木崎野小学校", "P29_005": "青森県三沢市東町4-2", "P29_006": "3", "P29_007": "1", "P29_008": "00", "P29_009": null }, "geometry": { "type": "Point", "coordinates": [ 141.377044577159523, 40.677521941121945 ] } },
{ "type": "Feature", "properties": { "P29_001": "02207", "P29_002": "B102210001418", "P29_003": "16001", "P29_004": "三沢市立おおぞら小学校", "P29_005": "青森県三沢市三沢字庭構1084-33", "P29_006": "3", "P29_007": "1", "P29_008": "00", "P29_009": null }, "geometry": { "type": "Point", "coordinates": [ 141.400073279146227, 40.781204921490598 ] } },
{ "type": "Feature", "properties": { "P29_001": "02208", "P29_002": "B102210001427", "P29_003": "16001", "P29_004": "むつ市立第一田名部小学校", "P29_005": "青森県むつ市柳町2-7-1", "P29_006": "3", "P29_007": "1", "P29_008": "00", "P29_009": null }, "geometry": { "type": "Point", "coordinates": [ 141.212064456971461, 41.300739699839575 ] } },
{ "type": "Feature", "properties": { "P29_001": "02208", "P29_002": "B102210001436", "P29_003": "16001", "P29_004": "むつ市立第二田名部小学校", "P29_005": "青森県むつ市小川町1-18-10", "P29_006": "3", "P29_007": "1", "P29_008": "00", "P29_009": null }, "geometry": { "type": "Point", "coordinates": [ 141.200674646066517, 41.298118077024213 ] } },
{ "type": "Feature", "properties": { "P29_001": "02208", "P29_002": "B102210001445", "P29_003": "16001", "P29_004": "むつ市立第三田名部小学校", "P29_005": "青森県むつ市田名部字赤川ノ内並木14-196", "P29_006": "3", "P29_007": "1", "P29_008": "00", "P29_009": null }, "geometry": { "type": "Point", "coordinates": [ 141.221598370336295, 41.271477720717904 ] } },
{ "type": "Feature", "properties": { "P29_001": "02208", "P29_002": "B102210001454", "P29_003": "16001", "P29_004": "むつ市立奥内小学校", "P29_005": "青森県むつ市奥内字中野40", "P29_006": "3", "P29_007": "1", "P29_008": "00", "P29_009": null }, "geometry": { "type": "Point", "coordinates": [ 141.273753995666567, 41.205886998230163 ] } },
{ "type": "Feature", "properties": { "P29_001": "02208", "P29_002": "B102210001463", "P29_003": "16001", "P29_004": "むつ市立関根小学校", "P29_005": "青森県むつ市関根字北関根99-2", "P29_006": "3", "P29_007": "1", "P29_008": "00", "P29_009": null }, "geometry": { "type": "Point", "coordinates": [ 141.203471716762152, 41.355973295192967 ] } },
{ "type": "Feature", "properties": { "P29_001": "02208", "P29_002": "B102210001472", "P29_003": "16001", "P29_004": "むつ市立大平小学校", "P29_005": "青森県むつ市大平町8-6", "P29_006": "3", "P29_007": "1", "P29_008": "00", "P29_009": null }, "geometry": { "type": "Point", "coordinates": [ 141.17025371966588, 41.284612063289622 ] } },
{ "type": "Feature", "properties": { "P29_001": "02208", "P29_002": "B102210001481", "P29_003": "16001", "P29_004": "むつ市立大湊小学校", "P29_005": "青森県むつ市大湊上町43-32", "P29_006": "3", "P29_007": "1", "P29_008": "00", "P29_009": null }, "geometry": { "type": "Point", "coordinates": [ 141.153986521304745, 41.268021238477118 ] } },
{ "type": "Feature", "properties": { "P29_001": "02208", "P29_002": "B102210001490", "P29_003": "16001", "P29_004": "むつ市立苫生小学校", "P29_005": "青森県むつ市金曲1-5-10", "P29_006": "3", "P29_007": "1", "P29_008": "00", "P29_009": null }, "geometry": { "type": "Point", "coordinates": [ 141.209132550989068, 41.28398578925389 ] } },
{ "type": "Feature", "properties": { "P29_001": "02301", "P29_002": "B102210001506", "P29_003": "16001", "P29_004": "平内町立小湊小学校", "P29_005": "青森県東津軽郡平内町小湊字後萢15", "P29_006": "3", "P29_007": "1", "P29_008": "00", "P29_009": null }, "geometry": { "type": "Point", "coordinates": [ 140.950662986100696, 40.926789614520231 ] } },
{ "type": "Feature", "properties": { "P29_001": "02301", "P29_002": "B102210001515", "P29_003": "16001", "P29_004": "平内町立山口小学校", "P29_005": "青森県東津軽郡平内町山口字小沢20-1", "P29_006": "3", "P29_007": "1", "P29_008": "00", "P29_009": null }, "geometry": { "type": "Point", "coordinates": [ 140.907347851456194, 40.915502310010041 ] } },
{ "type": "Feature", "properties": { "P29_001": "02301", "P29_002": "B102210001524", "P29_003": "16001", "P29_004": "平内町立東小学校", "P29_005": "青森県東津軽郡平内町口広字水須3-9", "P29_006": "3", "P29_007": "1", "P29_008": "00", "P29_009": null }, "geometry": { "type": "Point", "coordinates": [ 141.028647444977707, 40.918582982807017 ] } },
{ "type": "Feature", "properties": { "P29_001": "02307", "P29_002": "B102210001533", "P29_003": "16001", "P29_004": "外ヶ浜町立蟹田小学校", "P29_005": "青森県東津軽郡外ヶ浜町字蟹田鰐ヶ淵24-2", "P29_006": "3", "P29_007": "1", "P29_008": "00", "P29_009": null }, "geometry": { "type": "Point", "coordinates": [ 140.634643879020757, 41.043203565789831 ] } },
{ "type": "Feature", "properties": { "P29_001": "02303", "P29_002": "B102210001542", "P29_003": "16001", "P29_004": "今別町立今別小学校", "P29_005": "青森県東津軽郡今別町今別字中沢205", "P29_006": "3", "P29_007": "1", "P29_008": "00", "P29_009": null }, "geometry": { "type": "Point", "coordinates": [ 140.48363071245231, 41.180186785008949 ] } },
{ "type": "Feature", "properties": { "P29_001": "02304", "P29_002": "B102210001551", "P29_003": "16001", "P29_004": "蓬田村立蓬田小学校", "P29_005": "青森県東津軽郡蓬田村阿弥陀川字汐干198", "P29_006": "3", "P29_007": "1", "P29_008": "00", "P29_009": null }, "geometry": { "type": "Point", "coordinates": [ 140.648425284673067, 40.96978492024629 ] } },
{ "type": "Feature", "properties": { "P29_001": "02307", "P29_002": "B102210001560", "P29_003": "16001", "P29_004": "外ヶ浜町立三厩小学校", "P29_005": "青森県東津軽郡外ヶ浜町字三厩桃ヶ丘1", "P29_006": "3", "P29_007": "1", "P29_008": "00", "P29_009": null }, "geometry": { "type": "Point", "coordinates": [ 140.433497249555217, 41.19360662073214 ] } },
{ "type": "Feature", "properties": { "P29_001": "02202", "P29_002": "B102210001579", "P29_003": "16001", "P29_004": "弘前市立岩木小学校", "P29_005": "青森県弘前市五代字前田451", "P29_006": "3", "P29_007": "1", "P29_008": "00", "P29_009": null }, "geometry": { "type": "Point", "coordinates": [ 140.418074105142495, 40.61327628326336 ] } },
{ "type": "Feature", "properties": { "P29_001": "02202", "P29_002": "B102210001588", "P29_003": "16001", "P29_004": "弘前市立常盤野小学校", "P29_005": "青森県弘前市常盤野字湯の沢45-4", "P29_006": "3", "P29_007": "1", "P29_008": "00", "P29_009": null }, "geometry": { "type": "Point", "coordinates": [ 140.264115449451822, 40.628122085522321 ] } },
{ "type": "Feature", "properties": { "P29_001": "02202", "P29_002": "B102210001597", "P29_003": "16001", "P29_004": "弘前市立相馬小学校", "P29_005": "青森県弘前市黒滝字二ノ松本2-4", "P29_006": "3", "P29_007": "1", "P29_008": "00", "P29_009": null }, "geometry": { "type": "Point", "coordinates": [ 140.399548783214755, 40.583850880393882 ] } },
{ "type": "Feature", "properties": { "P29_001": "02343", "P29_002": "B102210001604", "P29_003": "16001", "P29_004": "西目屋村立西目屋小学校", "P29_005": "青森県中津軽郡西目屋村田代字稲元121-1", "P29_006": "3", "P29_007": "1", "P29_008": "00", "P29_009": null }, "geometry": { "type": "Point", "coordinates": [ 140.29564174087875, 40.576292378143812 ] } },
{ "type": "Feature", "properties": { "P29_001": "02321", "P29_002": "B102210001613", "P29_003": "16001", "P29_004": "鰺ヶ沢町立西海小学校", "P29_005": "青森県西津軽郡鰺ヶ沢町舞戸町字小夜190", "P29_006": "3", "P29_007": "1", "P29_008": "00", "P29_009": null }, "geometry": { "type": "Point", "coordinates": [ 140.206830816056225, 40.777963584356669 ] } },
{ "type": "Feature", "properties": { "P29_001": "02321", "P29_002": "B102210001622", "P29_003": "16001", "P29_004": "鰺ヶ沢町立舞戸小学校", "P29_005": "青森県西津軽郡鰺ヶ沢町舞戸町字久富27", "P29_006": "3", "P29_007": "1", "P29_008": "00", "P29_009": null }, "geometry": { "type": "Point", "coordinates": [ 140.224584885576661, 40.776200897160301 ] } },
{ "type": "Feature", "properties": { "P29_001": "02209", "P29_002": "B102210001631", "P29_003": "16001", "P29_004": "つがる市立向陽小学校", "P29_005": "青森県つがる市木造日向62-1", "P29_006": "3", "P29_007": "1", "P29_008": "00", "P29_009": null }, "geometry": { "type": "Point", "coordinates": [ 140.390452185180578, 40.811405156330594 ] } },
{ "type": "Feature", "properties": { "P29_001": "02209", "P29_002": "B102210001640", "P29_003": "16001", "P29_004": "つがる市立穂波小学校", "P29_005": "青森県つがる市木造菊川喜久野43", "P29_006": "3", "P29_007": "1", "P29_008": "00", "P29_009": null }, "geometry": { "type": "Point", "coordinates": [ 140.341076554025989, 40.811390628305467 ] } },
{ "type": "Feature", "properties": { "P29_001": "02209", "P29_002": "B102210001659", "P29_003": "16001", "P29_004": "つがる市立瑞穂小学校", "P29_005": "青森県つがる市木造大畑座八1", "P29_006": "3", "P29_007": "1", "P29_008": "00", "P29_009": null }, "geometry": { "type": "Point", "coordinates": [ 140.357878805742615, 40.838935392175102 ] } },
{ "type": "Feature", "properties": { "P29_001": "02323", "P29_002": "B102210001668", "P29_003": "16001", "P29_004": "深浦町立修道小学校", "P29_005": "青森県西津軽郡深浦町関字栃沢85-1", "P29_006": "3", "P29_007": "1", "P29_008": "00", "P29_009": null }, "geometry": { "type": "Point", "coordinates": [ 140.096579240037869, 40.745504194991426 ] } },
{ "type": "Feature", "properties": { "P29_001": "02323", "P29_002": "B102210001677", "P29_003": "16001", "P29_004": "深浦町立深浦小学校", "P29_005": "青森県西津軽郡深浦町深浦字寅平62-6", "P29_006": "3", "P29_007": "1", "P29_008": "00", "P29_009": null }, "geometry": { "type": "Point", "coordinates": [ 139.927339871557137, 40.639721137613549 ] } },
{ "type": "Feature", "properties": { "P29_001": "02323", "P29_002": "B102210001686", "P29_003": "16001", "P29_004": "深浦町立いわさき小学校", "P29_005": "青森県西津軽郡深浦町正道尻小礒13-2", "P29_006": "3", "P29_007": "1", "P29_008": "00", "P29_009": null }, "geometry": { "type": "Point", "coordinates": [ 139.931939229317805, 40.577121959736452 ] } },
{ "type": "Feature", "properties": { "P29_001": "02209", "P29_002": "B102210001695", "P29_003": "16001", "P29_004": "つがる市立森田小学校", "P29_005": "青森県つがる市森田町森田屏風山2-2", "P29_006": "3", "P29_007": "1", "P29_008": "00", "P29_009": null }, "geometry": { "type": "Point", "coordinates": [ 140.336568976744587, 40.77819446627192 ] } },
{ "type": "Feature", "properties": { "P29_001": "02209", "P29_002": "B102210001711", "P29_003": "16001", "P29_004": "つがる市立柏小学校", "P29_005": "青森県つがる市柏広須福島126-2", "P29_006": "3", "P29_007": "1", "P29_008": "00", "P29_009": null }, "geometry": { "type": "Point", "coordinates": [ 140.408777394915859, 40.791642617385044 ] } },
{ "type": "Feature", "properties": { "P29_001": "02209", "P29_002": "B102210001720", "P29_003": "16001", "P29_004": "つがる市立稲垣小学校", "P29_005": "青森県つがる市稲垣町豊川宮藤27", "P29_006": "3", "P29_007": "1", "P29_008": "00", "P29_009": null }, "geometry": { "type": "Point", "coordinates": [ 140.401773227907626, 40.881670154330592 ] } },
{ "type": "Feature", "properties": { "P29_001": "02209", "P29_002": "B102210001739", "P29_003": "16001", "P29_004": "つがる市立車力小学校", "P29_005": "青森県つがる市車力町屏風山1-214", "P29_006": "3", "P29_007": "1", "P29_008": "00", "P29_009": null }, "geometry": { "type": "Point", "coordinates": [ 140.353348325720077, 40.951202553011484 ] } },
{ "type": "Feature", "properties": { "P29_001": "02361", "P29_002": "B102210001748", "P29_003": "16001", "P29_004": "藤崎町立藤崎小学校", "P29_005": "青森県南津軽郡藤崎町藤崎字西村井5-1", "P29_006": "3", "P29_007": "1", "P29_008": "00", "P29_009": null }, "geometry": { "type": "Point", "coordinates": [ 140.496019362704772, 40.654372459165145 ] } },
{ "type": "Feature", "properties": { "P29_001": "02361", "P29_002": "B102210001757", "P29_003": "16001", "P29_004": "藤崎町立藤崎中央小学校", "P29_005": "青森県南津軽郡藤崎町水沼字浅田11", "P29_006": "3", "P29_007": "1", "P29_008": "00", "P29_009": null }, "geometry": { "type": "Point", "coordinates": [ 140.503991913537504, 40.665811529337788 ] } },
{ "type": "Feature", "properties": { "P29_001": "02362", "P29_002": "B102210001766", "P29_003": "16001", "P29_004": "大鰐町立大鰐小学校", "P29_005": "青森県南津軽郡大鰐町大鰐字羽黒館54", "P29_006": "3", "P29_007": "1", "P29_008": "00", "P29_009": null }, "geometry": { "type": "Point", "coordinates": [ 140.567028136085469, 40.51701339350992 ] } },
{ "type": "Feature", "properties": { "P29_001": "02210", "P29_002": "B102210001775", "P29_003": "16001", "P29_004": "平川市立金田小学校", "P29_005": "青森県平川市南田中北原120-1", "P29_006": "3", "P29_007": "1", "P29_008": "00", "P29_009": null }, "geometry": { "type": "Point", "coordinates": [ 140.590664004761379, 40.614358003527386 ] } },
{ "type": "Feature", "properties": { "P29_001": "02210", "P29_002": "B102210001784", "P29_003": "16001", "P29_004": "平川市立猿賀小学校", "P29_005": "青森県平川市猿賀明堂136-2", "P29_006": "3", "P29_007": "1", "P29_008": "00", "P29_009": null }, "geometry": { "type": "Point", "coordinates": [ 140.549597440206526, 40.617256302574617 ] } },
{ "type": "Feature", "properties": { "P29_001": "02201", "P29_002": "B102210001793", "P29_003": "16001", "P29_004": "青森市立女鹿沢小学校", "P29_005": "青森県青森市浪岡下十川字扇田19-2", "P29_006": "3", "P29_007": "1", "P29_008": "00", "P29_009": null }, "geometry": { "type": "Point", "coordinates": [ 140.564189354810281, 40.697976880400034 ] } },
{ "type": "Feature", "properties": { "P29_001": "02201", "P29_002": "B102210001800", "P29_003": "16001", "P29_004": "青森市立浪岡野沢小学校", "P29_005": "青森県青森市浪岡吉野田字平野51-2", "P29_006": "3", "P29_007": "1", "P29_008": "00", "P29_009": null }, "geometry": { "type": "Point", "coordinates": [ 140.550504819772158, 40.721420172339343 ] } },
{ "type": "Feature", "properties": { "P29_001": "02201", "P29_002": "B102210001828", "P29_003": "16001", "P29_004": "青森市立本郷小学校", "P29_005": "青森県青森市浪岡本郷字一本柳4", "P29_006": "3", "P29_007": "1", "P29_008": "00", "P29_009": null }, "geometry": { "type": "Point", "coordinates": [ 140.614268259884227, 40.696395951813848 ] } },
{ "type": "Feature", "properties": { "P29_001": "02201", "P29_002": "B102210001837", "P29_003": "16001", "P29_004": "青森市立浪岡北小学校", "P29_005": "青森県青森市浪岡浪岡字淋城29", "P29_006": "3", "P29_007": "1", "P29_008": "00", "P29_009": null }, "geometry": { "type": "Point", "coordinates": [ 140.59327430339917, 40.719569059761028 ] } },
{ "type": "Feature", "properties": { "P29_001": "02201", "P29_002": "B102210001846", "P29_003": "16001", "P29_004": "青森市立浪岡南小学校", "P29_005": "青森県青森市浪岡北中野字北畠3", "P29_006": "3", "P29_007": "1", "P29_008": "00", "P29_009": null }, "geometry": { "type": "Point", "coordinates": [ 140.598021740269417, 40.708656110675463 ] } },
{ "type": "Feature", "properties": { "P29_001": "02210", "P29_002": "B102210001855", "P29_003": "16001", "P29_004": "平川市立柏木小学校", "P29_005": "青森県平川市柏木町柳田8-2", "P29_006": "3", "P29_007": "1", "P29_008": "00", "P29_009": null }, "geometry": { "type": "Point", "coordinates": [ 140.564520659874063, 40.575643403997958 ] } },
{ "type": "Feature", "properties": { "P29_001": "02210", "P29_002": "B102210001864", "P29_003": "16001", "P29_004": "平川市立大坊小学校", "P29_005": "青森県平川市岩館下リ松72-2", "P29_006": "3", "P29_007": "1", "P29_008": "00", "P29_009": null }, "geometry": { "type": "Point", "coordinates": [ 140.543258668358391, 40.566064173655228 ] } },
{ "type": "Feature", "properties": { "P29_001": "02210", "P29_002": "B102210001873", "P29_003": "16001", "P29_004": "平川市立小和森小学校", "P29_005": "青森県平川市大光寺字二村井166", "P29_006": "3", "P29_007": "1", "P29_008": "00", "P29_009": null }, "geometry": { "type": "Point", "coordinates": [ 140.559555998426731, 40.592415004130949 ] } },
{ "type": "Feature", "properties": { "P29_001": "02210", "P29_002": "B102210001882", "P29_003": "16001", "P29_004": "平川市立松崎小学校", "P29_005": "青森県平川市館山上亀岡5-1", "P29_006": "3", "P29_007": "1", "P29_008": "00", "P29_009": null }, "geometry": { "type": "Point", "coordinates": [ 140.53897241350802, 40.596031589237235 ] } },
{ "type": "Feature", "properties": { "P29_001": "02210", "P29_002": "B102210001891", "P29_003": "16001", "P29_004": "平川市立竹館小学校", "P29_005": "青森県平川市沖館永田34-3", "P29_006": "3", "P29_007": "1", "P29_008": "00", "P29_009": null }, "geometry": { "type": "Point", "coordinates": [ 140.591149021450008, 40.568481107748568 ] } },
{ "type": "Feature", "properties": { "P29_001": "02210", "P29_002": "B102210001908", "P29_003": "16001", "P29_004": "平川市立平賀東小学校", "P29_005": "青森県平川市尾崎川合69", "P29_006": "3", "P29_007": "1", "P29_008": "00", "P29_009": null }, "geometry": { "type": "Point", "coordinates": [ 140.592651565919539, 40.586794969632564 ] } },
{ "type": "Feature", "properties": { "P29_001": "02361", "P29_002": "B102210001917", "P29_003": "16001", "P29_004": "藤崎町立常盤小学校", "P29_005": "青森県南津軽郡藤崎町常盤字三西田23", "P29_006": "3", "P29_007": "1", "P29_008": "00", "P29_009": null }, "geometry": { "type": "Point", "coordinates": [ 140.539801561749698, 40.672971656824146 ] } },
{ "type": "Feature", "properties": { "P29_001": "02367", "P29_002": "B102210001926", "P29_003": "16001", "P29_004": "田舎館村立田舎館小学校", "P29_005": "青森県南津軽郡田舎館村大根子牧ヶ袋80", "P29_006": "3", "P29_007": "1", "P29_008": "00", "P29_009": null }, "geometry": { "type": "Point", "coordinates": [ 140.518632002072735, 40.640779282416979 ] } },
{ "type": "Feature", "properties": { "P29_001": "02210", "P29_002": "B102210001935", "P29_003": "16001", "P29_004": "平川市立碇ヶ関小学校", "P29_005": "青森県平川市碇ヶ関三笠山100-2", "P29_006": "3", "P29_007": "1", "P29_008": "00", "P29_009": null }, "geometry": { "type": "Point", "coordinates": [ 140.62959323930005, 40.475876041322365 ] } },
{ "type": "Feature", "properties": { "P29_001": "02381", "P29_002": "B102210001944", "P29_003": "16001", "P29_004": "板柳町立小阿弥小学校", "P29_005": "青森県北津軽郡板柳町大俵字富永39-2", "P29_006": "3", "P29_007": "1", "P29_008": "00", "P29_009": null }, "geometry": { "type": "Point", "coordinates": [ 140.48520170120446, 40.725256242473478 ] } },
{ "type": "Feature", "properties": { "P29_001": "02381", "P29_002": "B102210001953", "P29_003": "16001", "P29_004": "板柳町立板柳北小学校", "P29_005": "青森県北津軽郡板柳町赤田字田川13", "P29_006": "3", "P29_007": "1", "P29_008": "00", "P29_009": null }, "geometry": { "type": "Point", "coordinates": [ 140.453849981461303, 40.713106960458163 ] } },
{ "type": "Feature", "properties": { "P29_001": "02381", "P29_002": "B102210001962", "P29_003": "16001", "P29_004": "板柳町立板柳南小学校", "P29_005": "青森県北津軽郡板柳町辻字岸田75-1", "P29_006": "3", "P29_007": "1", "P29_008": "00", "P29_009": null }, "geometry": { "type": "Point", "coordinates": [ 140.46873967101746, 40.692120779562245 ] } },
{ "type": "Feature", "properties": { "P29_001": "02381", "P29_002": "B102210001971", "P29_003": "16001", "P29_004": "板柳町立板柳東小学校", "P29_005": "青森県北津軽郡板柳町常海橋字稲葉197-21", "P29_006": "3", "P29_007": "1", "P29_008": "00", "P29_009": null }, "geometry": { "type": "Point", "coordinates": [ 140.510848549985667, 40.724816308149947 ] } },
{ "type": "Feature", "properties": { "P29_001": "02205", "P29_002": "B102210001980", "P29_003": "16001", "P29_004": "五所川原市立金木小学校", "P29_005": "青森県五所川原市金木町芦野84-54", "P29_006": "3", "P29_007": "1", "P29_008": "00", "P29_009": null }, "geometry": { "type": "Point", "coordinates": [ 140.452783796268335, 40.909307837368395 ] } },
{ "type": "Feature", "properties": { "P29_001": "02387", "P29_002": "B102210001999", "P29_003": "16001", "P29_004": "中泊町立武田小学校", "P29_005": "青森県北津軽郡中泊町富野字千歳305-1", "P29_006": "3", "P29_007": "1", "P29_008": "00", "P29_009": null }, "geometry": { "type": "Point", "coordinates": [ 140.414568872966527, 40.934726207353911 ] } },
{ "type": "Feature", "properties": { "P29_001": "02387", "P29_002": "B102210002006", "P29_003": "16001", "P29_004": "中泊町立薄市小学校", "P29_005": "青森県北津軽郡中泊町薄市字飛石田野沢187-8", "P29_006": "3", "P29_007": "1", "P29_008": "00", "P29_009": null }, "geometry": { "type": "Point", "coordinates": [ 140.425194790707849, 41.008184298400209 ] } },
{ "type": "Feature", "properties": { "P29_001": "02387", "P29_002": "B102210002015", "P29_003": "16001", "P29_004": "中泊町立中里小学校", "P29_005": "青森県北津軽郡中泊町中里字亀山251-1", "P29_006": "3", "P29_007": "1", "P29_008": "00", "P29_009": null }, "geometry": { "type": "Point", "coordinates": [ 140.445030183814509, 40.964515980317017 ] } },
{ "type": "Feature", "properties": { "P29_001": "02384", "P29_002": "B102210002024", "P29_003": "16001", "P29_004": "鶴田町立鶴田小学校", "P29_005": "青森県北津軽郡鶴田町鶴田字鷹ノ尾11-2", "P29_006": "3", "P29_007": "1", "P29_008": "00", "P29_009": null }, "geometry": { "type": "Point", "coordinates": [ 140.430539919898393, 40.762903381898496 ] } },
{ "type": "Feature", "properties": { "P29_001": "02205", "P29_002": "B102210002033", "P29_003": "16001", "P29_004": "五所川原市立市浦小学校", "P29_005": "青森県五所川原市相内岩井85", "P29_006": "3", "P29_007": "1", "P29_008": "00", "P29_009": null }, "geometry": { "type": "Point", "coordinates": [ 140.354223772112221, 41.05405143143571 ] } },
{ "type": "Feature", "properties": { "P29_001": "02387", "P29_002": "B102210002042", "P29_003": "16001", "P29_004": "中泊町立小泊小学校", "P29_005": "青森県北津軽郡中泊町小泊字砂山1076-3", "P29_006": "3", "P29_007": "1", "P29_008": "00", "P29_009": null }, "geometry": { "type": "Point", "coordinates": [ 140.309502450650086, 41.129448342956252 ] } },
{ "type": "Feature", "properties": { "P29_001": "02401", "P29_002": "B102210002051", "P29_003": "16001", "P29_004": "野辺地町立野辺地小学校", "P29_005": "青森県上北郡野辺地町字寺ノ沢42-4", "P29_006": "3", "P29_007": "1", "P29_008": "00", "P29_009": null }, "geometry": { "type": "Point", "coordinates": [ 141.131049394185879, 40.863126347388956 ] } },
{ "type": "Feature", "properties": { "P29_001": "02401", "P29_002": "B102210002060", "P29_003": "16001", "P29_004": "野辺地町立若葉小学校", "P29_005": "青森県上北郡野辺地町字石神裏16", "P29_006": "3", "P29_007": "1", "P29_008": "00", "P29_009": null }, "geometry": { "type": "Point", "coordinates": [ 141.133102894789857, 40.870163719080672 ] } },
{ "type": "Feature", "properties": { "P29_001": "02402", "P29_002": "B102210002088", "P29_003": "16001", "P29_004": "七戸町立七戸小学校", "P29_005": "青森県上北郡七戸町字上町野130", "P29_006": "3", "P29_007": "1", "P29_008": "00", "P29_009": null }, "geometry": { "type": "Point", "coordinates": [ 141.153737789501719, 40.705942356737374 ] } },
{ "type": "Feature", "properties": { "P29_001": "02402", "P29_002": "B102210002097", "P29_003": "16001", "P29_004": "七戸町立城南小学校", "P29_005": "青森県上北郡七戸町字舘野32-58", "P29_006": "3", "P29_007": "1", "P29_008": "00", "P29_009": null }, "geometry": { "type": "Point", "coordinates": [ 141.157952521067699, 40.68712402658398 ] } },
{ "type": "Feature", "properties": { "P29_001": "02412", "P29_002": "B102210002104", "P29_003": "16001", "P29_004": "おいらせ町立百石小学校", "P29_005": "青森県上北郡おいらせ町牛込平20-1", "P29_006": "3", "P29_007": "1", "P29_008": "00", "P29_009": null }, "geometry": { "type": "Point", "coordinates": [ 141.437230489553627, 40.601574038885417 ] } },
{ "type": "Feature", "properties": { "P29_001": "02412", "P29_002": "B102210002113", "P29_003": "16001", "P29_004": "おいらせ町立甲洋小学校", "P29_005": "青森県上北郡おいらせ町一川目4-6-10", "P29_006": "3", "P29_007": "1", "P29_008": "00", "P29_009": null }, "geometry": { "type": "Point", "coordinates": [ 141.438797904653057, 40.645425374612429 ] } },
{ "type": "Feature", "properties": { "P29_001": "02206", "P29_002": "B102210002122", "P29_003": "16001", "P29_004": "十和田市立沢田小学校", "P29_005": "青森県十和田市沢田字田屋29", "P29_006": "3", "P29_007": "1", "P29_008": "00", "P29_009": null }, "geometry": { "type": "Point", "coordinates": [ 141.152353306642681, 40.584600037216894 ] } },
{ "type": "Feature", "properties": { "P29_001": "02206", "P29_002": "B102210002131", "P29_003": "16001", "P29_004": "十和田市立法奥小学校", "P29_005": "青森県十和田市奥瀬字下川目102-2", "P29_006": "3", "P29_007": "1", "P29_008": "00", "P29_009": null }, "geometry": { "type": "Point", "coordinates": [ 141.097458725318177, 40.586386299126019 ] } },
{ "type": "Feature", "properties": { "P29_001": "02206", "P29_002": "B102210002140", "P29_003": "16001", "P29_004": "十和田市立十和田湖小学校", "P29_005": "青森県十和田市奥瀬字十和田湖畔宇樽部420", "P29_006": "3", "P29_007": "1", "P29_008": "00", "P29_009": null }, "geometry": { "type": "Point", "coordinates": [ 140.933395882633135, 40.44126952462257 ] } },
{ "type": "Feature", "properties": { "P29_001": "02405", "P29_002": "B102210002159", "P29_003": "16001", "P29_004": "六戸町立六戸小学校", "P29_005": "青森県上北郡六戸町犬落瀬字明土63", "P29_006": "3", "P29_007": "1", "P29_008": "00", "P29_009": null }, "geometry": { "type": "Point", "coordinates": [ 141.324846547741799, 40.600227544688053 ] } },
{ "type": "Feature", "properties": { "P29_001": "02405", "P29_002": "B102210002168", "P29_003": "16001", "P29_004": "六戸町立開知小学校", "P29_005": "青森県上北郡六戸町犬落瀬字権現沢14-159", "P29_006": "3", "P29_007": "1", "P29_008": "00", "P29_009": null }, "geometry": { "type": "Point", "coordinates": [ 141.299657804106346, 40.642655939067183 ] } },
{ "type": "Feature", "properties": { "P29_001": "02405", "P29_002": "B102210002177", "P29_003": "16001", "P29_004": "六戸町立大曲小学校", "P29_005": "青森県上北郡六戸町犬落瀬字柳沢91-86", "P29_006": "3", "P29_007": "1", "P29_008": "00", "P29_009": null }, "geometry": { "type": "Point", "coordinates": [ 141.336151492360472, 40.644270841039322 ] } },
{ "type": "Feature", "properties": { "P29_001": "02406", "P29_002": "B102210002186", "P29_003": "16001", "P29_004": "横浜町立横浜小学校", "P29_005": "青森県上北郡横浜町字林ノ後32-1", "P29_006": "3", "P29_007": "1", "P29_008": "00", "P29_009": null }, "geometry": { "type": "Point", "coordinates": [ 141.2543322536593, 41.086034890422177 ] } },
{ "type": "Feature", "properties": { "P29_001": "02408", "P29_002": "B102210002195", "P29_003": "16001", "P29_004": "東北町立上北小学校", "P29_005": "青森県上北郡東北町上野字堤向22-1", "P29_006": "3", "P29_007": "1", "P29_008": "00", "P29_009": null }, "geometry": { "type": "Point", "coordinates": [ 141.257840824420128, 40.720619902390155 ] } },
{ "type": "Feature", "properties": { "P29_001": "02408", "P29_002": "B102210002202", "P29_003": "16001", "P29_004": "東北町立甲地小学校", "P29_005": "青森県上北郡東北町字往来ノ下50", "P29_006": "3", "P29_007": "1", "P29_008": "00", "P29_009": null }, "geometry": { "type": "Point", "coordinates": [ 141.285038147829596, 40.77454866914519 ] } },
{ "type": "Feature", "properties": { "P29_001": "02408", "P29_002": "B102210002211", "P29_003": "16001", "P29_004": "東北町立東北小学校", "P29_005": "青森県上北郡東北町塔ノ沢山1-484", "P29_006": "3", "P29_007": "1", "P29_008": "00", "P29_009": null }, "geometry": { "type": "Point", "coordinates": [ 141.224443298177079, 40.782408110939812 ] } },
{ "type": "Feature", "properties": { "P29_001": "02412", "P29_002": "B102210002220", "P29_003": "16001", "P29_004": "おいらせ町立下田小学校", "P29_005": "青森県上北郡おいらせ町舘越38-1", "P29_006": "3", "P29_007": "1", "P29_008": "00", "P29_009": null }, "geometry": { "type": "Point", "coordinates": [ 141.373459995471933, 40.597276003170059 ] } },
{ "type": "Feature", "properties": { "P29_001": "02412", "P29_002": "B102210002239", "P29_003": "16001", "P29_004": "おいらせ町立木内々小学校", "P29_005": "青森県上北郡おいらせ町染屋101-7", "P29_006": "3", "P29_007": "1", "P29_008": "00", "P29_009": null }, "geometry": { "type": "Point", "coordinates": [ 141.408191925916043, 40.601094502579805 ] } },
{ "type": "Feature", "properties": { "P29_001": "02412", "P29_002": "B102210002248", "P29_003": "16001", "P29_004": "おいらせ町立木ノ下小学校", "P29_005": "青森県上北郡おいらせ町青葉6-50-184", "P29_006": "3", "P29_007": "1", "P29_008": "00", "P29_009": null }, "geometry": { "type": "Point", "coordinates": [ 141.369789949980884, 40.653396162879829 ] } },
{ "type": "Feature", "properties": { "P29_001": "02402", "P29_002": "B102210002257", "P29_003": "16001", "P29_004": "七戸町立天間林小学校", "P29_005": "青森県上北郡七戸町森ノ上180-1", "P29_006": "3", "P29_007": "1", "P29_008": "00", "P29_009": null }, "geometry": { "type": "Point", "coordinates": [ 141.161496819801727, 40.747173996092272 ] } },
{ "type": "Feature", "properties": { "P29_001": "02411", "P29_002": "B102210002266", "P29_003": "16001", "P29_004": "六ヶ所村立泊小学校", "P29_005": "青森県上北郡六ヶ所村泊字川原75-17", "P29_006": "3", "P29_007": "1", "P29_008": "00", "P29_009": null }, "geometry": { "type": "Point", "coordinates": [ 141.38758287228282, 41.08702091513625 ] } },
{ "type": "Feature", "properties": { "P29_001": "02411", "P29_002": "B102210002275", "P29_003": "16001", "P29_004": "六ヶ所村立尾駮小学校", "P29_005": "青森県上北郡六ヶ所村尾駮字野附1304-1", "P29_006": "3", "P29_007": "1", "P29_008": "00", "P29_009": null }, "geometry": { "type": "Point", "coordinates": [ 141.366433217479283, 40.97036788350394 ] } },
{ "type": "Feature", "properties": { "P29_001": "02411", "P29_002": "B102210002284", "P29_003": "16001", "P29_004": "六ヶ所村立千歳平小学校", "P29_005": "青森県上北郡六ヶ所村倉内字笹崎396", "P29_006": "3", "P29_007": "1", "P29_008": "00", "P29_009": null }, "geometry": { "type": "Point", "coordinates": [ 141.286448201350765, 40.888681205176582 ] } },
{ "type": "Feature", "properties": { "P29_001": "02411", "P29_002": "B102210002293", "P29_003": "16001", "P29_004": "六ヶ所村立南小学校", "P29_005": "青森県上北郡六ヶ所村倉内字湯沢12-8", "P29_006": "3", "P29_007": "1", "P29_008": "00", "P29_009": null }, "geometry": { "type": "Point", "coordinates": [ 141.336575943779735, 40.858867038300318 ] } },
{ "type": "Feature", "properties": { "P29_001": "02208", "P29_002": "B102210002300", "P29_003": "16001", "P29_004": "むつ市立川内小学校", "P29_005": "青森県むつ市川内町休所5-1", "P29_006": "3", "P29_007": "1", "P29_008": "00", "P29_009": null }, "geometry": { "type": "Point", "coordinates": [ 140.983309571355392, 41.201147774337969 ] } },
{ "type": "Feature", "properties": { "P29_001": "02208", "P29_002": "B102210002319", "P29_003": "16001", "P29_004": "むつ市立大畑小学校", "P29_005": "青森県むつ市大畑町伊勢堂1-1", "P29_006": "3", "P29_007": "1", "P29_008": "00", "P29_009": null }, "geometry": { "type": "Point", "coordinates": [ 141.169611621528986, 41.404000032583461 ] } },
{ "type": "Feature", "properties": { "P29_001": "02208", "P29_002": "B102210002337", "P29_003": "16001", "P29_004": "むつ市立正津川小学校", "P29_005": "青森県むつ市大畑町正津川平114-20", "P29_006": "3", "P29_007": "1", "P29_008": "00", "P29_009": null }, "geometry": { "type": "Point", "coordinates": [ 141.181257908657983, 41.393404000210715 ] } },
{ "type": "Feature", "properties": { "P29_001": "02423", "P29_002": "B102210002346", "P29_003": "16001", "P29_004": "大間町立大間小学校", "P29_005": "青森県下北郡大間町大間字狼丁37-2", "P29_006": "3", "P29_007": "1", "P29_008": "00", "P29_009": null }, "geometry": { "type": "Point", "coordinates": [ 140.912376800406122, 41.527998157634237 ] } },
{ "type": "Feature", "properties": { "P29_001": "02423", "P29_002": "B102210002355", "P29_003": "16001", "P29_004": "大間町立奥戸小学校", "P29_005": "青森県下北郡大間町奥戸字館の上96-69", "P29_006": "3", "P29_007": "1", "P29_008": "00", "P29_009": null }, "geometry": { "type": "Point", "coordinates": [ 140.906333340944485, 41.488993843575074 ] } },
{ "type": "Feature", "properties": { "P29_001": "02424", "P29_002": "B102210002364", "P29_003": "16001", "P29_004": "東通村立東通小学校", "P29_005": "青森県下北郡東通村砂子又字沢内9-4", "P29_006": "3", "P29_007": "1", "P29_008": "00", "P29_009": null }, "geometry": { "type": "Point", "coordinates": [ 141.332723198909918, 41.275540723533894 ] } },
{ "type": "Feature", "properties": { "P29_001": "02425", "P29_002": "B102210002373", "P29_003": "16001", "P29_004": "風間浦村立風間浦小学校", "P29_005": "青森県下北郡風間浦村易国間字古野18-2", "P29_006": "3", "P29_007": "1", "P29_008": "00", "P29_009": null }, "geometry": { "type": "Point", "coordinates": [ 140.988252075964027, 41.490321339735289 ] } },
{ "type": "Feature", "properties": { "P29_001": "02426", "P29_002": "B102210002382", "P29_003": "16001", "P29_004": "佐井村立佐井小学校", "P29_005": "青森県下北郡佐井村佐井字糠森103-3", "P29_006": "3", "P29_007": "1", "P29_008": "00", "P29_009": null }, "geometry": { "type": "Point", "coordinates": [ 140.858461689987593, 41.431856436713566 ] } },
{ "type": "Feature", "properties": { "P29_001": "02426", "P29_002": "B102210002391", "P29_003": "16001", "P29_004": "佐井村立牛滝小学校", "P29_005": "青森県下北郡佐井村長後牛滝川目99", "P29_006": "3", "P29_007": "1", "P29_008": "00", "P29_009": null }, "geometry": { "type": "Point", "coordinates": [ 140.804537195529122, 41.289789457445885 ] } },
{ "type": "Feature", "properties": { "P29_001": "02208", "P29_002": "B102210002408", "P29_003": "16001", "P29_004": "むつ市立脇野沢小学校", "P29_005": "青森県むつ市脇野沢瀬野川目85-2", "P29_006": "3", "P29_007": "1", "P29_008": "00", "P29_009": null }, "geometry": { "type": "Point", "coordinates": [ 140.815785738119558, 41.141585680215158 ] } },
{ "type": "Feature", "properties": { "P29_001": "02441", "P29_002": "B102210002417", "P29_003": "16001", "P29_004": "三戸町立三戸小学校", "P29_005": "青森県三戸郡三戸町梅内字権現林1", "P29_006": "3", "P29_007": "1", "P29_008": "00", "P29_009": null }, "geometry": { "type": "Point", "coordinates": [ 141.268313965726179, 40.376888206720366 ] } },
{ "type": "Feature", "properties": { "P29_001": "02441", "P29_002": "B102210002426", "P29_003": "16001", "P29_004": "三戸町立斗川小学校", "P29_005": "青森県三戸郡三戸町斗内字清水田50", "P29_006": "3", "P29_007": "1", "P29_008": "00", "P29_009": null }, "geometry": { "type": "Point", "coordinates": [ 141.206733993716455, 40.357738001541342 ] } },
{ "type": "Feature", "properties": { "P29_001": "02442", "P29_002": "B102210002444", "P29_003": "16001", "P29_004": "五戸町立五戸小学校", "P29_005": "青森県三戸郡五戸町字天満後22-1", "P29_006": "3", "P29_007": "1", "P29_008": "00", "P29_009": null }, "geometry": { "type": "Point", "coordinates": [ 141.303310691235481, 40.526297848157299 ] } },
{ "type": "Feature", "properties": { "P29_001": "02442", "P29_002": "B102210002453", "P29_003": "16001", "P29_004": "五戸町立切谷内小学校", "P29_005": "青森県三戸郡五戸町切谷内字高田川原24-1", "P29_006": "3", "P29_007": "1", "P29_008": "00", "P29_009": null }, "geometry": { "type": "Point", "coordinates": [ 141.357046479106003, 40.550123760458241 ] } },
{ "type": "Feature", "properties": { "P29_001": "02442", "P29_002": "B102210002462", "P29_003": "16001", "P29_004": "五戸町立上市川小学校", "P29_005": "青森県三戸郡五戸町上市川字御兵糧3", "P29_006": "3", "P29_007": "1", "P29_008": "00", "P29_009": null }, "geometry": { "type": "Point", "coordinates": [ 141.39809011086686, 40.563489113447595 ] } },
{ "type": "Feature", "properties": { "P29_001": "02442", "P29_002": "B102210002471", "P29_003": "16001", "P29_004": "五戸町立倉石小学校", "P29_005": "青森県三戸郡五戸町倉石中市字田茂平40", "P29_006": "3", "P29_007": "1", "P29_008": "00", "P29_009": null }, "geometry": { "type": "Point", "coordinates": [ 141.254416229742077, 40.506579885674626 ] } },
{ "type": "Feature", "properties": { "P29_001": "02443", "P29_002": "B102210002480", "P29_003": "16001", "P29_004": "田子町立田子小学校", "P29_005": "青森県三戸郡田子町田子字野々上平4", "P29_006": "3", "P29_007": "1", "P29_008": "00", "P29_009": null }, "geometry": { "type": "Point", "coordinates": [ 141.144142478034382, 40.343035825525547 ] } },
{ "type": "Feature", "properties": { "P29_001": "02445", "P29_002": "B102210002541", "P29_003": "16001", "P29_004": "南部町立南部小学校", "P29_005": "青森県三戸郡南部町沖田面字久保10-1", "P29_006": "3", "P29_007": "1", "P29_008": "00", "P29_009": null }, "geometry": { "type": "Point", "coordinates": [ 141.285508363230747, 40.415327266901436 ] } },
{ "type": "Feature", "properties": { "P29_001": "02446", "P29_002": "B102210002569", "P29_003": "16001", "P29_004": "階上町立赤保内小学校", "P29_005": "青森県三戸郡階上町赤保内字耳ヶ吠6-1", "P29_006": "3", "P29_007": "1", "P29_008": "00", "P29_009": null }, "geometry": { "type": "Point", "coordinates": [ 141.614632952439194, 40.450064470278861 ] } },
{ "type": "Feature", "properties": { "P29_001": "02446", "P29_002": "B102210002578", "P29_003": "16001", "P29_004": "階上町立道仏小学校", "P29_005": "青森県三戸郡階上町道仏字外窪21-1", "P29_006": "3", "P29_007": "1", "P29_008": "00", "P29_009": null }, "geometry": { "type": "Point", "coordinates": [ 141.652538626352282, 40.4483013604194 ] } },
{ "type": "Feature", "properties": { "P29_001": "02446", "P29_002": "B102210002603", "P29_003": "16001", "P29_004": "階上町立階上小学校", "P29_005": "青森県三戸郡階上町鳥屋部字大鶴音1-2", "P29_006": "3", "P29_007": "1", "P29_008": "00", "P29_009": null }, "geometry": { "type": "Point", "coordinates": [ 141.577465108712715, 40.435758288136824 ] } },
{ "type": "Feature", "properties": { "P29_001": "02446", "P29_002": "B102210002612", "P29_003": "16001", "P29_004": "階上町立石鉢小学校", "P29_005": "青森県三戸郡階上町角柄折字石鉢14-2", "P29_006": "3", "P29_007": "1", "P29_008": "00", "P29_009": null }, "geometry": { "type": "Point", "coordinates": [ 141.5778848396115, 40.459752046372138 ] } },
{ "type": "Feature", "properties": { "P29_001": "02445", "P29_002": "B102210002649", "P29_003": "16001", "P29_004": "南部町立福地小学校", "P29_005": "青森県三戸郡南部町大字福田字源次郎平7-1", "P29_006": "3", "P29_007": "1", "P29_008": "00", "P29_009": null }, "geometry": { "type": "Point", "coordinates": [ 141.382140468590819, 40.460844737473124 ] } },
{ "type": "Feature", "properties": { "P29_001": "02203", "P29_002": "B102210002658", "P29_003": "16001", "P29_004": "八戸市立島守小学校", "P29_005": "青森県八戸市南郷島守字小平15-1", "P29_006": "3", "P29_007": "1", "P29_008": "00", "P29_009": null }, "geometry": { "type": "Point", "coordinates": [ 141.492520310126622, 40.415933571346223 ] } },
{ "type": "Feature", "properties": { "P29_001": "02203", "P29_002": "B102210002667", "P29_003": "16001", "P29_004": "八戸市立南郷小学校", "P29_005": "青森県八戸市南郷市野沢字石窪32-10", "P29_006": "3", "P29_007": "1", "P29_008": "00", "P29_009": null }, "geometry": { "type": "Point", "coordinates": [ 141.439584999525664, 40.404203997630887 ] } },
{ "type": "Feature", "properties": { "P29_001": "02450", "P29_002": "B102210002676", "P29_003": "16001", "P29_004": "新郷村立新郷小学校", "P29_005": "青森県三戸郡新郷村戸来字大久保88", "P29_006": "3", "P29_007": "1", "P29_008": "00", "P29_009": null }, "geometry": { "type": "Point", "coordinates": [ 141.169461943541847, 40.465239931305561 ] } },
{ "type": "Feature", "properties": { "P29_001": "02202", "P29_002": "B102210002694", "P29_003": "16001", "P29_004": "弘前市立新和小学校", "P29_005": "青森県弘前市青女子字桜苅292-4", "P29_006": "3", "P29_007": "1", "P29_008": "00", "P29_009": null }, "geometry": { "type": "Point", "coordinates": [ 140.44365720068015, 40.695106865614953 ] } },
{ "type": "Feature", "properties": { "P29_001": "02206", "P29_002": "B102210002701", "P29_003": "16001", "P29_004": "十和田市立大深内小学校", "P29_005": "青森県十和田市洞内字千刈田24-6", "P29_006": "3", "P29_007": "1", "P29_008": "00", "P29_009": null }, "geometry": { "type": "Point", "coordinates": [ 141.215563321136671, 40.669376159051019 ] } },
{ "type": "Feature", "properties": { "P29_001": "02445", "P29_002": "B102210002710", "P29_003": "16001", "P29_004": "南部町立名川小学校", "P29_005": "青森県三戸郡南部町平字広場8", "P29_006": "3", "P29_007": "1", "P29_008": "00", "P29_009": null }, "geometry": { "type": "Point", "coordinates": [ 141.332066223113543, 40.422802030548063 ] } }
]
}
