{
"type": "FeatureCollection",
"name": "geo_2_4",
"crs": { "type": "name", "properties": { "name": "urn:ogc:def:crs:OGC:1.3:CRS84" } },
"features": [
{ "type": "Feature", "properties": { "ID": 240240000002, "正式名称": "マンマケア　まつえ助産院", "機関区分": 4, "都道府県コード": 2, "市区町村コード": 201, "所在地": "青森県青森市茶屋町３－２０", "緯度": 40.826805, "経度": 140.764693, "url": "https://www.iryou.teikyouseido.mhlw.go.jp/znk-web/juminkanja/S2430/initialize?prefCd=02&kikanCd=0240000002&kikanKbn=4", "url2": null, "内容": "マンマケア　まつえ助産院【4:助産院】青森県青森市茶屋町３－２０" }, "geometry": { "type": "Point", "coordinates": [ 140.764693, 40.826805 ] } },
{ "type": "Feature", "properties": { "ID": 240240000004, "正式名称": "レディースケアしらはま助産院", "機関区分": 4, "都道府県コード": 2, "市区町村コード": 202, "所在地": "青森県弘前市城東４－５－１　ナラオカビル１Ｆ", "緯度": 40.597408, "経度": 140.488032, "url": "https://www.iryou.teikyouseido.mhlw.go.jp/znk-web/juminkanja/S2430/initialize?prefCd=02&kikanCd=0240000004&kikanKbn=4", "url2": "https://www.shirahama-home.com/", "内容": "レディースケアしらはま助産院【4:助産院】青森県弘前市城東４－５－１　ナラオカビル１Ｆ" }, "geometry": { "type": "Point", "coordinates": [ 140.488032, 40.597408 ] } },
{ "type": "Feature", "properties": { "ID": 240240000005, "正式名称": "き子キッズ助産院", "機関区分": 4, "都道府県コード": 2, "市区町村コード": 203, "所在地": "青森県八戸市下長６－２－１９", "緯度": 40.529099, "経度": 141.470343, "url": "https://www.iryou.teikyouseido.mhlw.go.jp/znk-web/juminkanja/S2430/initialize?prefCd=02&kikanCd=0240000005&kikanKbn=4", "url2": null, "内容": "き子キッズ助産院【4:助産院】青森県八戸市下長６－２－１９" }, "geometry": { "type": "Point", "coordinates": [ 141.470343, 40.529099 ] } }
]
}
