{
"type": "FeatureCollection",
"name": "geo_02_特定福祉用具販売",
"crs": { "type": "name", "properties": { "name": "urn:ogc:def:crs:OGC:1.3:CRS84" } },
"features": [
{ "type": "Feature", "properties": { "内容": "なごやか介護サービスセンター【特定福祉用具販売】青森県青森市前田字中野23-1", "url": "https://www.kaigokensaku.mhlw.go.jp/02/index.php?action_kouhyou_detail_004_kani=true&JigyosyoCd=0270103237-00&ServiceCd=410&Type=search", "url2": "info@nagoya09.com" }, "geometry": { "type": "Point", "coordinates": [ 140.673951200000033, 40.8974611 ] } },
{ "type": "Feature", "properties": { "内容": "福祉用具サービス七ツ星【特定福祉用具販売】青森県青森市東大野2丁目3-7", "url": "https://www.kaigokensaku.mhlw.go.jp/02/index.php?action_kouhyou_detail_004_kani=true&JigyosyoCd=0270106180-00&ServiceCd=410&Type=search", "url2": "http://www.nijiweb.net" }, "geometry": { "type": "Point", "coordinates": [ 140.742548422753885, 40.798149440985163 ] } },
{ "type": "Feature", "properties": { "内容": "ヘルスケア薬局【特定福祉用具販売】青森県青森市橋本一丁目8番7号", "url": "https://www.kaigokensaku.mhlw.go.jp/02/index.php?action_kouhyou_detail_004_kani=true&JigyosyoCd=0270101470-00&ServiceCd=410&Type=search", "url2": null }, "geometry": { "type": "Point", "coordinates": [ 140.754333699999961, 40.8254969 ] } },
{ "type": "Feature", "properties": { "内容": "あうら福祉用具【特定福祉用具販売】青森県青森市港町2丁目10番13号", "url": "https://www.kaigokensaku.mhlw.go.jp/02/index.php?action_kouhyou_detail_004_kani=true&JigyosyoCd=0270105836-00&ServiceCd=410&Type=search", "url2": "http://www.aura-group.jp/wp/" }, "geometry": { "type": "Point", "coordinates": [ 140.763604900000018, 40.830879800000034 ] } },
{ "type": "Feature", "properties": { "内容": "福祉用具サービス・ラポール【特定福祉用具販売】青森県青森市港町2丁目１３－７", "url": "https://www.kaigokensaku.mhlw.go.jp/02/index.php?action_kouhyou_detail_004_kani=true&JigyosyoCd=0270105752-00&ServiceCd=410&Type=search", "url2": null }, "geometry": { "type": "Point", "coordinates": [ 140.764583006745852, 40.830935267804371 ] } },
{ "type": "Feature", "properties": { "内容": "株式会社ケア・テック青森営業所【特定福祉用具販売】青森県青森市大野前田68-12", "url": "https://www.kaigokensaku.mhlw.go.jp/02/index.php?action_kouhyou_detail_004_kani=true&JigyosyoCd=0270106248-00&ServiceCd=410&Type=search", "url2": "https://www.caretec.co.jp/" }, "geometry": { "type": "Point", "coordinates": [ 140.7347423, 40.800418 ] } },
{ "type": "Feature", "properties": { "内容": "有限会社　トータルケアサービス【特定福祉用具販売】青森市浜田字豊田128-18", "url": "https://www.kaigokensaku.mhlw.go.jp/02/index.php?action_kouhyou_detail_004_kani=true&JigyosyoCd=0270100845-00&ServiceCd=410&Type=search", "url2": null }, "geometry": { "type": "Point", "coordinates": [ 140.754965, 40.7983161 ] } },
{ "type": "Feature", "properties": { "内容": "株式会社ケアライフ青森　福祉用具事業部【特定福祉用具販売】青森県青森市卸町3番5号", "url": "https://www.kaigokensaku.mhlw.go.jp/02/index.php?action_kouhyou_detail_004_kani=true&JigyosyoCd=0270100985-00&ServiceCd=410&Type=search", "url2": "http://www.carelife-net.co.jp" }, "geometry": { "type": "Point", "coordinates": [ 140.75562919999993, 40.7849978 ] } },
{ "type": "Feature", "properties": { "内容": "有限会社　青森ウイールチェアー【特定福祉用具販売】青森県青森市大字八ツ役字矢作74番地8", "url": "https://www.kaigokensaku.mhlw.go.jp/02/index.php?action_kouhyou_detail_004_kani=true&JigyosyoCd=0270102403-00&ServiceCd=410&Type=search", "url2": "http://www.smile-help.com" }, "geometry": { "type": "Point", "coordinates": [ 140.758312, 40.7955914 ] } },
{ "type": "Feature", "properties": { "内容": "株式会社　多田木工製作所　ウェルランド青森店【特定福祉用具販売】青森県青森市浪館前田4丁目29-3浅井アパート", "url": "https://www.kaigokensaku.mhlw.go.jp/02/index.php?action_kouhyou_detail_004_kani=true&JigyosyoCd=0270102528-00&ServiceCd=410&Type=search", "url2": "http://www.wel-land.com/" }, "geometry": { "type": "Point", "coordinates": [ 140.7216416, 40.8099279 ] } },
{ "type": "Feature", "properties": { "内容": "トヨタカローラ青森介護福祉用具相談室ベイコート店【特定福祉用具販売】青森市沖館３丁目１番１８号ベイコートおきだて内１階", "url": "https://www.kaigokensaku.mhlw.go.jp/02/index.php?action_kouhyou_detail_004_kani=true&JigyosyoCd=0270104128-00&ServiceCd=410&Type=search", "url2": "http://www.toyota-ca.co.jp" }, "geometry": { "type": "Point", "coordinates": [ 140.724639149737527, 40.835468488139369 ] } },
{ "type": "Feature", "properties": { "内容": "ケアプラス青森店【特定福祉用具販売】篠田1丁目26番23", "url": "https://www.kaigokensaku.mhlw.go.jp/02/index.php?action_kouhyou_detail_004_kani=true&JigyosyoCd=0270104375-00&ServiceCd=410&Type=search", "url2": null }, "geometry": { "type": "Point", "coordinates": [ 140.728841232130861, 40.826947399673408 ] } },
{ "type": "Feature", "properties": { "内容": "アピイライフエイド【特定福祉用具販売】青森県青森市問屋町1丁目7-21", "url": "https://www.kaigokensaku.mhlw.go.jp/02/index.php?action_kouhyou_detail_004_kani=true&JigyosyoCd=0270105075-00&ServiceCd=410&Type=search", "url2": "https://www.ape-life.co.jp" }, "geometry": { "type": "Point", "coordinates": [ 140.757611900000029, 40.7885583 ] } },
{ "type": "Feature", "properties": { "内容": "やさしい手　住環境事業部青森営業所【特定福祉用具販売】青森市安田近野160-3やさしい手　住環境事業部青森営業所", "url": "https://www.kaigokensaku.mhlw.go.jp/02/index.php?action_kouhyou_detail_004_kani=true&JigyosyoCd=0270106222-00&ServiceCd=410&Type=search", "url2": "https://www.yasashiite.com/subdomains/section/618/" }, "geometry": { "type": "Point", "coordinates": [ 140.7043909, 40.8036038 ] } },
{ "type": "Feature", "properties": { "内容": "福祉用具サービス　リアン【特定福祉用具販売】青森市大字大野字前田66番地24五番館F105号", "url": "https://www.kaigokensaku.mhlw.go.jp/02/index.php?action_kouhyou_detail_004_kani=true&JigyosyoCd=0270106479-00&ServiceCd=410&Type=search", "url2": null }, "geometry": { "type": "Point", "coordinates": [ 140.73716673638458, 40.799185025434944 ] } },
{ "type": "Feature", "properties": { "内容": "住まいる・ケアサポート【特定福祉用具販売】青森県青森市浪岡大字浪岡字若松１７２－８", "url": "https://www.kaigokensaku.mhlw.go.jp/02/index.php?action_kouhyou_detail_004_kani=true&JigyosyoCd=0270106644-00&ServiceCd=410&Type=search", "url2": null }, "geometry": { "type": "Point", "coordinates": [ 140.588854199999986, 40.7069505 ] } },
{ "type": "Feature", "properties": { "内容": "株式会社　イリエ【特定福祉用具販売】青森県青森市大字安田字近野366番地6", "url": "https://www.kaigokensaku.mhlw.go.jp/02/index.php?action_kouhyou_detail_004_kani=true&JigyosyoCd=0270100548-00&ServiceCd=410&Type=search", "url2": null }, "geometry": { "type": "Point", "coordinates": [ 140.711751600000071, 40.8011976 ] } },
{ "type": "Feature", "properties": { "内容": "有限会社ケアエナジー青森【特定福祉用具販売】青森県青森市大字矢田前字本泉１８番地１８", "url": "https://www.kaigokensaku.mhlw.go.jp/02/index.php?action_kouhyou_detail_004_kani=true&JigyosyoCd=0270102056-00&ServiceCd=410&Type=search", "url2": null }, "geometry": { "type": "Point", "coordinates": [ 140.806959555638315, 40.830585048658683 ] } },
{ "type": "Feature", "properties": { "内容": "まちだ福祉用具貸与青森【特定福祉用具販売】大字羽白字沢田48番地10", "url": "https://www.kaigokensaku.mhlw.go.jp/02/index.php?action_kouhyou_detail_004_kani=true&JigyosyoCd=0270102957-00&ServiceCd=410&Type=search", "url2": null }, "geometry": { "type": "Point", "coordinates": [ 140.68997, 40.8544645 ] } },
{ "type": "Feature", "properties": { "内容": "福祉用具えんのした【特定福祉用具販売】青森県青森市中央3丁目2番7号", "url": "https://www.kaigokensaku.mhlw.go.jp/02/index.php?action_kouhyou_detail_004_kani=true&JigyosyoCd=0270105968-00&ServiceCd=410&Type=search", "url2": null }, "geometry": { "type": "Point", "coordinates": [ 140.7441551, 40.8173384 ] } },
{ "type": "Feature", "properties": { "内容": "ダスキンヘルスレント青森ステーション【特定福祉用具販売】青森県青森市はまなす1-17-18", "url": "https://www.kaigokensaku.mhlw.go.jp/02/index.php?action_kouhyou_detail_004_kani=true&JigyosyoCd=0270106032-00&ServiceCd=410&Type=search", "url2": "https://healthrent.duskin.jp/" }, "geometry": { "type": "Point", "coordinates": [ 140.79779, 40.822214500000015 ] } },
{ "type": "Feature", "properties": { "内容": "有限会社　青森ケアサプライ【特定福祉用具販売】青森市篠田１丁目２２番２３号", "url": "https://www.kaigokensaku.mhlw.go.jp/02/index.php?action_kouhyou_detail_004_kani=true&JigyosyoCd=0270101181-00&ServiceCd=410&Type=search", "url2": null }, "geometry": { "type": "Point", "coordinates": [ 140.730529400000023, 40.8287765 ] } },
{ "type": "Feature", "properties": { "内容": "株式会社　フィット・ケアサービス【特定福祉用具販売】青森県弘前市泉野四丁目２－１１", "url": "https://www.kaigokensaku.mhlw.go.jp/02/index.php?action_kouhyou_detail_004_kani=true&JigyosyoCd=0270202641-00&ServiceCd=410&Type=search", "url2": null }, "geometry": { "type": "Point", "coordinates": [ 140.495468699999947, 40.5770056 ] } },
{ "type": "Feature", "properties": { "内容": "株式会社サンメディカル弘前営業所【特定福祉用具販売】青森県弘前市大字大町1丁目18-6", "url": "https://www.kaigokensaku.mhlw.go.jp/02/index.php?action_kouhyou_detail_004_kani=true&JigyosyoCd=0270203748-00&ServiceCd=410&Type=search", "url2": "https://sunme.co.jp/" }, "geometry": { "type": "Point", "coordinates": [ 140.484436877029424, 40.595290492011529 ] } },
{ "type": "Feature", "properties": { "内容": "東北化学薬品株式会社【特定福祉用具販売】青森県弘前市大字神田１丁目２番地の１４", "url": "https://www.kaigokensaku.mhlw.go.jp/02/index.php?action_kouhyou_detail_004_kani=true&JigyosyoCd=0270204431-00&ServiceCd=410&Type=search", "url2": null }, "geometry": { "type": "Point", "coordinates": [ 140.4891877, 40.6201938 ] } },
{ "type": "Feature", "properties": { "内容": "株式会社　ケア・テック弘前営業所【特定福祉用具販売】青森県弘前市青山4-20-3", "url": "https://www.kaigokensaku.mhlw.go.jp/02/index.php?action_kouhyou_detail_004_kani=true&JigyosyoCd=0270203888-00&ServiceCd=410&Type=search", "url2": "http：//www.caretec.co.jp" }, "geometry": { "type": "Point", "coordinates": [ 140.483156799999989, 40.6268585 ] } },
{ "type": "Feature", "properties": { "内容": "サカエ福祉サービス弘前【特定福祉用具販売】津賀野字浅田996", "url": "https://www.kaigokensaku.mhlw.go.jp/02/index.php?action_kouhyou_detail_004_kani=true&JigyosyoCd=0270203318-00&ServiceCd=410&Type=search", "url2": "http://machida2.co.jp" }, "geometry": { "type": "Point", "coordinates": [ 140.4886821, 40.6426022 ] } },
{ "type": "Feature", "properties": { "内容": "ダスキンヘルスレント弘前ステーション【特定福祉用具販売】青森県弘前市大字川先1丁目3-12", "url": "https://www.kaigokensaku.mhlw.go.jp/02/index.php?action_kouhyou_detail_004_kani=true&JigyosyoCd=0270203458-00&ServiceCd=410&Type=search", "url2": null }, "geometry": { "type": "Point", "coordinates": [ 140.4925337, 40.5886605 ] } },
{ "type": "Feature", "properties": { "内容": "ニチイケアセンター八戸【特定福祉用具販売】八戸市根城3丁目4-17", "url": "https://www.kaigokensaku.mhlw.go.jp/02/index.php?action_kouhyou_detail_004_kani=true&JigyosyoCd=0270300502-00&ServiceCd=410&Type=search", "url2": "http://www.nichiigakkan.co.jp" }, "geometry": { "type": "Point", "coordinates": [ 141.47597479999996, 40.5026238 ] } },
{ "type": "Feature", "properties": { "内容": "ケアステーション　ハピネスはちのへ【特定福祉用具販売】青森県八戸市新荒町12-12", "url": "https://www.kaigokensaku.mhlw.go.jp/02/index.php?action_kouhyou_detail_004_kani=true&JigyosyoCd=0270301971-00&ServiceCd=410&Type=search", "url2": null }, "geometry": { "type": "Point", "coordinates": [ 141.4830682, 40.5064795 ] } },
{ "type": "Feature", "properties": { "内容": "ライフサポートここら【特定福祉用具販売】青森県八戸市桜ケ丘2丁目38番地28号", "url": "https://www.kaigokensaku.mhlw.go.jp/02/index.php?action_kouhyou_detail_004_kani=true&JigyosyoCd=0270304421-00&ServiceCd=410&Type=search", "url2": "https://lifesup-cocora.com/lifesupportcocora-mains" }, "geometry": { "type": "Point", "coordinates": [ 141.5501189, 40.4937185 ] } },
{ "type": "Feature", "properties": { "内容": "奥羽特装販売株式会社　アメニティ・ライフ【特定福祉用具販売】青森県八戸市八太郎一丁目1番8号", "url": "https://www.kaigokensaku.mhlw.go.jp/02/index.php?action_kouhyou_detail_004_kani=true&JigyosyoCd=0270300494-00&ServiceCd=410&Type=search", "url2": "http://www.amenitylife.info/" }, "geometry": { "type": "Point", "coordinates": [ 141.489728300000024, 40.5364775 ] } },
{ "type": "Feature", "properties": { "内容": "有限会社ケアショップノザワ【特定福祉用具販売】青森県八戸市小中野５丁目２番５号　大町マンションテナントD", "url": "https://www.kaigokensaku.mhlw.go.jp/02/index.php?action_kouhyou_detail_004_kani=true&JigyosyoCd=0270300916-00&ServiceCd=410&Type=search", "url2": "http://nozawa.hp.gogo.jp/" }, "geometry": { "type": "Point", "coordinates": [ 141.512631622476221, 40.520213241089166 ] } },
{ "type": "Feature", "properties": { "内容": "アイリスケアサービス【特定福祉用具販売】青森県八戸市小中野１丁目３番４５号", "url": "https://www.kaigokensaku.mhlw.go.jp/02/index.php?action_kouhyou_detail_004_kani=true&JigyosyoCd=0270300940-00&ServiceCd=410&Type=search", "url2": null }, "geometry": { "type": "Point", "coordinates": [ 141.5070926, 40.5180779 ] } },
{ "type": "Feature", "properties": { "内容": "株式会社サンメディックス　シルバーレンタルサービス【特定福祉用具販売】青森県八戸市河原木八太郎山10-624", "url": "https://www.kaigokensaku.mhlw.go.jp/02/index.php?action_kouhyou_detail_004_kani=true&JigyosyoCd=0270301138-00&ServiceCd=410&Type=search", "url2": null }, "geometry": { "type": "Point", "coordinates": [ 141.482770399999907, 40.5519673 ] } },
{ "type": "Feature", "properties": { "内容": "ケアサプライアルック【特定福祉用具販売】青森県八戸市大久保字大山７４番地４", "url": "https://www.kaigokensaku.mhlw.go.jp/02/index.php?action_kouhyou_detail_004_kani=true&JigyosyoCd=0270301179-00&ServiceCd=410&Type=search", "url2": null }, "geometry": { "type": "Point", "coordinates": [ 141.578565300000037, 40.4884221 ] } },
{ "type": "Feature", "properties": { "内容": "有限会社　くらし工房　大永【特定福祉用具販売】青森県八戸市大字田向字向平24－8", "url": "https://www.kaigokensaku.mhlw.go.jp/02/index.php?action_kouhyou_detail_004_kani=true&JigyosyoCd=0270301922-00&ServiceCd=410&Type=search", "url2": null }, "geometry": { "type": "Point", "coordinates": [ 141.504658028020913, 40.490241591339981 ] } },
{ "type": "Feature", "properties": { "内容": "株式会社サンメディカル　八戸営業所【特定福祉用具販売】青森県八戸市石堂３丁目9-4", "url": "https://www.kaigokensaku.mhlw.go.jp/02/index.php?action_kouhyou_detail_004_kani=true&JigyosyoCd=0270302466-00&ServiceCd=410&Type=search", "url2": "https://sunme.jp/" }, "geometry": { "type": "Point", "coordinates": [ 141.47869890000004, 40.5252413 ] } },
{ "type": "Feature", "properties": { "内容": "ひので福祉用具相談センター【特定福祉用具販売】長根2丁目14-2", "url": "https://www.kaigokensaku.mhlw.go.jp/02/index.php?action_kouhyou_detail_004_kani=true&JigyosyoCd=0270302821-00&ServiceCd=410&Type=search", "url2": "https://sunrise-team.com/" }, "geometry": { "type": "Point", "coordinates": [ 141.47518070000001, 40.5155399 ] } },
{ "type": "Feature", "properties": { "内容": "有限会社ケアサポートホソタ八戸営業所【特定福祉用具販売】青森県八戸市大字白銀町字大沢頭29-1", "url": "https://www.kaigokensaku.mhlw.go.jp/02/index.php?action_kouhyou_detail_004_kani=true&JigyosyoCd=0270304199-00&ServiceCd=410&Type=search", "url2": null }, "geometry": { "type": "Point", "coordinates": [ 141.538413692590325, 40.517811644488255 ] } },
{ "type": "Feature", "properties": { "内容": "パナソニックエイジフリーショップ青森【特定福祉用具販売】桔梗野工業団地三丁目１－４３", "url": "https://www.kaigokensaku.mhlw.go.jp/02/index.php?action_kouhyou_detail_004_kani=true&JigyosyoCd=0270303779-00&ServiceCd=410&Type=search", "url2": "http://www.kaigoshop.net/aomori/" }, "geometry": { "type": "Point", "coordinates": [ 141.457490399999983, 40.5708251 ] } },
{ "type": "Feature", "properties": { "内容": "有限会社　ジャストサービス【特定福祉用具販売】青森県黒石市大字市ノ町４８番地", "url": "https://www.kaigokensaku.mhlw.go.jp/02/index.php?action_kouhyou_detail_004_kani=true&JigyosyoCd=0270400146-00&ServiceCd=410&Type=search", "url2": "http://www.just-service.jp" }, "geometry": { "type": "Point", "coordinates": [ 140.5934648, 40.6436567 ] } },
{ "type": "Feature", "properties": { "内容": "株式会社トータルプロセス【特定福祉用具販売】青森県黒石市大字牡丹平字福民西58-1", "url": "https://www.kaigokensaku.mhlw.go.jp/02/index.php?action_kouhyou_detail_004_kani=true&JigyosyoCd=0270400641-00&ServiceCd=410&Type=search", "url2": null }, "geometry": { "type": "Point", "coordinates": [ 140.61416250000002, 40.641629100000017 ] } },
{ "type": "Feature", "properties": { "内容": "サカエ福祉サービス【特定福祉用具販売】青森県五所川原市弥生町18-8", "url": "https://www.kaigokensaku.mhlw.go.jp/02/index.php?action_kouhyou_detail_004_kani=true&JigyosyoCd=0270500879-00&ServiceCd=410&Type=search", "url2": "http://www.machida2.co.jp/" }, "geometry": { "type": "Point", "coordinates": [ 140.446554214819344, 40.806136486900911 ] } },
{ "type": "Feature", "properties": { "内容": "JA十和田おいらせ福祉用具センター「きずな」【特定福祉用具販売】青森県十和田市東一番町6-51JA十和田おいらせ三本木事業所１階", "url": "https://www.kaigokensaku.mhlw.go.jp/02/index.php?action_kouhyou_detail_004_kani=true&JigyosyoCd=0270600778-00&ServiceCd=410&Type=search", "url2": "http://care-net.biz/02/kizuna/" }, "geometry": { "type": "Point", "coordinates": [ 141.215082599999988, 40.6197867 ] } },
{ "type": "Feature", "properties": { "内容": "福祉用具　虹呼【特定福祉用具販売】東十三番町33番18-10号向井宅(2F)", "url": "https://www.kaigokensaku.mhlw.go.jp/02/index.php?action_kouhyou_detail_004_kani=true&JigyosyoCd=0270601339-00&ServiceCd=410&Type=search", "url2": null }, "geometry": { "type": "Point", "coordinates": [ 141.2288671, 40.6161177 ] } },
{ "type": "Feature", "properties": { "内容": "株式会社　サンメディックス　シルバーレンタルサービスとわだ【特定福祉用具販売】青森県十和田市相坂字高清水78-189", "url": "https://www.kaigokensaku.mhlw.go.jp/02/index.php?action_kouhyou_detail_004_kani=true&JigyosyoCd=0270600273-00&ServiceCd=410&Type=search", "url2": null }, "geometry": { "type": "Point", "coordinates": [ 141.268467500000042, 40.6383135 ] } },
{ "type": "Feature", "properties": { "内容": "有限会社ア・ジェント【特定福祉用具販売】青森県十和田市西二十三番町15-4", "url": "https://www.kaigokensaku.mhlw.go.jp/02/index.php?action_kouhyou_detail_004_kani=true&JigyosyoCd=0270601206-00&ServiceCd=410&Type=search", "url2": "https://a-jent.wixsite.com/a-jent" }, "geometry": { "type": "Point", "coordinates": [ 141.2036349, 40.6053001 ] } },
{ "type": "Feature", "properties": { "内容": "有限会社アトムスプランニング　ケア・サポートマデニィ【特定福祉用具販売】むつ市柳町一丁目9-7", "url": "https://www.kaigokensaku.mhlw.go.jp/02/index.php?action_kouhyou_detail_004_kani=true&JigyosyoCd=0270800634-00&ServiceCd=410&Type=search", "url2": null }, "geometry": { "type": "Point", "coordinates": [ 141.2151371, 41.2982211 ] } },
{ "type": "Feature", "properties": { "内容": "トヨタカローラ青森株式会社介護福祉用具相談室柏店【特定福祉用具販売】青森県つがる市柏鷺坂清留25番地", "url": "https://www.kaigokensaku.mhlw.go.jp/02/index.php?action_kouhyou_detail_004_kani=true&JigyosyoCd=0270900152-00&ServiceCd=410&Type=search", "url2": "http://www.toyota-ca.co/jp" }, "geometry": { "type": "Point", "coordinates": [ 140.4269716, 40.8081877 ] } },
{ "type": "Feature", "properties": { "内容": "トヨタカローラ青森(株)介護福祉用具相談室【特定福祉用具販売】平川市日沼富岳29-2", "url": "https://www.kaigokensaku.mhlw.go.jp/02/index.php?action_kouhyou_detail_004_kani=true&JigyosyoCd=0271000010-00&ServiceCd=410&Type=search", "url2": "http://www.toyota-ca.co.jp" }, "geometry": { "type": "Point", "coordinates": [ 140.527332800000067, 40.6142056 ] } },
{ "type": "Feature", "properties": { "内容": "まちだ福祉用具貸与【特定福祉用具販売】青森県北津軽郡板柳町大字福野田字実田48番地1", "url": "https://www.kaigokensaku.mhlw.go.jp/02/index.php?action_kouhyou_detail_004_kani=true&JigyosyoCd=0272401134-00&ServiceCd=410&Type=search", "url2": "http://www.koujin-kaigo.com/index.html" }, "geometry": { "type": "Point", "coordinates": [ 140.460622408459443, 40.697926654883766 ] } },
{ "type": "Feature", "properties": { "内容": "ペアレント福祉用具サービス【特定福祉用具販売】青森県北津軽郡板柳町大字横沢字宮元146-6", "url": "https://www.kaigokensaku.mhlw.go.jp/02/index.php?action_kouhyou_detail_004_kani=true&JigyosyoCd=0272401282-00&ServiceCd=410&Type=search", "url2": null }, "geometry": { "type": "Point", "coordinates": [ 140.4727488, 40.6862476 ] } },
{ "type": "Feature", "properties": { "内容": "エイジーケアサービス【特定福祉用具販売】青森県上北郡野辺地町字大月平６７－２３", "url": "https://www.kaigokensaku.mhlw.go.jp/02/index.php?action_kouhyou_detail_004_kani=true&JigyosyoCd=0272501610-00&ServiceCd=410&Type=search", "url2": "https://www.a-z-care.com/" }, "geometry": { "type": "Point", "coordinates": [ 141.145336065606671, 40.877131637703933 ] } }
]
}
