{
"type": "FeatureCollection",
"name": "geo_02_訪問リハビリテーション",
"crs": { "type": "name", "properties": { "name": "urn:ogc:def:crs:OGC:1.3:CRS84" } },
"features": [
{ "type": "Feature", "properties": { "内容": "青森新都市病院　訪問リハビリテーション【訪問リハビリテーション】青森県青森市石江3丁目1番地", "url": "https://www.kaigokensaku.mhlw.go.jp/02/index.php?action_kouhyou_detail_004_kani=true&JigyosyoCd=0210118576-00&ServiceCd=140&Type=search", "url2": "http://aomorishintoshi-hp.yushinkai.jp/" }, "geometry": { "type": "Point", "coordinates": [ 140.6916922, 40.8291678 ] } },
{ "type": "Feature", "properties": { "内容": "青森慈恵会病院　訪問リハビリテーション【訪問リハビリテーション】青森県青森市大字安田字近野146-1", "url": "https://www.kaigokensaku.mhlw.go.jp/02/index.php?action_kouhyou_detail_004_kani=true&JigyosyoCd=0210114450-00&ServiceCd=140&Type=search", "url2": "jikeikai.aomori.jp" }, "geometry": { "type": "Point", "coordinates": [ 140.7055753, 40.8032329 ] } },
{ "type": "Feature", "properties": { "内容": "青森厚生病院　介護事業部【訪問リハビリテーション】青森県青森市大字新城字山田488番地1", "url": "https://www.kaigokensaku.mhlw.go.jp/02/index.php?action_kouhyou_detail_004_kani=true&JigyosyoCd=0210114989-00&ServiceCd=140&Type=search", "url2": "https://soujinkai-kousei.org/kousei-aomori/" }, "geometry": { "type": "Point", "coordinates": [ 140.6771759, 40.8363102 ] } },
{ "type": "Feature", "properties": { "内容": "あおもり協立病院【訪問リハビリテーション】青森県青森市東大野2-1-10", "url": "https://www.kaigokensaku.mhlw.go.jp/02/index.php?action_kouhyou_detail_004_kani=true&JigyosyoCd=0210116307-00&ServiceCd=140&Type=search", "url2": "https://www.aomori-h-coop.com/kyoritsu/" }, "geometry": { "type": "Point", "coordinates": [ 140.7417935, 40.8000749 ] } },
{ "type": "Feature", "properties": { "内容": "青森クリニック【訪問リハビリテーション】青森市篠田1丁目９－１１", "url": "https://www.kaigokensaku.mhlw.go.jp/02/index.php?action_kouhyou_detail_004_kani=true&JigyosyoCd=0210117149-00&ServiceCd=140&Type=search", "url2": "http://www.a-clinic.jp/index.html" }, "geometry": { "type": "Point", "coordinates": [ 140.729496199999971, 40.8261072 ] } },
{ "type": "Feature", "properties": { "内容": "津軽医院　訪問リハビリテーション【訪問リハビリテーション】青森県青森市浪岡大字浪岡字浅井205", "url": "https://www.kaigokensaku.mhlw.go.jp/02/index.php?action_kouhyou_detail_004_kani=true&JigyosyoCd=0210117735-00&ServiceCd=140&Type=search", "url2": null }, "geometry": { "type": "Point", "coordinates": [ 140.5932603, 40.7136332 ] } },
{ "type": "Feature", "properties": { "内容": "訪問リハビリテーション　ブルーム【訪問リハビリテーション】青森県青森市大字矢田前字弥生田４７－２", "url": "https://www.kaigokensaku.mhlw.go.jp/02/index.php?action_kouhyou_detail_004_kani=true&JigyosyoCd=0270105653-00&ServiceCd=140&Type=search", "url2": "www.keiju-w.or.jp" }, "geometry": { "type": "Point", "coordinates": [ 140.808478700000023, 40.8292307 ] } },
{ "type": "Feature", "properties": { "内容": "村上病院【訪問リハビリテーション】青森市浜田3丁目3-14", "url": "https://www.kaigokensaku.mhlw.go.jp/02/index.php?action_kouhyou_detail_004_kani=true&JigyosyoCd=0210118311-00&ServiceCd=140&Type=search", "url2": "http://www.fuyoukai.or.jp/murakami_h/" }, "geometry": { "type": "Point", "coordinates": [ 140.749143199999907, 40.7975604 ] } },
{ "type": "Feature", "properties": { "内容": "一般財団法人　黎明郷　弘前脳卒中・リハビリテーションセンター【訪問リハビリテーション】青森県弘前市大字扇町一丁目２番地１", "url": "https://www.kaigokensaku.mhlw.go.jp/02/index.php?action_kouhyou_detail_004_kani=true&JigyosyoCd=0210215117-00&ServiceCd=140&Type=search", "url2": "https://reimeikyou.jp/hsc/" }, "geometry": { "type": "Point", "coordinates": [ 140.5038783, 40.5867522 ] } },
{ "type": "Feature", "properties": { "内容": "健生クリニック　リハビリセンター【訪問リハビリテーション】青森県弘前市大字扇町2丁目2-12健生クリニック", "url": "https://www.kaigokensaku.mhlw.go.jp/02/index.php?action_kouhyou_detail_004_kani=true&JigyosyoCd=0210215687-00&ServiceCd=140&Type=search", "url2": "http://www.kensei-hp.jp/" }, "geometry": { "type": "Point", "coordinates": [ 140.501270874868766, 40.586237186663546 ] } },
{ "type": "Feature", "properties": { "内容": "弘愛会病院【訪問リハビリテーション】青森県弘前市宮川3-1-4", "url": "https://www.kaigokensaku.mhlw.go.jp/02/index.php?action_kouhyou_detail_004_kani=true&JigyosyoCd=0210212858-00&ServiceCd=140&Type=search", "url2": "https://www.kouaikai.com/" }, "geometry": { "type": "Point", "coordinates": [ 140.4851266, 40.6151312 ] } },
{ "type": "Feature", "properties": { "内容": "八戸城北病院【訪問リハビリテーション】石堂1丁目14-14", "url": "https://www.kaigokensaku.mhlw.go.jp/02/index.php?action_kouhyou_detail_004_kani=true&JigyosyoCd=0210314001-00&ServiceCd=140&Type=search", "url2": "http://www.jouhoku-hp.jp/" }, "geometry": { "type": "Point", "coordinates": [ 141.480804600000056, 40.5296451 ] } },
{ "type": "Feature", "properties": { "内容": "ちょうじゃの森内科クリニック【訪問リハビリテーション】八戸市大字糠塚字下道7番地32ちょうじゃの森内科クリニック", "url": "https://www.kaigokensaku.mhlw.go.jp/02/index.php?action_kouhyou_detail_004_kani=true&JigyosyoCd=0210314118-00&ServiceCd=140&Type=search", "url2": "http://www.choujanomori-naika.com" }, "geometry": { "type": "Point", "coordinates": [ 141.489196, 40.5059763 ] } },
{ "type": "Feature", "properties": { "内容": "八戸医療生活協同組合　八戸生協診療所　訪問リハビリテーション【訪問リハビリテーション】青森県八戸市南類家1-17-1", "url": "https://www.kaigokensaku.mhlw.go.jp/02/index.php?action_kouhyou_detail_004_kani=true&JigyosyoCd=0210314530-00&ServiceCd=140&Type=search", "url2": "https://www.hachinohe-iryou.jp/" }, "geometry": { "type": "Point", "coordinates": [ 141.5033582, 40.5037617 ] } },
{ "type": "Feature", "properties": { "内容": "なかざわスポーツクリニック【訪問リハビリテーション】青森県八戸市新井田館下1番地", "url": "https://www.kaigokensaku.mhlw.go.jp/02/index.php?action_kouhyou_detail_004_kani=true&JigyosyoCd=0210315776-00&ServiceCd=140&Type=search", "url2": "http://www.nakazawa-clinic.com" }, "geometry": { "type": "Point", "coordinates": [ 141.520557700000012, 40.4923625 ] } },
{ "type": "Feature", "properties": { "内容": "メディカルコート　八戸西病院【訪問リハビリテーション】青森県八戸市長苗代字中坪７７番地", "url": "https://www.kaigokensaku.mhlw.go.jp/02/index.php?action_kouhyou_detail_004_kani=true&JigyosyoCd=0210316279-00&ServiceCd=140&Type=search", "url2": "http://www.sg-silver.or.jp/" }, "geometry": { "type": "Point", "coordinates": [ 141.451386100000036, 40.5170214 ] } },
{ "type": "Feature", "properties": { "内容": "シルバークリニック【訪問リハビリテーション】青森県八戸市大字河原木字八太郎山10-444", "url": "https://www.kaigokensaku.mhlw.go.jp/02/index.php?action_kouhyou_detail_004_kani=true&JigyosyoCd=0210316287-00&ServiceCd=140&Type=search", "url2": "http://sg-silver.com/" }, "geometry": { "type": "Point", "coordinates": [ 141.483995064417968, 40.552054675968883 ] } },
{ "type": "Feature", "properties": { "内容": "サンライフ豊寿苑【訪問リハビリテーション】青森県八戸市石堂一丁目14-11", "url": "https://www.kaigokensaku.mhlw.go.jp/02/index.php?action_kouhyou_detail_004_kani=true&JigyosyoCd=0250390029-00&ServiceCd=140&Type=search", "url2": "https://jouhoku-hp.jp/" }, "geometry": { "type": "Point", "coordinates": [ 141.4801946, 40.5293916 ] } },
{ "type": "Feature", "properties": { "内容": "津軽保健生活協同組合　健生五所川原診療所【訪問リハビリテーション】青森県五所川原市一ツ谷508-7", "url": "https://www.kaigokensaku.mhlw.go.jp/02/index.php?action_kouhyou_detail_004_kani=true&JigyosyoCd=0210510897-00&ServiceCd=140&Type=search", "url2": null }, "geometry": { "type": "Point", "coordinates": [ 140.4521694, 40.8103077 ] } },
{ "type": "Feature", "properties": { "内容": "つがる西北五広域連合かなぎ病院【訪問リハビリテーション】青森県五所川原市金木町菅原１３番１", "url": "https://www.kaigokensaku.mhlw.go.jp/02/index.php?action_kouhyou_detail_004_kani=true&JigyosyoCd=0210511416-00&ServiceCd=140&Type=search", "url2": "https://www.tsgren.jp/kanagi-hospital/" }, "geometry": { "type": "Point", "coordinates": [ 140.453837056344611, 40.900445620327879 ] } },
{ "type": "Feature", "properties": { "内容": "十和田第一病院【訪問リハビリテーション】青森県十和田市東三番町10-70十和田第一病院", "url": "https://www.kaigokensaku.mhlw.go.jp/02/index.php?action_kouhyou_detail_004_kani=true&JigyosyoCd=0210610846-00&ServiceCd=140&Type=search", "url2": "http://www.towadahp.or.jp/" }, "geometry": { "type": "Point", "coordinates": [ 141.2199445, 40.6120638 ] } },
{ "type": "Feature", "properties": { "内容": "老人保健施設　みのり苑　訪問リハビリテーション【訪問リハビリテーション】青森県十和田市大字切田字横道100-22", "url": "https://www.kaigokensaku.mhlw.go.jp/02/index.php?action_kouhyou_detail_004_kani=true&JigyosyoCd=0250680014-00&ServiceCd=140&Type=search", "url2": "http://www.fukushinosato.com" }, "geometry": { "type": "Point", "coordinates": [ 141.19334379999998, 40.5693722 ] } },
{ "type": "Feature", "properties": { "内容": "むつリハビリテーション病院【訪問リハビリテーション】青森県むつ市桜木町１３番１号", "url": "https://www.kaigokensaku.mhlw.go.jp/02/index.php?action_kouhyou_detail_004_kani=true&JigyosyoCd=0210810636-00&ServiceCd=140&Type=search", "url2": "http://www.rihabiri-mutsu.jp" }, "geometry": { "type": "Point", "coordinates": [ 141.1317421, 41.2507577 ] } },
{ "type": "Feature", "properties": { "内容": "介護老人保健施設　はまなす苑【訪問リハビリテーション】青森県むつ市大字奥内字金谷沢1-167", "url": "https://www.kaigokensaku.mhlw.go.jp/02/index.php?action_kouhyou_detail_004_kani=true&JigyosyoCd=0250880010-00&ServiceCd=140&Type=search", "url2": null }, "geometry": { "type": "Point", "coordinates": [ 141.2475985, 41.2320275 ] } },
{ "type": "Feature", "properties": { "内容": "みちのく訪問リハビリテーションセンター【訪問リハビリテーション】青森県むつ市金谷二丁目20番1号みちのく金谷リハビリテーションセンター", "url": "https://www.kaigokensaku.mhlw.go.jp/02/index.php?action_kouhyou_detail_004_kani=true&JigyosyoCd=0270800659-00&ServiceCd=140&Type=search", "url2": "http://www.michinokuso.or.jp" }, "geometry": { "type": "Point", "coordinates": [ 141.194152, 41.295857 ] } },
{ "type": "Feature", "properties": { "内容": "平内町国民健康保険平内中央病院【訪問リハビリテーション】青森県東津軽郡平内町大字小湊字外ノ沢１－１", "url": "https://www.kaigokensaku.mhlw.go.jp/02/index.php?action_kouhyou_detail_004_kani=true&JigyosyoCd=0212010748-00&ServiceCd=140&Type=search", "url2": "https://www.hiranai-chp.jp/" }, "geometry": { "type": "Point", "coordinates": [ 140.947006900000019, 40.9197589 ] } },
{ "type": "Feature", "properties": { "内容": "外ヶ浜町介護老人保健施設たんぽぽ【訪問リハビリテーション】青森県東津軽郡外ヶ浜町字下蟹田42-1", "url": "https://www.kaigokensaku.mhlw.go.jp/02/index.php?action_kouhyou_detail_004_kani=true&JigyosyoCd=0252080007-00&ServiceCd=140&Type=search", "url2": "https://www.town.sotogahama.lg.jp/kurashi/byouin/2025-0318-1117-18.html" }, "geometry": { "type": "Point", "coordinates": [ 140.639391, 41.0419403 ] } },
{ "type": "Feature", "properties": { "内容": "老人保健施設ながだい荘【訪問リハビリテーション】青森県西津軽郡鯵ヶ沢町大字長平町字甲音羽山６５-４１２老人保健施設ながだい荘", "url": "https://www.kaigokensaku.mhlw.go.jp/02/index.php?action_kouhyou_detail_004_kani=true&JigyosyoCd=0252180013-00&ServiceCd=140&Type=search", "url2": "http://otowakai.or.jp/" }, "geometry": { "type": "Point", "coordinates": [ 140.287495499999977, 40.7118681 ] } },
{ "type": "Feature", "properties": { "内容": "ときわ会病院【訪問リハビリテーション】大字榊字亀田2-1", "url": "https://www.kaigokensaku.mhlw.go.jp/02/index.php?action_kouhyou_detail_004_kani=true&JigyosyoCd=0212310973-00&ServiceCd=140&Type=search", "url2": "tkhp-reha@tokiwakai.or.jp" }, "geometry": { "type": "Point", "coordinates": [ 140.533038, 40.6728375 ] } },
{ "type": "Feature", "properties": { "内容": "北部上北広域事務組合　公立野辺地病院【訪問リハビリテーション】青森県上北郡野辺地町字鳴沢9-12", "url": "https://www.kaigokensaku.mhlw.go.jp/02/index.php?action_kouhyou_detail_004_kani=true&JigyosyoCd=0212511588-00&ServiceCd=140&Type=search", "url2": "http://hospital-noheji-aomori.jp" }, "geometry": { "type": "Point", "coordinates": [ 141.12627729999997, 40.856095 ] } },
{ "type": "Feature", "properties": { "内容": "介護老人保健施設しもだ【訪問リハビリテーション】青森県上北郡おいらせ町山崎2592-7", "url": "https://www.kaigokensaku.mhlw.go.jp/02/index.php?action_kouhyou_detail_004_kani=true&JigyosyoCd=0252580022-00&ServiceCd=140&Type=search", "url2": "https://www.sg-shimoda.org/" }, "geometry": { "type": "Point", "coordinates": [ 141.401949750926178, 40.61417769253115 ] } },
{ "type": "Feature", "properties": { "内容": "東通村介護老人保健施設「のはなしょうぶ」【訪問リハビリテーション】青森県下北郡東通村砂子又字里１７番地２", "url": "https://www.kaigokensaku.mhlw.go.jp/02/index.php?action_kouhyou_detail_004_kani=true&JigyosyoCd=0252680004-00&ServiceCd=140&Type=search", "url2": "https://higashidori.jadecom.or.jp/" }, "geometry": { "type": "Point", "coordinates": [ 141.3374162, 41.2766595 ] } },
{ "type": "Feature", "properties": { "内容": "三戸町国民健康保険三戸中央病院【訪問リハビリテーション】青森県三戸郡三戸町大字川守田字沖中9番地1", "url": "https://www.kaigokensaku.mhlw.go.jp/02/index.php?action_kouhyou_detail_004_kani=true&JigyosyoCd=0212711170-00&ServiceCd=140&Type=search", "url2": "https://hospital.town.sannohe.aomori.jp/" }, "geometry": { "type": "Point", "coordinates": [ 141.2690217, 40.3912916 ] } },
{ "type": "Feature", "properties": { "内容": "医療法人孝信会　福原胃腸科外科医院【訪問リハビリテーション】青森県三戸郡田子町大字田子字上野ノ下タ９８－７", "url": "https://www.kaigokensaku.mhlw.go.jp/02/index.php?action_kouhyou_detail_004_kani=true&JigyosyoCd=0212711105-00&ServiceCd=140&Type=search", "url2": null }, "geometry": { "type": "Point", "coordinates": [ 141.159415800000033, 40.3441694 ] } }
]
}
