{
"type": "FeatureCollection",
"name": "geo_02_地域密着型通所介護",
"crs": { "type": "name", "properties": { "name": "urn:ogc:def:crs:OGC:1.3:CRS84" } },
"features": [
{ "type": "Feature", "properties": { "内容": "デイサービスきたえるーむ青森三内【地域密着型通所介護】青森県青森市大字三内字稲元90-7", "url2": "https://www.kaigokensaku.mhlw.go.jp/02/index.php?action_kouhyou_detail_004_kani=true&JigyosyoCd=0290100544-00&ServiceCd=780&Type=search" }, "geometry": { "type": "Point", "coordinates": [ 140.7136063, 40.8250014 ] } },
{ "type": "Feature", "properties": { "内容": "デイサービスセンターかねはま【地域密着型通所介護】青森県青森市大字大別内字葛野180番地", "url2": "https://www.kaigokensaku.mhlw.go.jp/02/index.php?action_kouhyou_detail_004_kani=true&JigyosyoCd=0270100571-00&ServiceCd=780&Type=search" }, "geometry": { "type": "Point", "coordinates": [ 140.7328933, 40.7578254 ] } },
{ "type": "Feature", "properties": { "内容": "デイサービスセンター三思園【地域密着型通所介護】青森市大字横内字若草1番地1", "url2": "https://www.kaigokensaku.mhlw.go.jp/02/index.php?action_kouhyou_detail_004_kani=true&JigyosyoCd=0270100597-00&ServiceCd=780&Type=search" }, "geometry": { "type": "Point", "coordinates": [ 140.760853699999984, 40.7847702 ] } },
{ "type": "Feature", "properties": { "内容": "デイサービスセンター　あおいうみ【地域密着型通所介護】青森県青森市安方1丁目103-2", "url2": "https://www.kaigokensaku.mhlw.go.jp/02/index.php?action_kouhyou_detail_004_kani=true&JigyosyoCd=0270101322-00&ServiceCd=780&Type=search" }, "geometry": { "type": "Point", "coordinates": [ 140.73887609999997, 40.8299627 ] } },
{ "type": "Feature", "properties": { "内容": "デイサービスセンター小牧野【地域密着型通所介護】青森県青森市大字荒川字筒井306-11", "url2": "https://www.kaigokensaku.mhlw.go.jp/02/index.php?action_kouhyou_detail_004_kani=true&JigyosyoCd=0270102189-00&ServiceCd=780&Type=search" }, "geometry": { "type": "Point", "coordinates": [ 140.727370599999972, 40.7774983 ] } },
{ "type": "Feature", "properties": { "内容": "デイサービスさくらの家【地域密着型通所介護】青森県青森市桜川5丁目17番6号", "url2": "https://www.kaigokensaku.mhlw.go.jp/02/index.php?action_kouhyou_detail_004_kani=true&JigyosyoCd=0270103757-00&ServiceCd=780&Type=search" }, "geometry": { "type": "Point", "coordinates": [ 140.771901899999989, 40.8129845 ] } },
{ "type": "Feature", "properties": { "内容": "デイサービス　さくら【地域密着型通所介護】青森県青森市小柳一丁目18-11", "url2": "https://www.kaigokensaku.mhlw.go.jp/02/index.php?action_kouhyou_detail_004_kani=true&JigyosyoCd=0270103807-00&ServiceCd=780&Type=search" }, "geometry": { "type": "Point", "coordinates": [ 140.791238799999974, 40.8222561 ] } },
{ "type": "Feature", "properties": { "内容": "小規模デイサービスアウルの森【地域密着型通所介護】青森県青森市松森３丁目１－１０", "url2": "https://www.kaigokensaku.mhlw.go.jp/02/index.php?action_kouhyou_detail_004_kani=true&JigyosyoCd=0270103864-00&ServiceCd=780&Type=search" }, "geometry": { "type": "Point", "coordinates": [ 140.77491, 40.8126902 ] } },
{ "type": "Feature", "properties": { "内容": "デイサービス沢庵【地域密着型通所介護】青森県青森市桂木4丁目3-14", "url2": "https://www.kaigokensaku.mhlw.go.jp/02/index.php?action_kouhyou_detail_004_kani=true&JigyosyoCd=0270103906-00&ServiceCd=780&Type=search" }, "geometry": { "type": "Point", "coordinates": [ 140.7516759, 40.8102204 ] } },
{ "type": "Feature", "properties": { "内容": "デイサービス　美法【地域密着型通所介護】古川1丁目10-9-1", "url2": "https://www.kaigokensaku.mhlw.go.jp/02/index.php?action_kouhyou_detail_004_kani=true&JigyosyoCd=0270104003-00&ServiceCd=780&Type=search" }, "geometry": { "type": "Point", "coordinates": [ 140.73581809999996, 40.8249298 ] } },
{ "type": "Feature", "properties": { "内容": "優・遊　介護ステーション【地域密着型通所介護】青森県青森市六枚橋字磯打40-1", "url2": "https://www.kaigokensaku.mhlw.go.jp/02/index.php?action_kouhyou_detail_004_kani=true&JigyosyoCd=0270104219-00&ServiceCd=780&Type=search" }, "geometry": { "type": "Point", "coordinates": [ 140.664164, 40.9322129 ] } },
{ "type": "Feature", "properties": { "内容": "デイサービス　ブロンディ【地域密着型通所介護】浜田1丁目6番1号", "url2": "https://www.kaigokensaku.mhlw.go.jp/02/index.php?action_kouhyou_detail_004_kani=true&JigyosyoCd=0270104235-00&ServiceCd=780&Type=search" }, "geometry": { "type": "Point", "coordinates": [ 132.506776899999977, 34.3875482 ] } },
{ "type": "Feature", "properties": { "内容": "青い鳥ハッピーホーム　リハビリスト俱楽部・ハッピーホーム【地域密着型通所介護】青森県青森市松森１丁目１５番地15号青い鳥ハッピーホーム　リハビリスト俱楽部・ハッピーホーム", "url2": "https://www.kaigokensaku.mhlw.go.jp/02/index.php?action_kouhyou_detail_004_kani=true&JigyosyoCd=0270104250-00&ServiceCd=780&Type=search" }, "geometry": { "type": "Point", "coordinates": [ 140.771218369647158, 40.820479047137837 ] } },
{ "type": "Feature", "properties": { "内容": "通所介護うぇるかめ【地域密着型通所介護】青森県青森市幸畑１丁目９番5号", "url2": "https://www.kaigokensaku.mhlw.go.jp/02/index.php?action_kouhyou_detail_004_kani=true&JigyosyoCd=0270104326-00&ServiceCd=780&Type=search" }, "geometry": { "type": "Point", "coordinates": [ 140.779967046032652, 40.781040429992416 ] } },
{ "type": "Feature", "properties": { "内容": "デイサービスセンター　ビバ・イン【地域密着型通所介護】青森県青森市奥野２丁目２０－１有料老人ホーム　ビバ・イン松原", "url2": "https://www.kaigokensaku.mhlw.go.jp/02/index.php?action_kouhyou_detail_004_kani=true&JigyosyoCd=0270104417-00&ServiceCd=780&Type=search" }, "geometry": { "type": "Point", "coordinates": [ 140.7628416, 40.8148286 ] } },
{ "type": "Feature", "properties": { "内容": "デイサービス遊楽苑【地域密着型通所介護】青森県青森市小柳3-6-12ﾃﾞｲｻｰﾋﾞｽ遊楽苑", "url2": "https://www.kaigokensaku.mhlw.go.jp/02/index.php?action_kouhyou_detail_004_kani=true&JigyosyoCd=0270104425-00&ServiceCd=780&Type=search" }, "geometry": { "type": "Point", "coordinates": [ 140.793938600000047, 40.8211424 ] } },
{ "type": "Feature", "properties": { "内容": "デイサービス　みちのく【地域密着型通所介護】青森市港町2丁目10-15", "url2": "https://www.kaigokensaku.mhlw.go.jp/02/index.php?action_kouhyou_detail_004_kani=true&JigyosyoCd=0270104490-00&ServiceCd=780&Type=search" }, "geometry": { "type": "Point", "coordinates": [ 140.762207799999942, 40.8301327 ] } },
{ "type": "Feature", "properties": { "内容": "デイサービスセンターまごの手【地域密着型通所介護】青森県青森市油川柳川54-8", "url2": "https://www.kaigokensaku.mhlw.go.jp/02/index.php?action_kouhyou_detail_004_kani=true&JigyosyoCd=0270104755-00&ServiceCd=780&Type=search" }, "geometry": { "type": "Point", "coordinates": [ 140.703014199999984, 40.8455849 ] } },
{ "type": "Feature", "properties": { "内容": "デイサービス八ツ橋【地域密着型通所介護】青森県青森市大字筒井字八ツ橋31-141", "url2": "https://www.kaigokensaku.mhlw.go.jp/02/index.php?action_kouhyou_detail_004_kani=true&JigyosyoCd=0270104961-00&ServiceCd=780&Type=search" }, "geometry": { "type": "Point", "coordinates": [ 140.772266422753944, 40.798025872880061 ] } },
{ "type": "Feature", "properties": { "内容": "デイサービス虹のひろば新城【地域密着型通所介護】青森県青森市新城字平岡190-34", "url2": "https://www.kaigokensaku.mhlw.go.jp/02/index.php?action_kouhyou_detail_004_kani=true&JigyosyoCd=0270105265-00&ServiceCd=780&Type=search" }, "geometry": { "type": "Point", "coordinates": [ 140.6758777, 40.8296388 ] } },
{ "type": "Feature", "properties": { "内容": "中央デイサービスリハビリクラブ【地域密着型通所介護】青森県青森市中央２丁目１番６号", "url2": "https://www.kaigokensaku.mhlw.go.jp/02/index.php?action_kouhyou_detail_004_kani=true&JigyosyoCd=0290100379-00&ServiceCd=780&Type=search" }, "geometry": { "type": "Point", "coordinates": [ 140.744596437434467, 40.81903866664944 ] } },
{ "type": "Feature", "properties": { "内容": "生活動作訓練型デイサービス　ほーむ【地域密着型通所介護】青森県青森市羽白字池上38-9", "url2": "https://www.kaigokensaku.mhlw.go.jp/02/index.php?action_kouhyou_detail_004_kani=true&JigyosyoCd=0290100460-00&ServiceCd=780&Type=search" }, "geometry": { "type": "Point", "coordinates": [ 140.686811840475485, 40.853102166552375 ] } },
{ "type": "Feature", "properties": { "内容": "リハビリスト倶楽部・メリーランド【地域密着型通所介護】奥野2丁目19‐1", "url2": "https://www.kaigokensaku.mhlw.go.jp/02/index.php?action_kouhyou_detail_004_kani=true&JigyosyoCd=0290100478-00&ServiceCd=780&Type=search" }, "geometry": { "type": "Point", "coordinates": [ 140.762263, 40.8151381 ] } },
{ "type": "Feature", "properties": { "内容": "樹楽　新青森【地域密着型通所介護】青森県青森市三内沢部418-11樹楽　新青森", "url2": "https://www.kaigokensaku.mhlw.go.jp/02/index.php?action_kouhyou_detail_004_kani=true&JigyosyoCd=0290100668-00&ServiceCd=780&Type=search" }, "geometry": { "type": "Point", "coordinates": [ 140.700320905299179, 40.821275837580025 ] } },
{ "type": "Feature", "properties": { "内容": "デイサービスいきいきクラブ桂木【地域密着型通所介護】青森県青森市桂木3丁目18-2", "url2": "https://www.kaigokensaku.mhlw.go.jp/02/index.php?action_kouhyou_detail_004_kani=true&JigyosyoCd=0290100700-00&ServiceCd=780&Type=search" }, "geometry": { "type": "Point", "coordinates": [ 140.7493911, 40.8108036 ] } },
{ "type": "Feature", "properties": { "内容": "コンパスウォーク青森千刈【地域密着型通所介護】青森県青森市千刈1－21－22", "url2": "https://www.kaigokensaku.mhlw.go.jp/02/index.php?action_kouhyou_detail_004_kani=true&JigyosyoCd=0290100759-00&ServiceCd=780&Type=search" }, "geometry": { "type": "Point", "coordinates": [ 140.724589079762239, 40.825780748196749 ] } },
{ "type": "Feature", "properties": { "内容": "デイサービスセンター藤の園【地域密着型通所介護】青森県青森市大字駒込字蛍沢387番地1特別養護老人ホーム藤の園2Ｆ", "url2": "https://www.kaigokensaku.mhlw.go.jp/02/index.php?action_kouhyou_detail_004_kani=true&JigyosyoCd=0290100411-00&ServiceCd=780&Type=search" }, "geometry": { "type": "Point", "coordinates": [ 140.813121099999989, 40.7926241 ] } },
{ "type": "Feature", "properties": { "内容": "デイサービスセンターフーミー【地域密着型通所介護】青森県青森市大字浪館字前田43番地5", "url2": "https://www.kaigokensaku.mhlw.go.jp/02/index.php?action_kouhyou_detail_004_kani=true&JigyosyoCd=0290100593-00&ServiceCd=780&Type=search" }, "geometry": { "type": "Point", "coordinates": [ 140.717201, 40.8077314 ] } },
{ "type": "Feature", "properties": { "内容": "デイサービスセンターいちか【地域密着型通所介護】青森県青森市南佃2丁目18-7", "url2": "https://www.kaigokensaku.mhlw.go.jp/02/index.php?action_kouhyou_detail_004_kani=true&JigyosyoCd=0290100734-00&ServiceCd=780&Type=search" }, "geometry": { "type": "Point", "coordinates": [ 140.7861969, 40.8161782 ] } },
{ "type": "Feature", "properties": { "内容": "デイサービスてｔｏて【地域密着型通所介護】青森県青森市赤坂1丁目46‐14", "url2": "https://www.kaigokensaku.mhlw.go.jp/02/index.php?action_kouhyou_detail_004_kani=true&JigyosyoCd=0290100452-00&ServiceCd=780&Type=search" }, "geometry": { "type": "Point", "coordinates": [ 140.811218599999989, 40.7975484 ] } },
{ "type": "Feature", "properties": { "内容": "デイサービスセンターあうら【地域密着型通所介護】青森県青森市幸畑２丁目６番10号", "url2": "https://www.kaigokensaku.mhlw.go.jp/02/index.php?action_kouhyou_detail_004_kani=true&JigyosyoCd=0270104318-00&ServiceCd=780&Type=search" }, "geometry": { "type": "Point", "coordinates": [ 140.78219630000001, 40.7850208 ] } },
{ "type": "Feature", "properties": { "内容": "デイサービス喜楽【地域密着型通所介護】青森県青森市西大野三丁目１１番地４シャーメゾンMIWA　　1F", "url2": "https://www.kaigokensaku.mhlw.go.jp/02/index.php?action_kouhyou_detail_004_kani=true&JigyosyoCd=0270103286-00&ServiceCd=780&Type=search" }, "geometry": { "type": "Point", "coordinates": [ 140.72590839999998, 40.800717800000029 ] } },
{ "type": "Feature", "properties": { "内容": "第二デイサービス喜楽【地域密着型通所介護】青森市西大野三丁目１１番地１９", "url2": "https://www.kaigokensaku.mhlw.go.jp/02/index.php?action_kouhyou_detail_004_kani=true&JigyosyoCd=0270104300-00&ServiceCd=780&Type=search" }, "geometry": { "type": "Point", "coordinates": [ 140.725833400000056, 40.8008206 ] } },
{ "type": "Feature", "properties": { "内容": "リハビリ特化型デイサービスあゆみ【地域密着型通所介護】青森県青森市本町３丁目４－１１はままち団地１階", "url2": "https://www.kaigokensaku.mhlw.go.jp/02/index.php?action_kouhyou_detail_004_kani=true&JigyosyoCd=0270104482-00&ServiceCd=780&Type=search" }, "geometry": { "type": "Point", "coordinates": [ 140.748865432242582, 40.8279826 ] } },
{ "type": "Feature", "properties": { "内容": "デイサービス元気【地域密着型通所介護】青森県青森市大字三内字丸山３２３番地", "url2": "https://www.kaigokensaku.mhlw.go.jp/02/index.php?action_kouhyou_detail_004_kani=true&JigyosyoCd=0270104391-00&ServiceCd=780&Type=search" }, "geometry": { "type": "Point", "coordinates": [ 140.690532600000012, 40.804904 ] } },
{ "type": "Feature", "properties": { "内容": "桃花【地域密着型通所介護】青森県青森市大字安田字近野３３５番地１", "url2": "https://www.kaigokensaku.mhlw.go.jp/02/index.php?action_kouhyou_detail_004_kani=true&JigyosyoCd=0270105067-00&ServiceCd=780&Type=search" }, "geometry": { "type": "Point", "coordinates": [ 140.711073299999953, 40.8032507 ] } },
{ "type": "Feature", "properties": { "内容": "草菴デイサービスセンター【地域密着型通所介護】青森県弘前市大字城東２丁目２－６", "url2": "https://www.kaigokensaku.mhlw.go.jp/02/index.php?action_kouhyou_detail_004_kani=true&JigyosyoCd=0270201569-00&ServiceCd=780&Type=search" }, "geometry": { "type": "Point", "coordinates": [ 140.4916256, 40.598123600000051 ] } },
{ "type": "Feature", "properties": { "内容": "デイサービスきたえるーむ弘前城北【地域密着型通所介護】東城北2丁目1-16", "url2": "https://www.kaigokensaku.mhlw.go.jp/02/index.php?action_kouhyou_detail_004_kani=true&JigyosyoCd=0290200328-00&ServiceCd=780&Type=search" }, "geometry": { "type": "Point", "coordinates": [ 140.4721513, 40.615366 ] } },
{ "type": "Feature", "properties": { "内容": "ジョイライフ倶楽部かさい【地域密着型通所介護】青森県弘前市田町一丁目１番地６", "url2": "https://www.kaigokensaku.mhlw.go.jp/02/index.php?action_kouhyou_detail_004_kani=true&JigyosyoCd=0270203599-00&ServiceCd=780&Type=search" }, "geometry": { "type": "Point", "coordinates": [ 140.4795487, 40.6104989 ] } },
{ "type": "Feature", "properties": { "内容": "デイサービスセンター　いわき山【地域密着型通所介護】大字五代字従弟沢1030番地50", "url2": "https://www.kaigokensaku.mhlw.go.jp/02/index.php?action_kouhyou_detail_004_kani=true&JigyosyoCd=0270203250-00&ServiceCd=780&Type=search" }, "geometry": { "type": "Point", "coordinates": [ 140.380703400000016, 40.6073956 ] } },
{ "type": "Feature", "properties": { "内容": "デイサービス我が家【地域密着型通所介護】青森県弘前市川先3-9-1", "url2": "https://www.kaigokensaku.mhlw.go.jp/02/index.php?action_kouhyou_detail_004_kani=true&JigyosyoCd=0270203417-00&ServiceCd=780&Type=search" }, "geometry": { "type": "Point", "coordinates": [ 140.492107499999946, 40.5866045 ] } },
{ "type": "Feature", "properties": { "内容": "通所介護事業所　ちとせ【地域密着型通所介護】青森県弘前市千年三丁目一番地六", "url2": "https://www.kaigokensaku.mhlw.go.jp/02/index.php?action_kouhyou_detail_004_kani=true&JigyosyoCd=0270203490-00&ServiceCd=780&Type=search" }, "geometry": { "type": "Point", "coordinates": [ 140.481735174205056, 40.566171421932808 ] } },
{ "type": "Feature", "properties": { "内容": "デイサービスセンターみのり【地域密着型通所介護】青森県弘前市大原２丁目10-1", "url2": "https://www.kaigokensaku.mhlw.go.jp/02/index.php?action_kouhyou_detail_004_kani=true&JigyosyoCd=0270203573-00&ServiceCd=780&Type=search" }, "geometry": { "type": "Point", "coordinates": [ 140.451102399999968, 40.5776798 ] } },
{ "type": "Feature", "properties": { "内容": "小規模デイサービス　静【地域密着型通所介護】青森県弘前市大字中崎字野脇176番地", "url2": "https://www.kaigokensaku.mhlw.go.jp/02/index.php?action_kouhyou_detail_004_kani=true&JigyosyoCd=0270203656-00&ServiceCd=780&Type=search" }, "geometry": { "type": "Point", "coordinates": [ 140.457635067528571, 40.652093903952391 ] } },
{ "type": "Feature", "properties": { "内容": "ひなたストレッチ【地域密着型通所介護】弘前市南城西二丁目2-1", "url2": "https://www.kaigokensaku.mhlw.go.jp/02/index.php?action_kouhyou_detail_004_kani=true&JigyosyoCd=0290200112-00&ServiceCd=780&Type=search" }, "geometry": { "type": "Point", "coordinates": [ 140.451516995106545, 40.601645435260927 ] } },
{ "type": "Feature", "properties": { "内容": "デイサービスセンター　ＳＰＡ大浦の湯【地域密着型通所介護】青森県弘前市大字五代字山本600-1デイサービスセンター　ＳＰＡ大浦の湯", "url2": "https://www.kaigokensaku.mhlw.go.jp/02/index.php?action_kouhyou_detail_004_kani=true&JigyosyoCd=0290200187-00&ServiceCd=780&Type=search" }, "geometry": { "type": "Point", "coordinates": [ 140.407563340475463, 40.613267533445615 ] } },
{ "type": "Feature", "properties": { "内容": "エールリハビリデイサービス【地域密着型通所介護】外崎3-1-9河内テナント", "url2": "https://www.kaigokensaku.mhlw.go.jp/02/index.php?action_kouhyou_detail_004_kani=true&JigyosyoCd=0290200195-00&ServiceCd=780&Type=search" }, "geometry": { "type": "Point", "coordinates": [ 140.497994100000028, 40.5992733 ] } },
{ "type": "Feature", "properties": { "内容": "弘前リハビリデイサービスセンター　ソラーレ【地域密着型通所介護】青森県弘前市大字城南3丁目4番地1", "url2": "https://www.kaigokensaku.mhlw.go.jp/02/index.php?action_kouhyou_detail_004_kani=true&JigyosyoCd=0290200294-00&ServiceCd=780&Type=search" }, "geometry": { "type": "Point", "coordinates": [ 140.4681477, 40.5788897 ] } },
{ "type": "Feature", "properties": { "内容": "合同会社ソラーレ　大開デイサービスソラーレ【地域密着型通所介護】青森県弘前市小沢大開44番地21", "url2": "https://www.kaigokensaku.mhlw.go.jp/02/index.php?action_kouhyou_detail_004_kani=true&JigyosyoCd=0290200377-00&ServiceCd=780&Type=search" }, "geometry": { "type": "Point", "coordinates": [ 140.446058, 40.5728736 ] } },
{ "type": "Feature", "properties": { "内容": "デイサービスたまちの運動場【地域密着型通所介護】青森県弘前市大字田町一丁目1-6", "url2": "https://www.kaigokensaku.mhlw.go.jp/02/index.php?action_kouhyou_detail_004_kani=true&JigyosyoCd=0290200385-00&ServiceCd=780&Type=search" }, "geometry": { "type": "Point", "coordinates": [ 140.479631, 40.6105151 ] } },
{ "type": "Feature", "properties": { "内容": "樹楽　おいの杜【地域密着型通所介護】狼森字西元3-9", "url2": "https://www.kaigokensaku.mhlw.go.jp/02/index.php?action_kouhyou_detail_004_kani=true&JigyosyoCd=0270203664-00&ServiceCd=780&Type=search" }, "geometry": { "type": "Point", "coordinates": [ 140.470922037959326, 40.560081998316875 ] } },
{ "type": "Feature", "properties": { "内容": "デイサービス　よし【地域密着型通所介護】青森県弘前市大字小比内5丁目20-1", "url2": "https://www.kaigokensaku.mhlw.go.jp/02/index.php?action_kouhyou_detail_004_kani=true&JigyosyoCd=0270203342-00&ServiceCd=780&Type=search" }, "geometry": { "type": "Point", "coordinates": [ 140.49741819999997, 40.5827551 ] } },
{ "type": "Feature", "properties": { "内容": "デイサービスセンターわ【地域密着型通所介護】青森県弘前市取上4丁目3-25", "url2": "https://www.kaigokensaku.mhlw.go.jp/02/index.php?action_kouhyou_detail_004_kani=true&JigyosyoCd=0270203086-00&ServiceCd=780&Type=search" }, "geometry": { "type": "Point", "coordinates": [ 140.488829545940121, 40.586007799645891 ] } },
{ "type": "Feature", "properties": { "内容": "デイサービス　湯口の宿【地域密着型通所介護】青森県弘前市大字湯口一ノ細川４０番地９", "url2": "https://www.kaigokensaku.mhlw.go.jp/02/index.php?action_kouhyou_detail_004_kani=true&JigyosyoCd=0290200286-00&ServiceCd=780&Type=search" }, "geometry": { "type": "Point", "coordinates": [ 140.414066022090168, 40.589203348456792 ] } },
{ "type": "Feature", "properties": { "内容": "リハビリメディカルフィットネスLino【地域密着型通所介護】青森県弘前市御幸町15番18", "url2": "https://www.kaigokensaku.mhlw.go.jp/02/index.php?action_kouhyou_detail_004_kani=true&JigyosyoCd=0290200393-00&ServiceCd=780&Type=search" }, "geometry": { "type": "Point", "coordinates": [ 140.4768898, 40.5937771 ] } },
{ "type": "Feature", "properties": { "内容": "デイサービスセンター　クローバーズ・ピア江陽【地域密着型通所介護】青森県八戸市江陽二丁目13-36", "url2": "https://www.kaigokensaku.mhlw.go.jp/02/index.php?action_kouhyou_detail_004_kani=true&JigyosyoCd=0270301872-00&ServiceCd=780&Type=search" }, "geometry": { "type": "Point", "coordinates": [ 141.502396163229406, 40.524165780636686 ] } },
{ "type": "Feature", "properties": { "内容": "たものきほっとハウス【地域密着型通所介護】田面木字神明沢16番40号", "url2": "https://www.kaigokensaku.mhlw.go.jp/02/index.php?action_kouhyou_detail_004_kani=true&JigyosyoCd=0290300599-00&ServiceCd=780&Type=search" }, "geometry": { "type": "Point", "coordinates": [ 141.448475867320212, 40.49815326383515 ] } },
{ "type": "Feature", "properties": { "内容": "それいゆデイセンター【地域密着型通所介護】青森県八戸市大字白銀町字八森２３－２", "url2": "https://www.kaigokensaku.mhlw.go.jp/02/index.php?action_kouhyou_detail_004_kani=true&JigyosyoCd=0270301666-00&ServiceCd=780&Type=search" }, "geometry": { "type": "Point", "coordinates": [ 141.558291100000019, 40.5226201 ] } },
{ "type": "Feature", "properties": { "内容": "テレサの丘デイサービスセンター【地域密着型通所介護】青森県八戸市湊高台7丁目26番地6号", "url2": "https://www.kaigokensaku.mhlw.go.jp/02/index.php?action_kouhyou_detail_004_kani=true&JigyosyoCd=0270301781-00&ServiceCd=780&Type=search" }, "geometry": { "type": "Point", "coordinates": [ 141.550203399999987, 40.5059802 ] } },
{ "type": "Feature", "properties": { "内容": "リハビリデイサービスサンテ田面木【地域密着型通所介護】青森県八戸市田面木字上田面木39-2", "url2": "https://www.kaigokensaku.mhlw.go.jp/02/index.php?action_kouhyou_detail_004_kani=true&JigyosyoCd=0270303589-00&ServiceCd=780&Type=search" }, "geometry": { "type": "Point", "coordinates": [ 141.446595300000013, 40.4982985 ] } },
{ "type": "Feature", "properties": { "内容": "白山台やすらぎ館デイサービスセンター【地域密着型通所介護】青森県八戸市西白山台６丁目９－３０", "url2": "https://www.kaigokensaku.mhlw.go.jp/02/index.php?action_kouhyou_detail_004_kani=true&JigyosyoCd=0270303597-00&ServiceCd=780&Type=search" }, "geometry": { "type": "Point", "coordinates": [ 141.4548039, 40.4732323 ] } },
{ "type": "Feature", "properties": { "内容": "デイサービス八戸中央【地域密着型通所介護】青森県八戸市沼館4丁目1番87号株式会社アマテラス", "url2": "https://www.kaigokensaku.mhlw.go.jp/02/index.php?action_kouhyou_detail_004_kani=true&JigyosyoCd=0290300334-00&ServiceCd=780&Type=search" }, "geometry": { "type": "Point", "coordinates": [ 141.499802024967124, 40.529773399442576 ] } },
{ "type": "Feature", "properties": { "内容": "コンパスウォーク八戸新井田【地域密着型通所介護】青森県八戸市新井田西1-10-14", "url2": "https://www.kaigokensaku.mhlw.go.jp/02/index.php?action_kouhyou_detail_004_kani=true&JigyosyoCd=0290300433-00&ServiceCd=780&Type=search" }, "geometry": { "type": "Point", "coordinates": [ 141.518916799999943, 40.5027985 ] } },
{ "type": "Feature", "properties": { "内容": "デイサービスcococolor【地域密着型通所介護】青森県八戸市大字尻内町字正法寺１１３番地", "url2": "https://www.kaigokensaku.mhlw.go.jp/02/index.php?action_kouhyou_detail_004_kani=true&JigyosyoCd=0290300532-00&ServiceCd=780&Type=search" }, "geometry": { "type": "Point", "coordinates": [ 141.4080161, 40.5179426 ] } },
{ "type": "Feature", "properties": { "内容": "ホップステップサンテ【地域密着型通所介護】青森県八戸市江陽二丁目１４－１八戸ショッピングセンターラピア１階", "url2": "https://www.kaigokensaku.mhlw.go.jp/02/index.php?action_kouhyou_detail_004_kani=true&JigyosyoCd=0290300565-00&ServiceCd=780&Type=search" }, "geometry": { "type": "Point", "coordinates": [ 141.5034062, 40.5219544 ] } },
{ "type": "Feature", "properties": { "内容": "長生園デイサービスセンター【地域密着型通所介護】青森県八戸市大字是川字犾森33番地", "url2": "https://www.kaigokensaku.mhlw.go.jp/02/index.php?action_kouhyou_detail_004_kani=true&JigyosyoCd=0270302029-00&ServiceCd=780&Type=search" }, "geometry": { "type": "Point", "coordinates": [ 141.500976900000069, 40.4738113 ] } },
{ "type": "Feature", "properties": { "内容": "よもぎ鍼灸院デイサービスセンター【地域密着型通所介護】青森県八戸市小中野４丁目２－１１", "url2": "https://www.kaigokensaku.mhlw.go.jp/02/index.php?action_kouhyou_detail_004_kani=true&JigyosyoCd=0290300292-00&ServiceCd=780&Type=search" }, "geometry": { "type": "Point", "coordinates": [ 141.509967, 40.5191123 ] } },
{ "type": "Feature", "properties": { "内容": "株式会社池田介護研究所【地域密着型通所介護】大字長苗代字内舟渡73‐3", "url2": "https://www.kaigokensaku.mhlw.go.jp/02/index.php?action_kouhyou_detail_004_kani=true&JigyosyoCd=0270303142-00&ServiceCd=780&Type=search" }, "geometry": { "type": "Point", "coordinates": [ 141.465289399999961, 40.516082 ] } },
{ "type": "Feature", "properties": { "内容": "二重まる＆キャトルフィユ【地域密着型通所介護】青森県八戸市大字尻内町字八百刈２５－１", "url2": "https://www.kaigokensaku.mhlw.go.jp/02/index.php?action_kouhyou_detail_004_kani=true&JigyosyoCd=0290300458-00&ServiceCd=780&Type=search" }, "geometry": { "type": "Point", "coordinates": [ 141.437236799999937, 40.5084276 ] } },
{ "type": "Feature", "properties": { "内容": "デイサービスセンター下長【地域密着型通所介護】青森県八戸市下長4丁目22番地8", "url2": "https://www.kaigokensaku.mhlw.go.jp/02/index.php?action_kouhyou_detail_004_kani=true&JigyosyoCd=0290300409-00&ServiceCd=780&Type=search" }, "geometry": { "type": "Point", "coordinates": [ 141.476399300000026, 40.5396049 ] } },
{ "type": "Feature", "properties": { "内容": "リハビリデイサロンかりん【地域密着型通所介護】青森県八戸市大字田面木字松長根3-2リハビリデイサロン　かりん", "url2": "https://www.kaigokensaku.mhlw.go.jp/02/index.php?action_kouhyou_detail_004_kani=true&JigyosyoCd=0290300284-00&ServiceCd=780&Type=search" }, "geometry": { "type": "Point", "coordinates": [ 141.4589138, 40.4979406 ] } },
{ "type": "Feature", "properties": { "内容": "レコードブック八戸中央【地域密着型通所介護】青森県八戸市柏崎１丁目１０－１６Jビル１階", "url2": "https://www.kaigokensaku.mhlw.go.jp/02/index.php?action_kouhyou_detail_004_kani=true&JigyosyoCd=0290300466-00&ServiceCd=780&Type=search" }, "geometry": { "type": "Point", "coordinates": [ 141.498145199999954, 40.5135174 ] } },
{ "type": "Feature", "properties": { "内容": "リハビリデイサービスサンテ【地域密着型通所介護】石手洗字斎郷7-19", "url2": "https://www.kaigokensaku.mhlw.go.jp/02/index.php?action_kouhyou_detail_004_kani=true&JigyosyoCd=0270303191-00&ServiceCd=780&Type=search" }, "geometry": { "type": "Point", "coordinates": [ 141.505170971688813, 40.485464288189959 ] } },
{ "type": "Feature", "properties": { "内容": "デイサービスセンター浦町【地域密着型通所介護】青森県黒石市浦町一丁目82", "url2": "https://www.kaigokensaku.mhlw.go.jp/02/index.php?action_kouhyou_detail_004_kani=true&JigyosyoCd=0270400609-00&ServiceCd=780&Type=search" }, "geometry": { "type": "Point", "coordinates": [ 140.597850699999981, 40.6432374 ] } },
{ "type": "Feature", "properties": { "内容": "デイサービスAKYまえだ【地域密着型通所介護】青森県黒石市追子野木三丁目２１７番地７", "url2": "https://www.kaigokensaku.mhlw.go.jp/02/index.php?action_kouhyou_detail_004_kani=true&JigyosyoCd=0290400100-00&ServiceCd=780&Type=search" }, "geometry": { "type": "Point", "coordinates": [ 140.5876494, 40.6352007 ] } },
{ "type": "Feature", "properties": { "内容": "デイサービスセンター二双子【地域密着型通所介護】青森県黒石市大字二双子字野田178番地43デイサービスセンター二双子", "url2": "https://www.kaigokensaku.mhlw.go.jp/02/index.php?action_kouhyou_detail_004_kani=true&JigyosyoCd=0270400724-00&ServiceCd=780&Type=search" }, "geometry": { "type": "Point", "coordinates": [ 140.6029433, 40.6824801 ] } },
{ "type": "Feature", "properties": { "内容": "デイサービス憩いの杜【地域密着型通所介護】青森県五所川原市漆川字清水流２番３シルバービレッジ憩いの杜", "url2": "https://www.kaigokensaku.mhlw.go.jp/02/index.php?action_kouhyou_detail_004_kani=true&JigyosyoCd=0270501109-00&ServiceCd=780&Type=search" }, "geometry": { "type": "Point", "coordinates": [ 140.45975210000006, 40.8137297 ] } },
{ "type": "Feature", "properties": { "内容": "デイサービスふぁみりあ【地域密着型通所介護】青森県五所川原市大字高野字北原222-1", "url2": "https://www.kaigokensaku.mhlw.go.jp/02/index.php?action_kouhyou_detail_004_kani=true&JigyosyoCd=0270501208-00&ServiceCd=780&Type=search" }, "geometry": { "type": "Point", "coordinates": [ 140.5254382, 40.7418008 ] } },
{ "type": "Feature", "properties": { "内容": "さくら園デイサービスセンター【地域密着型通所介護】青森県五所川原市金木町川倉七夕野84番地367", "url2": "https://www.kaigokensaku.mhlw.go.jp/02/index.php?action_kouhyou_detail_004_kani=true&JigyosyoCd=0272400623-00&ServiceCd=780&Type=search" }, "geometry": { "type": "Point", "coordinates": [ 140.457953500000031, 40.922587 ] } },
{ "type": "Feature", "properties": { "内容": "リハビリ堂やすらぎデイサービス【地域密着型通所介護】青森県五所川原市字中平井町144-2", "url2": "https://www.kaigokensaku.mhlw.go.jp/02/index.php?action_kouhyou_detail_004_kani=true&JigyosyoCd=0270500853-00&ServiceCd=780&Type=search" }, "geometry": { "type": "Point", "coordinates": [ 140.444373845369, 40.812982980824223 ] } },
{ "type": "Feature", "properties": { "内容": "オーダーメイドのデイサービスくらしっこ【地域密着型通所介護】青森県十和田市西十二番町11-1", "url2": "https://www.kaigokensaku.mhlw.go.jp/02/index.php?action_kouhyou_detail_004_kani=true&JigyosyoCd=0290600121-00&ServiceCd=780&Type=search" }, "geometry": { "type": "Point", "coordinates": [ 141.204727300000059, 40.6131029 ] } },
{ "type": "Feature", "properties": { "内容": "デイサービスセンター湖楽園【地域密着型通所介護】十和田市大字奥瀬字下川目2-58", "url2": "https://www.kaigokensaku.mhlw.go.jp/02/index.php?action_kouhyou_detail_004_kani=true&JigyosyoCd=0290600212-00&ServiceCd=780&Type=search" }, "geometry": { "type": "Point", "coordinates": [ 141.0932349, 40.5836119 ] } },
{ "type": "Feature", "properties": { "内容": "トコスデイサービス東５番町【地域密着型通所介護】青森県十和田市東五番町8-28", "url2": "https://www.kaigokensaku.mhlw.go.jp/02/index.php?action_kouhyou_detail_004_kani=true&JigyosyoCd=0290600139-00&ServiceCd=780&Type=search" }, "geometry": { "type": "Point", "coordinates": [ 141.224764, 40.6058485 ] } },
{ "type": "Feature", "properties": { "内容": "茶話本舗デイサービス十和田【地域密着型通所介護】青森県十和田市西十三番町35-9", "url2": "https://www.kaigokensaku.mhlw.go.jp/02/index.php?action_kouhyou_detail_004_kani=true&JigyosyoCd=0270601008-00&ServiceCd=780&Type=search" }, "geometry": { "type": "Point", "coordinates": [ 141.208332499999983, 40.6073729 ] } },
{ "type": "Feature", "properties": { "内容": "茶話本舗デイサービス十和田西【地域密着型通所介護】青森県十和田市西四番町3-48", "url2": "https://www.kaigokensaku.mhlw.go.jp/02/index.php?action_kouhyou_detail_004_kani=true&JigyosyoCd=0290600147-00&ServiceCd=780&Type=search" }, "geometry": { "type": "Point", "coordinates": [ 141.216864799999939, 40.606726 ] } },
{ "type": "Feature", "properties": { "内容": "松園デイサービス・スカイ【地域密着型通所介護】青森県三沢市松園町二丁目７－７", "url2": "https://www.kaigokensaku.mhlw.go.jp/02/index.php?action_kouhyou_detail_004_kani=true&JigyosyoCd=0270700255-00&ServiceCd=780&Type=search" }, "geometry": { "type": "Point", "coordinates": [ 141.367529399999967, 40.6768426 ] } },
{ "type": "Feature", "properties": { "内容": "デイサービスセンターふれあい【地域密着型通所介護】青森県三沢市桜町2丁目5-23", "url2": "https://www.kaigokensaku.mhlw.go.jp/02/index.php?action_kouhyou_detail_004_kani=true&JigyosyoCd=0270700495-00&ServiceCd=780&Type=search" }, "geometry": { "type": "Point", "coordinates": [ 141.3686511, 40.6800674 ] } },
{ "type": "Feature", "properties": { "内容": "サードプレイスミサワ【地域密着型通所介護】青森県三沢市古間木山56", "url2": "https://www.kaigokensaku.mhlw.go.jp/02/index.php?action_kouhyou_detail_004_kani=true&JigyosyoCd=0290700178-00&ServiceCd=780&Type=search" }, "geometry": { "type": "Point", "coordinates": [ 141.354010999202728, 40.667635009306331 ] } },
{ "type": "Feature", "properties": { "内容": "三沢デイサービスセンター【地域密着型通所介護】青森県三沢市大津二丁目１２-３７４", "url2": "https://www.kaigokensaku.mhlw.go.jp/02/index.php?action_kouhyou_detail_004_kani=true&JigyosyoCd=0290700194-00&ServiceCd=780&Type=search" }, "geometry": { "type": "Point", "coordinates": [ 141.419589, 40.6824183 ] } },
{ "type": "Feature", "properties": { "内容": "ひばり苑リハビリデイセンター【地域密着型通所介護】大字三沢字南山60番地２", "url2": "https://www.kaigokensaku.mhlw.go.jp/02/index.php?action_kouhyou_detail_004_kani=true&JigyosyoCd=0290700160-00&ServiceCd=780&Type=search" }, "geometry": { "type": "Point", "coordinates": [ 141.394504, 40.6895227 ] } },
{ "type": "Feature", "properties": { "内容": "リハビリ特化型デイサービス　カラダラボ三沢【地域密着型通所介護】青森県三沢市中央町3-6-2", "url2": "https://www.kaigokensaku.mhlw.go.jp/02/index.php?action_kouhyou_detail_004_kani=true&JigyosyoCd=0290700145-00&ServiceCd=780&Type=search" }, "geometry": { "type": "Point", "coordinates": [ 141.362079735582, 40.680952010236084 ] } },
{ "type": "Feature", "properties": { "内容": "ディサービスなみのこ【地域密着型通所介護】松原町2番2号", "url2": "https://www.kaigokensaku.mhlw.go.jp/02/index.php?action_kouhyou_detail_004_kani=true&JigyosyoCd=0270800600-00&ServiceCd=780&Type=search" }, "geometry": { "type": "Point", "coordinates": [ 141.200847232162431, 41.272145536286239 ] } },
{ "type": "Feature", "properties": { "内容": "デイサービスセンターねむのき【地域密着型通所介護】青森県むつ市大字田名部字赤川ノ内並木73-11ディサービスセンターねむのき", "url2": "https://www.kaigokensaku.mhlw.go.jp/02/index.php?action_kouhyou_detail_004_kani=true&JigyosyoCd=0270800709-00&ServiceCd=780&Type=search" }, "geometry": { "type": "Point", "coordinates": [ 141.238525309123247, 41.24586465670555 ] } },
{ "type": "Feature", "properties": { "内容": "いこいの里デイサービスセンター【地域密着型通所介護】青森県むつ市脇野沢渡向73番地1", "url2": "https://www.kaigokensaku.mhlw.go.jp/02/index.php?action_kouhyou_detail_004_kani=true&JigyosyoCd=0270800733-00&ServiceCd=780&Type=search" }, "geometry": { "type": "Point", "coordinates": [ 140.816407199999986, 41.1449966 ] } },
{ "type": "Feature", "properties": { "内容": "つがるデイサービスセンター【地域密着型通所介護】青森県つがる市木造吹原西前田21-18", "url2": "https://www.kaigokensaku.mhlw.go.jp/02/index.php?action_kouhyou_detail_004_kani=true&JigyosyoCd=0270900053-00&ServiceCd=780&Type=search" }, "geometry": { "type": "Point", "coordinates": [ 140.303461199999987, 40.81422 ] } },
{ "type": "Feature", "properties": { "内容": "デイサービスセンターはなさき【地域密着型通所介護】青森県つがる市柏下古川花崎１１２－２", "url2": "https://www.kaigokensaku.mhlw.go.jp/02/index.php?action_kouhyou_detail_004_kani=true&JigyosyoCd=0270900095-00&ServiceCd=780&Type=search" }, "geometry": { "type": "Point", "coordinates": [ 140.419247190737877, 40.800648864793935 ] } },
{ "type": "Feature", "properties": { "内容": "デイサービスずぐり通泊サロン【地域密着型通所介護】木造末広18", "url2": "https://www.kaigokensaku.mhlw.go.jp/02/index.php?action_kouhyou_detail_004_kani=true&JigyosyoCd=0270900194-00&ServiceCd=780&Type=search" }, "geometry": { "type": "Point", "coordinates": [ 140.386200164418028, 40.809905144450781 ] } },
{ "type": "Feature", "properties": { "内容": "高橋リハビリデイサービスセンター【地域密着型通所介護】木造　有楽町　13－1", "url2": "https://www.kaigokensaku.mhlw.go.jp/02/index.php?action_kouhyou_detail_004_kani=true&JigyosyoCd=0270900277-00&ServiceCd=780&Type=search" }, "geometry": { "type": "Point", "coordinates": [ 140.38385059999996, 40.8100501 ] } },
{ "type": "Feature", "properties": { "内容": "小規模デイサービス陽だまり【地域密着型通所介護】青森県つがる市木造下遠山里小田原２１３－５", "url2": "https://www.kaigokensaku.mhlw.go.jp/02/index.php?action_kouhyou_detail_004_kani=true&JigyosyoCd=0270900285-00&ServiceCd=780&Type=search" }, "geometry": { "type": "Point", "coordinates": [ 140.331290399999943, 40.840717 ] } },
{ "type": "Feature", "properties": { "内容": "くれもとデイサービスセンター【地域密着型通所介護】青森県つがる市木造曙39番地1", "url2": "https://www.kaigokensaku.mhlw.go.jp/02/index.php?action_kouhyou_detail_004_kani=true&JigyosyoCd=0270900111-00&ServiceCd=780&Type=search" }, "geometry": { "type": "Point", "coordinates": [ 140.3884382, 40.8077424 ] } },
{ "type": "Feature", "properties": { "内容": "山口さん家のディホーム【地域密着型通所介護】稲垣町吉出霞９６－１", "url2": "https://www.kaigokensaku.mhlw.go.jp/02/index.php?action_kouhyou_detail_004_kani=true&JigyosyoCd=0270900269-00&ServiceCd=780&Type=search" }, "geometry": { "type": "Point", "coordinates": [ 140.3748811770229, 40.868454339458523 ] } },
{ "type": "Feature", "properties": { "内容": "ふるさと温泉【地域密着型通所介護】平川市唐竹堀合５９－２", "url2": "https://www.kaigokensaku.mhlw.go.jp/02/index.php?action_kouhyou_detail_004_kani=true&JigyosyoCd=0271000036-00&ServiceCd=780&Type=search" }, "geometry": { "type": "Point", "coordinates": [ 140.598059599999942, 40.5631945 ] } },
{ "type": "Feature", "properties": { "内容": "デイサービスセンター　寿逢【地域密着型通所介護】青森県平川市葛川田ノ沢口５－１", "url2": "https://www.kaigokensaku.mhlw.go.jp/02/index.php?action_kouhyou_detail_004_kani=true&JigyosyoCd=0271000069-00&ServiceCd=780&Type=search" }, "geometry": { "type": "Point", "coordinates": [ 140.722286700000041, 40.5265468 ] } },
{ "type": "Feature", "properties": { "内容": "デイサービスセンターおのえ荘【地域密着型通所介護】青森県平川市猿賀池上100-1", "url2": "https://www.kaigokensaku.mhlw.go.jp/02/index.php?action_kouhyou_detail_004_kani=true&JigyosyoCd=0271000150-00&ServiceCd=780&Type=search" }, "geometry": { "type": "Point", "coordinates": [ 140.566073255155942, 40.618727870990519 ] } },
{ "type": "Feature", "properties": { "内容": "デイサービス笑がお【地域密着型通所介護】青森県平川市館山下扇田77-1", "url2": "https://www.kaigokensaku.mhlw.go.jp/02/index.php?action_kouhyou_detail_004_kani=true&JigyosyoCd=0291000057-00&ServiceCd=780&Type=search" }, "geometry": { "type": "Point", "coordinates": [ 140.5377353, 40.6028437 ] } },
{ "type": "Feature", "properties": { "内容": "社会福祉法人　平川市社会福祉協議会　碇ヶ関地域密着型通所介護事業所【地域密着型通所介護】青森県平川市碇ケ関三笠山１２０番地１平川市碇ケ関地域福祉センター　ハッピィハウス", "url2": "https://www.kaigokensaku.mhlw.go.jp/02/index.php?action_kouhyou_detail_004_kani=true&JigyosyoCd=0291000073-00&ServiceCd=780&Type=search" }, "geometry": { "type": "Point", "coordinates": [ 140.629656, 40.4768374 ] } },
{ "type": "Feature", "properties": { "内容": "社協の湯っこほのぼの【地域密着型通所介護】青森県東津軽郡平内町大字小湊字後萢60-19", "url2": "https://www.kaigokensaku.mhlw.go.jp/02/index.php?action_kouhyou_detail_004_kani=true&JigyosyoCd=0292000221-00&ServiceCd=780&Type=search" }, "geometry": { "type": "Point", "coordinates": [ 140.9470513, 40.9226114 ] } },
{ "type": "Feature", "properties": { "内容": "今別町デイサービスセンターひより【地域密着型通所介護】青森県東津軽郡今別町大字今別字西田２４８番地３９", "url2": "https://www.kaigokensaku.mhlw.go.jp/02/index.php?action_kouhyou_detail_004_kani=true&JigyosyoCd=0292000239-00&ServiceCd=780&Type=search" }, "geometry": { "type": "Point", "coordinates": [ 140.47958460000001, 41.1784048 ] } },
{ "type": "Feature", "properties": { "内容": "優・遊　よもぎた【地域密着型通所介護】東津軽郡蓬田村大字阿弥陀川字汐干116-1", "url2": "https://www.kaigokensaku.mhlw.go.jp/02/index.php?action_kouhyou_detail_004_kani=true&JigyosyoCd=0292000247-00&ServiceCd=780&Type=search" }, "geometry": { "type": "Point", "coordinates": [ 140.653202099999987, 40.9671837 ] } },
{ "type": "Feature", "properties": { "内容": "鯵ヶ沢町社会福祉協議会　指定通所介護事業所【地域密着型通所介護】青森県西津軽郡鰺ヶ沢町大字舞戸町字後家屋敷9番地の4鰺ヶ沢町総合保健福祉センター", "url2": "https://www.kaigokensaku.mhlw.go.jp/02/index.php?action_kouhyou_detail_004_kani=true&JigyosyoCd=0272100322-00&ServiceCd=780&Type=search" }, "geometry": { "type": "Point", "coordinates": [ 140.22895633862305, 40.770719116337645 ] } },
{ "type": "Feature", "properties": { "内容": "デイサービスセンターみなみ【地域密着型通所介護】青森県西津軽郡鯵ヶ沢町大字舘前町字後口田28-4", "url2": "https://www.kaigokensaku.mhlw.go.jp/02/index.php?action_kouhyou_detail_004_kani=true&JigyosyoCd=0272100777-00&ServiceCd=780&Type=search" }, "geometry": { "type": "Point", "coordinates": [ 140.186928537369539, 40.730421857146233 ] } },
{ "type": "Feature", "properties": { "内容": "白寿の郷デイサービスセンター【地域密着型通所介護】青森県西津軽郡深浦町大字岩崎字松原５７番地１", "url2": "https://www.kaigokensaku.mhlw.go.jp/02/index.php?action_kouhyou_detail_004_kani=true&JigyosyoCd=0272100603-00&ServiceCd=780&Type=search" }, "geometry": { "type": "Point", "coordinates": [ 139.924877599999945, 40.5831549 ] } },
{ "type": "Feature", "properties": { "内容": "深浦町デイサービスセンター【地域密着型通所介護】青森県西津軽郡深浦町大字驫木字津山118-44", "url2": "https://www.kaigokensaku.mhlw.go.jp/02/index.php?action_kouhyou_detail_004_kani=true&JigyosyoCd=0292100054-00&ServiceCd=780&Type=search" }, "geometry": { "type": "Point", "coordinates": [ 139.981620600000042, 40.7024239 ] } },
{ "type": "Feature", "properties": { "内容": "リハジムらしかる【地域密着型通所介護】青森県西津軽郡深浦町大字深浦字浜町137-1", "url2": "https://www.kaigokensaku.mhlw.go.jp/02/index.php?action_kouhyou_detail_004_kani=true&JigyosyoCd=0292100088-00&ServiceCd=780&Type=search" }, "geometry": { "type": "Point", "coordinates": [ 139.927066700000012, 40.641551800000016 ] } },
{ "type": "Feature", "properties": { "内容": "デイサービスセンター虹貝【地域密着型通所介護】青森県南津軽郡大鰐町大字虹貝字篠塚３３－７", "url2": "https://www.kaigokensaku.mhlw.go.jp/02/index.php?action_kouhyou_detail_004_kani=true&JigyosyoCd=0272301177-00&ServiceCd=780&Type=search" }, "geometry": { "type": "Point", "coordinates": [ 140.562197400000059, 40.5176681 ] } },
{ "type": "Feature", "properties": { "内容": "デイサービスセンター鶴東館【地域密着型通所介護】青森県北津軽郡鶴田町大字境字宮内1-1", "url2": "https://www.kaigokensaku.mhlw.go.jp/02/index.php?action_kouhyou_detail_004_kani=true&JigyosyoCd=0272400862-00&ServiceCd=780&Type=search" }, "geometry": { "type": "Point", "coordinates": [ 140.452568, 40.7354573 ] } },
{ "type": "Feature", "properties": { "内容": "デイサービスセンターまた明日【地域密着型通所介護】青森県北津軽郡鶴田町大字鶴泊字前田９９－３", "url2": "https://www.kaigokensaku.mhlw.go.jp/02/index.php?action_kouhyou_detail_004_kani=true&JigyosyoCd=0272400987-00&ServiceCd=780&Type=search" }, "geometry": { "type": "Point", "coordinates": [ 140.432416500000045, 40.7331374 ] } },
{ "type": "Feature", "properties": { "内容": "ディサービスセンターよこはま【地域密着型通所介護】青森県上北郡横浜町上イタヤノ木438-6", "url2": "https://www.kaigokensaku.mhlw.go.jp/02/index.php?action_kouhyou_detail_004_kani=true&JigyosyoCd=0292500196-00&ServiceCd=780&Type=search" }, "geometry": { "type": "Point", "coordinates": [ 141.2484997, 41.0760625 ] } },
{ "type": "Feature", "properties": { "内容": "デイサービスセンター　あゆみの里【地域密着型通所介護】青森県上北郡おいらせ町東下谷地618", "url2": "https://www.kaigokensaku.mhlw.go.jp/02/index.php?action_kouhyou_detail_004_kani=true&JigyosyoCd=0272501396-00&ServiceCd=780&Type=search" }, "geometry": { "type": "Point", "coordinates": [ 141.446145300000012, 40.6130007 ] } },
{ "type": "Feature", "properties": { "内容": "和楽通所介護【地域密着型通所介護】青森県下北郡東通村大字白糠字家ノ上43-4", "url2": "https://www.kaigokensaku.mhlw.go.jp/02/index.php?action_kouhyou_detail_004_kani=true&JigyosyoCd=0272600545-00&ServiceCd=780&Type=search" }, "geometry": { "type": "Point", "coordinates": [ 141.380957200000012, 41.1625653 ] } },
{ "type": "Feature", "properties": { "内容": "社会福祉法人東通村社会福祉協議会あしすと介護サービス事業所【地域密着型通所介護】青森県下北郡東通村大字白糠字赤平679番地", "url2": "https://www.kaigokensaku.mhlw.go.jp/02/index.php?action_kouhyou_detail_004_kani=true&JigyosyoCd=0292600079-00&ServiceCd=780&Type=search" }, "geometry": { "type": "Point", "coordinates": [ 141.385157436770641, 41.146769613975273 ] } },
{ "type": "Feature", "properties": { "内容": "風間浦村社協デイサービスセンター【地域密着型通所介護】青森県下北郡風間浦村大字易国間字大川目１１－２", "url2": "https://www.kaigokensaku.mhlw.go.jp/02/index.php?action_kouhyou_detail_004_kani=true&JigyosyoCd=0272600438-00&ServiceCd=780&Type=search" }, "geometry": { "type": "Point", "coordinates": [ 140.99202551107976, 41.482114194904241 ] } },
{ "type": "Feature", "properties": { "内容": "あすなろ通所介護事業所【地域密着型通所介護】青森県下北郡佐井村大字佐井字大佐井川目39番地12", "url2": "https://www.kaigokensaku.mhlw.go.jp/02/index.php?action_kouhyou_detail_004_kani=true&JigyosyoCd=0272600172-00&ServiceCd=780&Type=search" }, "geometry": { "type": "Point", "coordinates": [ 140.862403699999959, 41.4294699 ] } },
{ "type": "Feature", "properties": { "内容": "デイサービスセンター虹【地域密着型通所介護】三戸郡三戸町大字在府小路町17", "url2": "https://www.kaigokensaku.mhlw.go.jp/02/index.php?action_kouhyou_detail_004_kani=true&JigyosyoCd=0272701293-00&ServiceCd=780&Type=search" }, "geometry": { "type": "Point", "coordinates": [ 141.259456399999976, 40.3786898 ] } },
{ "type": "Feature", "properties": { "内容": "三老デイサービスセンター【地域密着型通所介護】青森県三戸郡南部町大字大向字仙ノ木平31-1", "url2": "https://www.kaigokensaku.mhlw.go.jp/02/index.php?action_kouhyou_detail_004_kani=true&JigyosyoCd=0272700683-00&ServiceCd=780&Type=search" }, "geometry": { "type": "Point", "coordinates": [ 141.285318800000027, 40.3983327 ] } }
]
}
