{
"type": "FeatureCollection",
"name": "geo_02_通所介護",
"crs": { "type": "name", "properties": { "name": "urn:ogc:def:crs:OGC:1.3:CRS84" } },
"features": [
{ "type": "Feature", "properties": { "内容": "デイサービスセンタ―やながわ【通所介護】青森県青森市柳川二丁目4番14号", "url": "https://www.kaigokensaku.mhlw.go.jp/02/index.php?action_kouhyou_detail_004_kani=true&JigyosyoCd=0270103872-00&ServiceCd=150&Type=search", "url2": null }, "geometry": { "type": "Point", "coordinates": [ 140.728757299999984, 40.8303652 ] } },
{ "type": "Feature", "properties": { "内容": "デイサービスきたえる～む青森三内【通所介護】青森市大字三内字稲元90-7きたえる～む青森三内", "url": "https://www.kaigokensaku.mhlw.go.jp/02/index.php?action_kouhyou_detail_004_kani=true&JigyosyoCd=0270106297-00&ServiceCd=150&Type=search", "url2": "https://kitaeroom.com/shop/post-143.shtml" }, "geometry": { "type": "Point", "coordinates": [ 140.713625711045069, 40.824968966714387 ] } },
{ "type": "Feature", "properties": { "内容": "デイサービスセンターふれあい【通所介護】青森県青森市小柳一丁目１７番１８号", "url": "https://www.kaigokensaku.mhlw.go.jp/02/index.php?action_kouhyou_detail_004_kani=true&JigyosyoCd=0270100282-00&ServiceCd=150&Type=search", "url2": "http://www.meikeikai.or.jp" }, "geometry": { "type": "Point", "coordinates": [ 140.791136427664696, 40.82127303926115 ] } },
{ "type": "Feature", "properties": { "内容": "デイサービスセンター鶴ヶ丘【通所介護】青森県青森市大字新城字平岡746番地", "url": "https://www.kaigokensaku.mhlw.go.jp/02/index.php?action_kouhyou_detail_004_kani=true&JigyosyoCd=0270100308-00&ServiceCd=150&Type=search", "url2": "http://www.keizinkai-ao.jp/day/" }, "geometry": { "type": "Point", "coordinates": [ 140.6650942, 40.8022334 ] } },
{ "type": "Feature", "properties": { "内容": "デイサービスセンター　寿永【通所介護】青森市大字高田字川瀬１８６－１", "url": "https://www.kaigokensaku.mhlw.go.jp/02/index.php?action_kouhyou_detail_004_kani=true&JigyosyoCd=0270100415-00&ServiceCd=150&Type=search", "url2": "https://heigenkai.jp" }, "geometry": { "type": "Point", "coordinates": [ 140.723610399999984, 40.768016 ] } },
{ "type": "Feature", "properties": { "内容": "ニチイケアセンター青森【通所介護】青森県青森市西滝3丁目1-15", "url": "https://www.kaigokensaku.mhlw.go.jp/02/index.php?action_kouhyou_detail_004_kani=true&JigyosyoCd=0270100449-00&ServiceCd=150&Type=search", "url2": null }, "geometry": { "type": "Point", "coordinates": [ 140.715669400000024, 40.8243654 ] } },
{ "type": "Feature", "properties": { "内容": "デイサービスセンターきさらぎ【通所介護】青森県青森市大字安田字稲森１７７－７", "url": "https://www.kaigokensaku.mhlw.go.jp/02/index.php?action_kouhyou_detail_004_kani=true&JigyosyoCd=0270100506-00&ServiceCd=150&Type=search", "url2": "http://www.megumikai.net" }, "geometry": { "type": "Point", "coordinates": [ 140.715003499999966, 40.8050283 ] } },
{ "type": "Feature", "properties": { "内容": "デイサービスセンターはづき【通所介護】青森県青森市大字荒川字藤戸224", "url": "https://www.kaigokensaku.mhlw.go.jp/02/index.php?action_kouhyou_detail_004_kani=true&JigyosyoCd=0270100514-00&ServiceCd=150&Type=search", "url2": "http://www.megumikai.net/hazuki/" }, "geometry": { "type": "Point", "coordinates": [ 140.737174800000048, 40.791957900000014 ] } },
{ "type": "Feature", "properties": { "内容": "デイサービスセンターやすかた【通所介護】青森県青森市安方1丁目11番6号ヘルスサポートやすかた（旧安方クリニック）　3階", "url": "https://www.kaigokensaku.mhlw.go.jp/02/index.php?action_kouhyou_detail_004_kani=true&JigyosyoCd=0270100522-00&ServiceCd=150&Type=search", "url2": "http://www.aomori-h-coop.com" }, "geometry": { "type": "Point", "coordinates": [ 140.739753899999982, 40.827688 ] } },
{ "type": "Feature", "properties": { "内容": "デイサービスセンターせんじゅ園【通所介護】青森県青森市大字新城字福田７９－２", "url": "https://www.kaigokensaku.mhlw.go.jp/02/index.php?action_kouhyou_detail_004_kani=true&JigyosyoCd=0270100563-00&ServiceCd=150&Type=search", "url2": "http://care-net.biz/02/senjyu/" }, "geometry": { "type": "Point", "coordinates": [ 140.6826962, 40.834894 ] } },
{ "type": "Feature", "properties": { "内容": "デイサービスセンター和幸【通所介護】青森県青森市大字矢田字下野尻48-3", "url": "https://www.kaigokensaku.mhlw.go.jp/02/index.php?action_kouhyou_detail_004_kani=true&JigyosyoCd=0270100621-00&ServiceCd=150&Type=search", "url2": "http://www.wakouen.or.jp" }, "geometry": { "type": "Point", "coordinates": [ 140.848323700000037, 40.8469938 ] } },
{ "type": "Feature", "properties": { "内容": "デイサービスセンター　あかしや【通所介護】青森市緑1丁目19-10", "url": "https://www.kaigokensaku.mhlw.go.jp/02/index.php?action_kouhyou_detail_004_kani=true&JigyosyoCd=0270100662-00&ServiceCd=150&Type=search", "url2": "https://heigenkai.jp/" }, "geometry": { "type": "Point", "coordinates": [ 140.744907237434433, 40.809177994522003 ] } },
{ "type": "Feature", "properties": { "内容": "デイサービスセンターおきだて【通所介護】青森県青森市富田５丁目１９番４５号", "url": "https://www.kaigokensaku.mhlw.go.jp/02/index.php?action_kouhyou_detail_004_kani=true&JigyosyoCd=0270100746-00&ServiceCd=150&Type=search", "url2": null }, "geometry": { "type": "Point", "coordinates": [ 140.714977399999952, 40.8346199 ] } },
{ "type": "Feature", "properties": { "内容": "デイサービスセンター外ヶ浜【通所介護】青森県青森市大字奥内字宮田568-2", "url": "https://www.kaigokensaku.mhlw.go.jp/02/index.php?action_kouhyou_detail_004_kani=true&JigyosyoCd=0270100886-00&ServiceCd=150&Type=search", "url2": "www.seiyu-kai.lp" }, "geometry": { "type": "Point", "coordinates": [ 140.672455513491826, 40.889611518114044 ] } },
{ "type": "Feature", "properties": { "内容": "デイサービスセンター　里見ヶ丘ホーム【通所介護】青森市幸畑五丁目８番３８号", "url": "https://www.kaigokensaku.mhlw.go.jp/02/index.php?action_kouhyou_detail_004_kani=true&JigyosyoCd=0270101124-00&ServiceCd=150&Type=search", "url2": "http://www.satomigaoka.com/" }, "geometry": { "type": "Point", "coordinates": [ 140.7815243, 40.7781576 ] } },
{ "type": "Feature", "properties": { "内容": "デイサービスセンター　ポピー【通所介護】青森県青森市大野片岡12-16", "url": "https://www.kaigokensaku.mhlw.go.jp/02/index.php?action_kouhyou_detail_004_kani=true&JigyosyoCd=0270101439-00&ServiceCd=150&Type=search", "url2": "http://heigenkai.jp/" }, "geometry": { "type": "Point", "coordinates": [ 140.7386171027633, 40.808966626040203 ] } },
{ "type": "Feature", "properties": { "内容": "ツクイ青森浜館【通所介護】青森市浜館2丁目13-7", "url": "https://www.kaigokensaku.mhlw.go.jp/02/index.php?action_kouhyou_detail_004_kani=true&JigyosyoCd=0270102031-00&ServiceCd=150&Type=search", "url2": "http://www.tsukui.net/" }, "geometry": { "type": "Point", "coordinates": [ 140.7857841, 40.8078521 ] } },
{ "type": "Feature", "properties": { "内容": "デイサービスこころ【通所介護】青森県青森市中央１丁目２７番地５号", "url": "https://www.kaigokensaku.mhlw.go.jp/02/index.php?action_kouhyou_detail_004_kani=true&JigyosyoCd=0270103435-00&ServiceCd=150&Type=search", "url2": "http://www.heartcare-service.com/index.html" }, "geometry": { "type": "Point", "coordinates": [ 140.749059100000068, 40.8219332 ] } },
{ "type": "Feature", "properties": { "内容": "リハビリ特化型短時間デイサービススマイル問屋町【通所介護】青森県青森市問屋町２丁目14-6", "url": "https://www.kaigokensaku.mhlw.go.jp/02/index.php?action_kouhyou_detail_004_kani=true&JigyosyoCd=0270103443-00&ServiceCd=150&Type=search", "url2": "http://osahima.web.fc2.com/smile_day/index.html" }, "geometry": { "type": "Point", "coordinates": [ 140.758151099999935, 40.788062483458965 ] } },
{ "type": "Feature", "properties": { "内容": "桃源【通所介護】青森県青森市造道三丁目14番18号", "url": "https://www.kaigokensaku.mhlw.go.jp/02/index.php?action_kouhyou_detail_004_kani=true&JigyosyoCd=0270103641-00&ServiceCd=150&Type=search", "url2": "https://www.tougen-touka.net/index.html" }, "geometry": { "type": "Point", "coordinates": [ 140.790222, 40.8292746 ] } },
{ "type": "Feature", "properties": { "内容": "リハビリ特化型短時間デイサービススマイル青柳【通所介護】青森県青森市青柳1-16-4", "url": "https://www.kaigokensaku.mhlw.go.jp/02/index.php?action_kouhyou_detail_004_kani=true&JigyosyoCd=0270103799-00&ServiceCd=150&Type=search", "url2": "https://smilegroup.info" }, "geometry": { "type": "Point", "coordinates": [ 140.759034993287628, 40.830944115126165 ] } },
{ "type": "Feature", "properties": { "内容": "社会福祉法人　緑鴎会　かもめデイサービスセンター【通所介護】青森市大字油川字大浜147-1", "url": "https://www.kaigokensaku.mhlw.go.jp/02/index.php?action_kouhyou_detail_004_kani=true&JigyosyoCd=0270103856-00&ServiceCd=150&Type=search", "url2": "kamome2012@crux.ocn.ne.jp" }, "geometry": { "type": "Point", "coordinates": [ 140.6948119, 40.8548305 ] } },
{ "type": "Feature", "properties": { "内容": "デイサービスセンター　陽だまりの里【通所介護】千刈1-20-15", "url": "https://www.kaigokensaku.mhlw.go.jp/02/index.php?action_kouhyou_detail_004_kani=true&JigyosyoCd=0270104029-00&ServiceCd=150&Type=search", "url2": "http://hidamari-no-sato.com" }, "geometry": { "type": "Point", "coordinates": [ 140.725102099999958, 40.8255599 ] } },
{ "type": "Feature", "properties": { "内容": "アースサポート新青森【通所介護】青森県青森市大字三内字沢部258番13号", "url": "https://www.kaigokensaku.mhlw.go.jp/02/index.php?action_kouhyou_detail_004_kani=true&JigyosyoCd=0270104037-00&ServiceCd=150&Type=search", "url2": "http://www.earthsupport.co.jp" }, "geometry": { "type": "Point", "coordinates": [ 140.697376599999984, 40.8166186 ] } },
{ "type": "Feature", "properties": { "内容": "ツクイ青森金沢【通所介護】青森県青森市金沢三丁目１２－２７", "url": "https://www.kaigokensaku.mhlw.go.jp/02/index.php?action_kouhyou_detail_004_kani=true&JigyosyoCd=0270104573-00&ServiceCd=150&Type=search", "url2": "http://www.tsukui.net" }, "geometry": { "type": "Point", "coordinates": [ 136.637523200000032, 36.5560589 ] } },
{ "type": "Feature", "properties": { "内容": "朝光苑デイサービスセンターはなおもい【通所介護】青森県青森市大字横内字亀井２４６番地１", "url": "https://www.kaigokensaku.mhlw.go.jp/02/index.php?action_kouhyou_detail_004_kani=true&JigyosyoCd=0270105034-00&ServiceCd=150&Type=search", "url2": null }, "geometry": { "type": "Point", "coordinates": [ 140.766114124467435, 40.772118146041535 ] } },
{ "type": "Feature", "properties": { "内容": "いきいきクラブ勝田【通所介護】青森市勝田１丁目２０‐１ハッピータウン２F", "url": "https://www.kaigokensaku.mhlw.go.jp/02/index.php?action_kouhyou_detail_004_kani=true&JigyosyoCd=0270105117-00&ServiceCd=150&Type=search", "url2": "https://iki-iki.co.jp/" }, "geometry": { "type": "Point", "coordinates": [ 140.75443500296322, 40.818844629073226 ] } },
{ "type": "Feature", "properties": { "内容": "ワイズ・パーク青森センター店【通所介護】青森県青森市妙見２丁目1-14", "url": "https://www.kaigokensaku.mhlw.go.jp/02/index.php?action_kouhyou_detail_004_kani=true&JigyosyoCd=0270105513-00&ServiceCd=150&Type=search", "url2": "https://ak-company.jp/" }, "geometry": { "type": "Point", "coordinates": [ 140.761400699999967, 40.7909947 ] } },
{ "type": "Feature", "properties": { "内容": "デイサービスきたえる～む青森松原【通所介護】青森県青森市松原2丁目11-13１F", "url": "https://www.kaigokensaku.mhlw.go.jp/02/index.php?action_kouhyou_detail_004_kani=true&JigyosyoCd=0270105547-00&ServiceCd=150&Type=search", "url2": null }, "geometry": { "type": "Point", "coordinates": [ 140.763920699999971, 40.8187558 ] } },
{ "type": "Feature", "properties": { "内容": "アースサポート青森【通所介護】青森県青森市松森1丁目10番地1号", "url": "https://www.kaigokensaku.mhlw.go.jp/02/index.php?action_kouhyou_detail_004_kani=true&JigyosyoCd=0270105604-00&ServiceCd=150&Type=search", "url2": "http://www.earthsupport.co.jp" }, "geometry": { "type": "Point", "coordinates": [ 140.770168499999954, 40.8206198 ] } },
{ "type": "Feature", "properties": { "内容": "社会福祉法人　青森市社会福祉協議会青森市中央【通所介護】青森県青森市本町四丁目1番3号", "url": "https://www.kaigokensaku.mhlw.go.jp/02/index.php?action_kouhyou_detail_004_kani=true&JigyosyoCd=0270106156-00&ServiceCd=150&Type=search", "url2": "http://www.aomoricity-shakyo.or.jp/" }, "geometry": { "type": "Point", "coordinates": [ 140.7514032, 40.8293343 ] } },
{ "type": "Feature", "properties": { "内容": "社会福祉法人　青森市社会福祉協議会　青森市中央浪岡支部【通所介護】青森県青森市浪岡大字浪岡字稲村274番地", "url": "https://www.kaigokensaku.mhlw.go.jp/02/index.php?action_kouhyou_detail_004_kani=true&JigyosyoCd=0270106164-00&ServiceCd=150&Type=search", "url2": "https://www.aomoricity-shakyo.or.jp/" }, "geometry": { "type": "Point", "coordinates": [ 140.596983099999989, 40.7091393 ] } },
{ "type": "Feature", "properties": { "内容": "デイサービスセンター雅de華美【通所介護】青森県青森市大字原別字下海原３５番地１", "url": "https://www.kaigokensaku.mhlw.go.jp/02/index.php?action_kouhyou_detail_004_kani=true&JigyosyoCd=0270106461-00&ServiceCd=150&Type=search", "url2": null }, "geometry": { "type": "Point", "coordinates": [ 140.8132091, 40.8348321 ] } },
{ "type": "Feature", "properties": { "内容": "デイサービスセンターみなみ【通所介護】岡造道一丁目17番8号", "url": "https://www.kaigokensaku.mhlw.go.jp/02/index.php?action_kouhyou_detail_004_kani=true&JigyosyoCd=0270106503-00&ServiceCd=150&Type=search", "url2": null }, "geometry": { "type": "Point", "coordinates": [ 140.7869799, 40.8251996 ] } },
{ "type": "Feature", "properties": { "内容": "デイサービス中部【通所介護】青森県青森市中央3丁目10番2号中部クリニック　2階", "url": "https://www.kaigokensaku.mhlw.go.jp/02/index.php?action_kouhyou_detail_004_kani=true&JigyosyoCd=0270106545-00&ServiceCd=150&Type=search", "url2": null }, "geometry": { "type": "Point", "coordinates": [ 140.746124900000012, 40.8180149 ] } },
{ "type": "Feature", "properties": { "内容": "在宅老人デイサービスセンター悠悠【通所介護】青森県青森市浪岡大字樽沢字村元３３０番地７", "url": "https://www.kaigokensaku.mhlw.go.jp/02/index.php?action_kouhyou_detail_004_kani=true&JigyosyoCd=0272300187-00&ServiceCd=150&Type=search", "url2": "http://care-net.biz/02/yuyusou/" }, "geometry": { "type": "Point", "coordinates": [ 140.558306600000037, 40.7127337 ] } },
{ "type": "Feature", "properties": { "内容": "ツクイ青森石江【通所介護】大字石江４丁目９番地９", "url": "https://www.kaigokensaku.mhlw.go.jp/02/index.php?action_kouhyou_detail_004_kani=true&JigyosyoCd=0270105125-00&ServiceCd=150&Type=search", "url2": "http:/www.tsukui.net" }, "geometry": { "type": "Point", "coordinates": [ 140.690384699999981, 40.831333035683741 ] } },
{ "type": "Feature", "properties": { "内容": "デイサービスセンターきずなランド【通所介護】青森県青森市大野字若宮５７", "url": "https://www.kaigokensaku.mhlw.go.jp/02/index.php?action_kouhyou_detail_004_kani=true&JigyosyoCd=0270106255-00&ServiceCd=150&Type=search", "url2": "https://www.supportcareland.com/" }, "geometry": { "type": "Point", "coordinates": [ 140.733247894442712, 40.804325114410517 ] } },
{ "type": "Feature", "properties": { "内容": "通所介護事業所　屋形船【通所介護】青森県青森市西大野5丁目24番地4", "url": "https://www.kaigokensaku.mhlw.go.jp/02/index.php?action_kouhyou_detail_004_kani=true&JigyosyoCd=0270105588-00&ServiceCd=150&Type=search", "url2": "www.kaienkai.com" }, "geometry": { "type": "Point", "coordinates": [ 140.7272084, 40.7981903 ] } },
{ "type": "Feature", "properties": { "内容": "デイサービス虹のひろば【通所介護】東大野２丁目３－１３", "url": "https://www.kaigokensaku.mhlw.go.jp/02/index.php?action_kouhyou_detail_004_kani=true&JigyosyoCd=0270103476-00&ServiceCd=150&Type=search", "url2": "https://nijiweb.net/" }, "geometry": { "type": "Point", "coordinates": [ 140.741793599999937, 40.7980324 ] } },
{ "type": "Feature", "properties": { "内容": "リハビリ特化型短時間デイサービススマイル新城【通所介護】青森県青森市大字新城平岡258-565", "url": "https://www.kaigokensaku.mhlw.go.jp/02/index.php?action_kouhyou_detail_004_kani=true&JigyosyoCd=0270106693-00&ServiceCd=150&Type=search", "url2": "https://smilegroup.info/dayservice_about" }, "geometry": { "type": "Point", "coordinates": [ 140.6824547, 40.8232274 ] } },
{ "type": "Feature", "properties": { "内容": "ワイズ・パーク青森西店【通所介護】青森県青森市浪館前田１丁目12-28山口ビル1F", "url": "https://www.kaigokensaku.mhlw.go.jp/02/index.php?action_kouhyou_detail_004_kani=true&JigyosyoCd=0270106214-00&ServiceCd=150&Type=search", "url2": "https://ak-company.jp/" }, "geometry": { "type": "Point", "coordinates": [ 140.72265, 40.8143878 ] } },
{ "type": "Feature", "properties": { "内容": "ヴィアスデイサービスセンター【通所介護】青森県青森市西大野1丁目3-7", "url": "https://www.kaigokensaku.mhlw.go.jp/02/index.php?action_kouhyou_detail_004_kani=true&JigyosyoCd=0270106552-00&ServiceCd=150&Type=search", "url2": null }, "geometry": { "type": "Point", "coordinates": [ 140.726037600000012, 40.8038315 ] } },
{ "type": "Feature", "properties": { "内容": "弘前特別養護老人ホーム介護保険サービス事業センター【通所介護】青森県弘前市自由ヶ丘５－５－３", "url": "https://www.kaigokensaku.mhlw.go.jp/02/index.php?action_kouhyou_detail_004_kani=true&JigyosyoCd=0270200058-00&ServiceCd=150&Type=search", "url2": "http://tsugarufujimikai.com" }, "geometry": { "type": "Point", "coordinates": [ 140.436733499999946, 40.5822121 ] } },
{ "type": "Feature", "properties": { "内容": "デイサービスファミリー【通所介護】青森県弘前市大字撫牛子二丁目8番地4", "url": "https://www.kaigokensaku.mhlw.go.jp/02/index.php?action_kouhyou_detail_004_kani=true&JigyosyoCd=0270203391-00&ServiceCd=150&Type=search", "url2": null }, "geometry": { "type": "Point", "coordinates": [ 140.494671283079384, 40.622630351033557 ] } },
{ "type": "Feature", "properties": { "内容": "通所介護事業パインハウス弘前【通所介護】青森県弘前市大字国吉字坂本138-10", "url": "https://www.kaigokensaku.mhlw.go.jp/02/index.php?action_kouhyou_detail_004_kani=true&JigyosyoCd=0270200298-00&ServiceCd=150&Type=search", "url2": "http://www.gakuyokai.jp" }, "geometry": { "type": "Point", "coordinates": [ 140.353981400000066, 40.5954108 ] } },
{ "type": "Feature", "properties": { "内容": "デイサービスセンター白寿園【通所介護】青森県弘前市大字大沢字稲元1番地13", "url": "https://www.kaigokensaku.mhlw.go.jp/02/index.php?action_kouhyou_detail_004_kani=true&JigyosyoCd=0270200322-00&ServiceCd=150&Type=search", "url2": "http://www.hakujuen-t.or.jp/" }, "geometry": { "type": "Point", "coordinates": [ 140.51632010000003, 40.5581117 ] } },
{ "type": "Feature", "properties": { "内容": "城東デイサービスセンター【通所介護】弘前市大字城東中央四丁目１番地４", "url": "https://www.kaigokensaku.mhlw.go.jp/02/index.php?action_kouhyou_detail_004_kani=true&JigyosyoCd=0270200363-00&ServiceCd=150&Type=search", "url2": null }, "geometry": { "type": "Point", "coordinates": [ 140.495717300000024, 40.6002561 ] } },
{ "type": "Feature", "properties": { "内容": "草薙デイサービスセンター【通所介護】弘前市大字大森字勝山278番18", "url": "https://www.kaigokensaku.mhlw.go.jp/02/index.php?action_kouhyou_detail_004_kani=true&JigyosyoCd=0270200454-00&ServiceCd=150&Type=search", "url2": "http://www.geocities.jp/toukoukai_hirosaki/index.html" }, "geometry": { "type": "Point", "coordinates": [ 140.3658216, 40.7160728 ] } },
{ "type": "Feature", "properties": { "内容": "サンアップルホームデイサービスセンター【通所介護】青森県弘前市大字高杉字尾上山３５０番地", "url": "https://www.kaigokensaku.mhlw.go.jp/02/index.php?action_kouhyou_detail_004_kani=true&JigyosyoCd=0270200504-00&ServiceCd=150&Type=search", "url2": "http://www.sunapplehome.jp/454.html" }, "geometry": { "type": "Point", "coordinates": [ 140.381580900000017, 40.6724358 ] } },
{ "type": "Feature", "properties": { "内容": "おうよう園デイサービスセンター【通所介護】青森県弘前市城南5丁目13-15", "url": "https://www.kaigokensaku.mhlw.go.jp/02/index.php?action_kouhyou_detail_004_kani=true&JigyosyoCd=0270200546-00&ServiceCd=150&Type=search", "url2": "http://www.oyoen.com" }, "geometry": { "type": "Point", "coordinates": [ 140.461085, 40.5786687 ] } },
{ "type": "Feature", "properties": { "内容": "弘前静光園デイサービスセンター【通所介護】青森県弘前市大字豊原一丁目１番地２", "url": "https://www.kaigokensaku.mhlw.go.jp/02/index.php?action_kouhyou_detail_004_kani=true&JigyosyoCd=0270200637-00&ServiceCd=150&Type=search", "url2": "https://dayseikouen.wixsite.com/seikouenday" }, "geometry": { "type": "Point", "coordinates": [ 140.476164775532567, 40.5843961620116 ] } },
{ "type": "Feature", "properties": { "内容": "デイサービスセンター　三和園【通所介護】青森県弘前市大字三和字上恋塚19番地", "url": "https://www.kaigokensaku.mhlw.go.jp/02/index.php?action_kouhyou_detail_004_kani=true&JigyosyoCd=0270200710-00&ServiceCd=150&Type=search", "url2": "http://www.sanwakai.info/" }, "geometry": { "type": "Point", "coordinates": [ 140.4047713, 40.7256951 ] } },
{ "type": "Feature", "properties": { "内容": "特別養護老人ホーム弘前園通所介護事業所【通所介護】青森県弘前市大字鬼沢字山ノ越249番地", "url": "https://www.kaigokensaku.mhlw.go.jp/02/index.php?action_kouhyou_detail_004_kani=true&JigyosyoCd=0270200934-00&ServiceCd=150&Type=search", "url2": null }, "geometry": { "type": "Point", "coordinates": [ 140.40484749999996, 40.6967034 ] } },
{ "type": "Feature", "properties": { "内容": "デイサービスセンター　サン・フラワー【通所介護】青森県弘前市大字向外瀬字豊田３２０番１", "url": "https://www.kaigokensaku.mhlw.go.jp/02/index.php?action_kouhyou_detail_004_kani=true&JigyosyoCd=0270201007-00&ServiceCd=150&Type=search", "url2": "http://www5.ocn.ne.jp/~kouyukai/index.htm" }, "geometry": { "type": "Point", "coordinates": [ 140.481664, 40.6307521 ] } },
{ "type": "Feature", "properties": { "内容": "ほりこし介護福祉センター　ほりこしデイサービスセンター【通所介護】青森県弘前市大字堀越字柳田1-16", "url": "https://www.kaigokensaku.mhlw.go.jp/02/index.php?action_kouhyou_detail_004_kani=true&JigyosyoCd=0270201346-00&ServiceCd=150&Type=search", "url2": "ＵＲＬ：ｈｔｔｐ：//ｒｙｏｋｕｆｕ．ｏｒ．ｊｐ/" }, "geometry": { "type": "Point", "coordinates": [ 140.523518599999989, 40.5699523 ] } },
{ "type": "Feature", "properties": { "内容": "通所介護事業パインハウス城南【通所介護】青森県弘前市大字原ヶ平字山元118番地1", "url": "https://www.kaigokensaku.mhlw.go.jp/02/index.php?action_kouhyou_detail_004_kani=true&JigyosyoCd=0270201486-00&ServiceCd=150&Type=search", "url2": "http://www.gakuyokai.jp" }, "geometry": { "type": "Point", "coordinates": [ 140.471112700000049, 40.5704558 ] } },
{ "type": "Feature", "properties": { "内容": "指定通所介護事業所　ウエルパーク【通所介護】青森県弘前市福田字巻屋4-1", "url": "https://www.kaigokensaku.mhlw.go.jp/02/index.php?action_kouhyou_detail_004_kani=true&JigyosyoCd=0270201619-00&ServiceCd=150&Type=search", "url2": null }, "geometry": { "type": "Point", "coordinates": [ 140.511739772422089, 40.594143755853288 ] } },
{ "type": "Feature", "properties": { "内容": "デイサービスセンター城西【通所介護】青森県弘前市大字茜町２丁目１－１８", "url": "https://www.kaigokensaku.mhlw.go.jp/02/index.php?action_kouhyou_detail_004_kani=true&JigyosyoCd=0270201908-00&ServiceCd=150&Type=search", "url2": "http://sanwakai.info/" }, "geometry": { "type": "Point", "coordinates": [ 140.446173499999986, 40.6005269 ] } },
{ "type": "Feature", "properties": { "内容": "デイサービスセンターわかば【通所介護】青森県弘前市大字若葉二丁目15番地", "url": "https://www.kaigokensaku.mhlw.go.jp/02/index.php?action_kouhyou_detail_004_kani=true&JigyosyoCd=0270202005-00&ServiceCd=150&Type=search", "url2": "http://www.sunapplehome.jp/" }, "geometry": { "type": "Point", "coordinates": [ 140.4500021, 40.5838595 ] } },
{ "type": "Feature", "properties": { "内容": "ケアパートナー弘前【通所介護】弘前市向外瀬三丁目2番地4", "url": "https://www.kaigokensaku.mhlw.go.jp/02/index.php?action_kouhyou_detail_004_kani=true&JigyosyoCd=0270202211-00&ServiceCd=150&Type=search", "url2": "http://www.care-partner" }, "geometry": { "type": "Point", "coordinates": [ 140.47561769999993, 40.6217502 ] } },
{ "type": "Feature", "properties": { "内容": "デイサービスセンター高舘山温泉【通所介護】青森県弘前市大字五大字従弟沢1030-50", "url": "https://www.kaigokensaku.mhlw.go.jp/02/index.php?action_kouhyou_detail_004_kani=true&JigyosyoCd=0270202336-00&ServiceCd=150&Type=search", "url2": "http://zenseikai.com/" }, "geometry": { "type": "Point", "coordinates": [ 140.380703400000016, 40.6073956 ] } },
{ "type": "Feature", "properties": { "内容": "ことぶき荘温泉デイサービスセンター【通所介護】青森県弘前市大字福村字早稲田27番地1介護予防拠点センター「100才館」", "url": "https://www.kaigokensaku.mhlw.go.jp/02/index.php?action_kouhyou_detail_004_kani=true&JigyosyoCd=0270202971-00&ServiceCd=150&Type=search", "url2": "http://www.ichiyoukai.jp/" }, "geometry": { "type": "Point", "coordinates": [ 140.515317500000037, 40.6067449 ] } },
{ "type": "Feature", "properties": { "内容": "ビーンズリハビリセンターひろさき【通所介護】青森県弘前市高田三丁目1-10", "url": "https://www.kaigokensaku.mhlw.go.jp/02/index.php?action_kouhyou_detail_004_kani=true&JigyosyoCd=0270203052-00&ServiceCd=150&Type=search", "url2": "http://hirosaki.rehabilitation.pro/" }, "geometry": { "type": "Point", "coordinates": [ 140.50723830000004, 40.597404 ] } },
{ "type": "Feature", "properties": { "内容": "ツクイ弘前大町【通所介護】大字大町1丁目17-20", "url": "https://www.kaigokensaku.mhlw.go.jp/02/index.php?action_kouhyou_detail_004_kani=true&JigyosyoCd=0270203219-00&ServiceCd=150&Type=search", "url2": "https://www/tsukui.net/" }, "geometry": { "type": "Point", "coordinates": [ 140.483305206765721, 40.595000908173724 ] } },
{ "type": "Feature", "properties": { "内容": "デイサービスセンター　まるめろ【通所介護】青森県弘前市大字東長町38番地3", "url": "https://www.kaigokensaku.mhlw.go.jp/02/index.php?action_kouhyou_detail_004_kani=true&JigyosyoCd=0270203524-00&ServiceCd=150&Type=search", "url2": "https://senchikai.jp/" }, "geometry": { "type": "Point", "coordinates": [ 140.472605237434436, 40.606433105198789 ] } },
{ "type": "Feature", "properties": { "内容": "ひなたスマイルパーク【通所介護】青森県弘前市青山２丁目１－２", "url": "https://www.kaigokensaku.mhlw.go.jp/02/index.php?action_kouhyou_detail_004_kani=true&JigyosyoCd=0270203680-00&ServiceCd=150&Type=search", "url2": "https://hinata.everyday.jp/sisetsu/spark/" }, "geometry": { "type": "Point", "coordinates": [ 140.481164600000056, 40.6215393 ] } },
{ "type": "Feature", "properties": { "内容": "アスモ【通所介護】青森県弘前市大字中野３丁目２番地１２", "url": "https://www.kaigokensaku.mhlw.go.jp/02/index.php?action_kouhyou_detail_004_kani=true&JigyosyoCd=0270203862-00&ServiceCd=150&Type=search", "url2": null }, "geometry": { "type": "Point", "coordinates": [ 140.47602310000002, 40.5775356 ] } },
{ "type": "Feature", "properties": { "内容": "デイサービスセンター岩木【通所介護】青森県弘前市大字駒越字村元123番地1", "url": "https://www.kaigokensaku.mhlw.go.jp/02/index.php?action_kouhyou_detail_004_kani=true&JigyosyoCd=0270204050-00&ServiceCd=150&Type=search", "url2": null }, "geometry": { "type": "Point", "coordinates": [ 140.4439509, 40.6093035 ] } },
{ "type": "Feature", "properties": { "内容": "SAKURAS　REHACARESERVICE【通所介護】青森県弘前市大字大町一丁目３番地１", "url": "https://www.kaigokensaku.mhlw.go.jp/02/index.php?action_kouhyou_detail_004_kani=true&JigyosyoCd=0270204142-00&ServiceCd=150&Type=search", "url2": "https://rehacare.try-sakuras.com/" }, "geometry": { "type": "Point", "coordinates": [ 140.483057599999938, 40.5973992 ] } },
{ "type": "Feature", "properties": { "内容": "通所介護事業　松山荘ケアステーション【通所介護】青森県弘前市大字賀田二丁目4番地2", "url": "https://www.kaigokensaku.mhlw.go.jp/02/index.php?action_kouhyou_detail_004_kani=true&JigyosyoCd=0272200098-00&ServiceCd=150&Type=search", "url2": "https://gakuyokai.jp/" }, "geometry": { "type": "Point", "coordinates": [ 140.419181069952401, 40.615239152296482 ] } },
{ "type": "Feature", "properties": { "内容": "通所介護事業　ピノカーサ岩木【通所介護】青森県弘前市大字五代字田屋敷240-1", "url": "https://www.kaigokensaku.mhlw.go.jp/02/index.php?action_kouhyou_detail_004_kani=true&JigyosyoCd=0272200338-00&ServiceCd=150&Type=search", "url2": "https://www.gakuyokai.jp/" }, "geometry": { "type": "Point", "coordinates": [ 140.420155, 40.6111831 ] } },
{ "type": "Feature", "properties": { "内容": "デイサービスセンター　ふれあい温泉【通所介護】弘前市旭ヶ丘2-6-4", "url": "https://www.kaigokensaku.mhlw.go.jp/02/index.php?action_kouhyou_detail_004_kani=true&JigyosyoCd=0270201304-00&ServiceCd=150&Type=search", "url2": "http://www.kouaikai.com" }, "geometry": { "type": "Point", "coordinates": [ 140.458674, 40.5800157 ] } },
{ "type": "Feature", "properties": { "内容": "デイサービスセンター倶楽部フレディ【通所介護】青森県弘前市大字百石町47-1フレディ弘前", "url": "https://www.kaigokensaku.mhlw.go.jp/02/index.php?action_kouhyou_detail_004_kani=true&JigyosyoCd=0270203821-00&ServiceCd=150&Type=search", "url2": "fredy2015.com/index.html" }, "geometry": { "type": "Point", "coordinates": [ 140.473485500000038, 40.6051632 ] } },
{ "type": "Feature", "properties": { "内容": "長慶苑デイサービスセンター【通所介護】青森県弘前市大字坂市字亀田53番地3", "url": "https://www.kaigokensaku.mhlw.go.jp/02/index.php?action_kouhyou_detail_004_kani=true&JigyosyoCd=0272200148-00&ServiceCd=150&Type=search", "url2": "http://www.choukeien.or.jp" }, "geometry": { "type": "Point", "coordinates": [ 140.379922699999952, 40.5737391 ] } },
{ "type": "Feature", "properties": { "内容": "富田町デイサービスセンター【通所介護】弘前市大字冨田163番地", "url": "https://www.kaigokensaku.mhlw.go.jp/02/index.php?action_kouhyou_detail_004_kani=true&JigyosyoCd=0270201080-00&ServiceCd=150&Type=search", "url2": "http://www2.ocn.ne.jp/~care.s/" }, "geometry": { "type": "Point", "coordinates": [ 140.4765698, 40.5859875 ] } },
{ "type": "Feature", "properties": { "内容": "株式会社　笑里【通所介護】青森県弘前市大字桜ヶ丘２丁目22番地4", "url": "https://www.kaigokensaku.mhlw.go.jp/02/index.php?action_kouhyou_detail_004_kani=true&JigyosyoCd=0270204472-00&ServiceCd=150&Type=search", "url2": "https://maki-sinkyu.jp/" }, "geometry": { "type": "Point", "coordinates": [ 140.4507424, 40.5709451 ] } },
{ "type": "Feature", "properties": { "内容": "ひなた【通所介護】青森県弘前市神田一丁目6番地3デイサービスセンターひなた", "url": "https://www.kaigokensaku.mhlw.go.jp/02/index.php?action_kouhyou_detail_004_kani=true&JigyosyoCd=0270202302-00&ServiceCd=150&Type=search", "url2": "http://www.jhd.ne.jp/" }, "geometry": { "type": "Point", "coordinates": [ 140.487733899999967, 40.6181399 ] } },
{ "type": "Feature", "properties": { "内容": "なかざわデイサービスセンター【通所介護】青森県八戸市湊高台2丁目12-2", "url": "https://www.kaigokensaku.mhlw.go.jp/02/index.php?action_kouhyou_detail_004_kani=true&JigyosyoCd=0270304173-00&ServiceCd=150&Type=search", "url2": null }, "geometry": { "type": "Point", "coordinates": [ 141.5366305, 40.505291 ] } },
{ "type": "Feature", "properties": { "内容": "デイサービスセンターリハコートみなと【通所介護】湊町字本町１－２", "url": "https://www.kaigokensaku.mhlw.go.jp/02/index.php?action_kouhyou_detail_004_kani=true&JigyosyoCd=0270304454-00&ServiceCd=150&Type=search", "url2": null }, "geometry": { "type": "Point", "coordinates": [ 141.523995, 40.5227884 ] } },
{ "type": "Feature", "properties": { "内容": "デイサービスセンターフェニックス【通所介護】青森県八戸市湊高台二丁目３番１０号", "url": "https://www.kaigokensaku.mhlw.go.jp/02/index.php?action_kouhyou_detail_004_kani=true&JigyosyoCd=0270304488-00&ServiceCd=150&Type=search", "url2": "http://www.heiwa-hp.or.jp/phenix/phenix.html" }, "geometry": { "type": "Point", "coordinates": [ 141.5370575, 40.5065736 ] } },
{ "type": "Feature", "properties": { "内容": "いこい苑デイサービスセンター【通所介護】青森県八戸市大字豊崎町字渋民4-1", "url": "https://www.kaigokensaku.mhlw.go.jp/02/index.php?action_kouhyou_detail_004_kani=true&JigyosyoCd=0270300221-00&ServiceCd=150&Type=search", "url2": "http://douyuukai.or.jp/" }, "geometry": { "type": "Point", "coordinates": [ 141.3913109, 40.517159 ] } },
{ "type": "Feature", "properties": { "内容": "瑞光園デイサービスセンター【通所介護】八戸市大字大久保字大山32番1", "url": "https://www.kaigokensaku.mhlw.go.jp/02/index.php?action_kouhyou_detail_004_kani=true&JigyosyoCd=0270300296-00&ServiceCd=150&Type=search", "url2": "http://zuikoen.or.jp/" }, "geometry": { "type": "Point", "coordinates": [ 141.57845481111454, 40.489103552694637 ] } },
{ "type": "Feature", "properties": { "内容": "八戸グリーンハイツデイサービスセンター【通所介護】青森県八戸市大字白銀町字沢向15-2", "url": "https://www.kaigokensaku.mhlw.go.jp/02/index.php?action_kouhyou_detail_004_kani=true&JigyosyoCd=0270300403-00&ServiceCd=150&Type=search", "url2": null }, "geometry": { "type": "Point", "coordinates": [ 141.546556099999947, 40.5191508 ] } },
{ "type": "Feature", "properties": { "内容": "福寿草デイサービスセンター【通所介護】青森県八戸市大字妙字西平６番地１９", "url": "https://www.kaigokensaku.mhlw.go.jp/02/index.php?action_kouhyou_detail_004_kani=true&JigyosyoCd=0270300478-00&ServiceCd=150&Type=search", "url2": "http://www.fukujuso.or.jp/" }, "geometry": { "type": "Point", "coordinates": [ 141.544082399999951, 40.4891572 ] } },
{ "type": "Feature", "properties": { "内容": "ニチイケアセンター八戸【通所介護】八戸市根城3丁目4-17", "url": "https://www.kaigokensaku.mhlw.go.jp/02/index.php?action_kouhyou_detail_004_kani=true&JigyosyoCd=0270300502-00&ServiceCd=150&Type=search", "url2": "http://www.nichiigakkan.co.jp" }, "geometry": { "type": "Point", "coordinates": [ 141.475686092590308, 40.502523488600531 ] } },
{ "type": "Feature", "properties": { "内容": "修光園デイサービスセンター【通所介護】青森県八戸市大字十日市字黒坂３５番地", "url": "https://www.kaigokensaku.mhlw.go.jp/02/index.php?action_kouhyou_detail_004_kani=true&JigyosyoCd=0270300544-00&ServiceCd=150&Type=search", "url2": "shukouen.or.jp" }, "geometry": { "type": "Point", "coordinates": [ 141.520929600000045, 40.4828772 ] } },
{ "type": "Feature", "properties": { "内容": "デイサービスセンターみやぎ【通所介護】八戸市大字売市字観音下3番2", "url": "https://www.kaigokensaku.mhlw.go.jp/02/index.php?action_kouhyou_detail_004_kani=true&JigyosyoCd=0270300577-00&ServiceCd=150&Type=search", "url2": "http://www.sg-miyagikai.jp/" }, "geometry": { "type": "Point", "coordinates": [ 141.486171099999979, 40.5147779 ] } },
{ "type": "Feature", "properties": { "内容": "デイサービスセンターふれあい【通所介護】青森県八戸市吹上６丁目１０－３２", "url": "https://www.kaigokensaku.mhlw.go.jp/02/index.php?action_kouhyou_detail_004_kani=true&JigyosyoCd=0270300585-00&ServiceCd=150&Type=search", "url2": null }, "geometry": { "type": "Point", "coordinates": [ 141.493521, 40.4944419 ] } },
{ "type": "Feature", "properties": { "内容": "デイサービスセンター　ちょうじゃの森【通所介護】青森県八戸市糠塚字下道7-32", "url": "https://www.kaigokensaku.mhlw.go.jp/02/index.php?action_kouhyou_detail_004_kani=true&JigyosyoCd=0270300692-00&ServiceCd=150&Type=search", "url2": "http://www.choujanomori-naika.com/" }, "geometry": { "type": "Point", "coordinates": [ 141.489206297216697, 40.505980970488096 ] } },
{ "type": "Feature", "properties": { "内容": "デイサービスセンター寿楽荘苺一会【通所介護】青森県八戸市市川町字赤畑５６－１６", "url": "https://www.kaigokensaku.mhlw.go.jp/02/index.php?action_kouhyou_detail_004_kani=true&JigyosyoCd=0270300726-00&ServiceCd=150&Type=search", "url2": "https://jurakuso.sakura.ne.jp/aisatu.html" }, "geometry": { "type": "Point", "coordinates": [ 141.446268934358642, 40.578254315833085 ] } },
{ "type": "Feature", "properties": { "内容": "リハビリパ-クアイリスデイサ-ビスセンタ-【通所介護】八戸市小中野八丁目14-25", "url": "https://www.kaigokensaku.mhlw.go.jp/02/index.php?action_kouhyou_detail_004_kani=true&JigyosyoCd=0270300791-00&ServiceCd=150&Type=search", "url2": "iris@rehabili-park.com" }, "geometry": { "type": "Point", "coordinates": [ 141.5220693, 40.5228718 ] } },
{ "type": "Feature", "properties": { "内容": "リハビリパークえんぶり物語デイサービスセンター【通所介護】青森県八戸市大字河原木字見立山６－２０９", "url": "https://www.kaigokensaku.mhlw.go.jp/02/index.php?action_kouhyou_detail_004_kani=true&JigyosyoCd=0270300882-00&ServiceCd=150&Type=search", "url2": "http://www.rehabili-park.com" }, "geometry": { "type": "Point", "coordinates": [ 141.450129899999979, 40.5415073 ] } },
{ "type": "Feature", "properties": { "内容": "デイサービスあんず【通所介護】青森県八戸市大字新井田字外久保3-11", "url": "https://www.kaigokensaku.mhlw.go.jp/02/index.php?action_kouhyou_detail_004_kani=true&JigyosyoCd=0270301021-00&ServiceCd=150&Type=search", "url2": "www.mihono.jp/service/tsuushokaigo/anzu" }, "geometry": { "type": "Point", "coordinates": [ 141.531438900000012, 40.4945201 ] } },
{ "type": "Feature", "properties": { "内容": "デイサービスみほの【通所介護】青森県八戸市大字大久保字大山31-2", "url": "https://www.kaigokensaku.mhlw.go.jp/02/index.php?action_kouhyou_detail_004_kani=true&JigyosyoCd=0270301229-00&ServiceCd=150&Type=search", "url2": "http://www.mihono.jp" }, "geometry": { "type": "Point", "coordinates": [ 141.577737599999978, 40.4885915 ] } },
{ "type": "Feature", "properties": { "内容": "石堂さくら通りルエ【通所介護】青森県八戸市石堂二丁目29-7", "url": "https://www.kaigokensaku.mhlw.go.jp/02/index.php?action_kouhyou_detail_004_kani=true&JigyosyoCd=0270301484-00&ServiceCd=150&Type=search", "url2": "https://jurakuso.sakura.ne.jp" }, "geometry": { "type": "Point", "coordinates": [ 141.473027799999954, 40.5292396 ] } },
{ "type": "Feature", "properties": { "内容": "あんずの里白銀デイサービスセンター【通所介護】八戸市白銀二丁目1番20", "url": "https://www.kaigokensaku.mhlw.go.jp/02/index.php?action_kouhyou_detail_004_kani=true&JigyosyoCd=0270301526-00&ServiceCd=150&Type=search", "url2": "https://www.zuikoen.or.jp" }, "geometry": { "type": "Point", "coordinates": [ 141.544300600000042, 40.5231336 ] } },
{ "type": "Feature", "properties": { "内容": "デイサービスセンター　さざなみ【通所介護】青森県八戸市小中野8丁目9番20号", "url": "https://www.kaigokensaku.mhlw.go.jp/02/index.php?action_kouhyou_detail_004_kani=true&JigyosyoCd=0270301690-00&ServiceCd=150&Type=search", "url2": "http://www.fukujuso.or.jp/" }, "geometry": { "type": "Point", "coordinates": [ 141.518394700000044, 40.5230884 ] } },
{ "type": "Feature", "properties": { "内容": "デイサービスセンターばんちょう【通所介護】青森県八戸市大字番町７番１", "url": "https://www.kaigokensaku.mhlw.go.jp/02/index.php?action_kouhyou_detail_004_kani=true&JigyosyoCd=0270301724-00&ServiceCd=150&Type=search", "url2": "http://www.sg-miyagikai.jp/" }, "geometry": { "type": "Point", "coordinates": [ 141.489495799999986, 40.5108202 ] } },
{ "type": "Feature", "properties": { "内容": "ニチイケアセンター湊高台【通所介護】湊高台3丁目12-5", "url": "https://www.kaigokensaku.mhlw.go.jp/02/index.php?action_kouhyou_detail_004_kani=true&JigyosyoCd=0270301765-00&ServiceCd=150&Type=search", "url2": "hstk75@nichiigakkann.co.jp" }, "geometry": { "type": "Point", "coordinates": [ 141.54239860000007, 40.5049218 ] } },
{ "type": "Feature", "properties": { "内容": "デイサービスセンターなごむ【通所介護】青森県八戸市南郷大字島守字阿庄内15番地6", "url": "https://www.kaigokensaku.mhlw.go.jp/02/index.php?action_kouhyou_detail_004_kani=true&JigyosyoCd=0270301997-00&ServiceCd=150&Type=search", "url2": "http://www.nanrokukai.com/" }, "geometry": { "type": "Point", "coordinates": [ 141.456874435616669, 40.406814020956404 ] } },
{ "type": "Feature", "properties": { "内容": "光葉園デイサービスセンター　にこにこクラブ【通所介護】青森県八戸市大字鮫町字金屎35-90", "url": "https://www.kaigokensaku.mhlw.go.jp/02/index.php?action_kouhyou_detail_004_kani=true&JigyosyoCd=0270302110-00&ServiceCd=150&Type=search", "url2": "http://www.mirokukai.or.jp/koyoen/" }, "geometry": { "type": "Point", "coordinates": [ 141.577636799999937, 40.5140551 ] } },
{ "type": "Feature", "properties": { "内容": "デイサービスセンター　ほっとハウス【通所介護】青森県八戸市大字尻内町字熊ノ沢35番2特別養護老人ホーム　ほっとハウス", "url": "https://www.kaigokensaku.mhlw.go.jp/02/index.php?action_kouhyou_detail_004_kani=true&JigyosyoCd=0270302235-00&ServiceCd=150&Type=search", "url2": "http://tomonokai.jp/" }, "geometry": { "type": "Point", "coordinates": [ 141.426432644843999, 40.521791354208212 ] } },
{ "type": "Feature", "properties": { "内容": "妙水苑デイサービスセンター【通所介護】青森県八戸市大字妙字分枝３９－１", "url": "https://www.kaigokensaku.mhlw.go.jp/02/index.php?action_kouhyou_detail_004_kani=true&JigyosyoCd=0270302391-00&ServiceCd=150&Type=search", "url2": "http://sg-kumiai.or.jp/kumiai/" }, "geometry": { "type": "Point", "coordinates": [ 141.534494600000016, 40.4854409 ] } },
{ "type": "Feature", "properties": { "内容": "デイサービスセンター真ごころ【通所介護】柏崎４丁目１６番２９号", "url": "https://www.kaigokensaku.mhlw.go.jp/02/index.php?action_kouhyou_detail_004_kani=true&JigyosyoCd=0270303001-00&ServiceCd=150&Type=search", "url2": null }, "geometry": { "type": "Point", "coordinates": [ 141.502210800000057, 40.5154197 ] } },
{ "type": "Feature", "properties": { "内容": "デイサービスセンターハッピースマイル【通所介護】青森県八戸市売市２丁目３－１２カームライフ　サンスマイル内", "url": "https://www.kaigokensaku.mhlw.go.jp/02/index.php?action_kouhyou_detail_004_kani=true&JigyosyoCd=0270303100-00&ServiceCd=150&Type=search", "url2": null }, "geometry": { "type": "Point", "coordinates": [ 141.474680090131187, 40.508326819577611 ] } },
{ "type": "Feature", "properties": { "内容": "デイサービス　ささえ愛【通所介護】青森県八戸市柏崎一丁目10－10すこやかホームゆうゆう　1階", "url": "https://www.kaigokensaku.mhlw.go.jp/02/index.php?action_kouhyou_detail_004_kani=true&JigyosyoCd=0270303134-00&ServiceCd=150&Type=search", "url2": "https://jouhoku-hp.jp/related-facility/sasae-ai.php" }, "geometry": { "type": "Point", "coordinates": [ 141.497644700000023, 40.5131699 ] } },
{ "type": "Feature", "properties": { "内容": "デイサービスあおmimi【通所介護】青森県八戸市青葉三丁目１６－１５", "url": "https://www.kaigokensaku.mhlw.go.jp/02/index.php?action_kouhyou_detail_004_kani=true&JigyosyoCd=0270303233-00&ServiceCd=150&Type=search", "url2": null }, "geometry": { "type": "Point", "coordinates": [ 141.5109516, 40.5088567 ] } },
{ "type": "Feature", "properties": { "内容": "生協デイサービスはんdon【通所介護】青森県八戸市田向4丁目13-8", "url": "https://www.kaigokensaku.mhlw.go.jp/02/index.php?action_kouhyou_detail_004_kani=true&JigyosyoCd=0270303431-00&ServiceCd=150&Type=search", "url2": "http://www.hachinohe-iryou.jp/" }, "geometry": { "type": "Point", "coordinates": [ 141.507156673541203, 40.48836966623108 ] } },
{ "type": "Feature", "properties": { "内容": "ツクイ八戸江陽【通所介護】青森県八戸市江陽1丁目20-14", "url": "https://www.kaigokensaku.mhlw.go.jp/02/index.php?action_kouhyou_detail_004_kani=true&JigyosyoCd=0270303480-00&ServiceCd=150&Type=search", "url2": "http://www.tsukui.net" }, "geometry": { "type": "Point", "coordinates": [ 141.504930342991685, 40.520855592758238 ] } },
{ "type": "Feature", "properties": { "内容": "デイサービスセンター　ハピネスやくら【通所介護】青森県八戸市大字八幡字下樋田1番地1", "url": "https://www.kaigokensaku.mhlw.go.jp/02/index.php?action_kouhyou_detail_004_kani=true&JigyosyoCd=0270303506-00&ServiceCd=150&Type=search", "url2": "https://www.family-wf.jp/happiness-yakura" }, "geometry": { "type": "Point", "coordinates": [ 141.436309899999969, 40.4951708 ] } },
{ "type": "Feature", "properties": { "内容": "デイサービスセンターほおずき【通所介護】青森県八戸市大字糠塚字大杉平８－６", "url": "https://www.kaigokensaku.mhlw.go.jp/02/index.php?action_kouhyou_detail_004_kani=true&JigyosyoCd=0270303860-00&ServiceCd=150&Type=search", "url2": "http://www.medicalfrontier.or.jp" }, "geometry": { "type": "Point", "coordinates": [ 141.481226399999969, 40.4962607 ] } },
{ "type": "Feature", "properties": { "内容": "レッツ倶楽部八戸田向【通所介護】青森県八戸市田向2-4-4", "url": "https://www.kaigokensaku.mhlw.go.jp/02/index.php?action_kouhyou_detail_004_kani=true&JigyosyoCd=0270303902-00&ServiceCd=150&Type=search", "url2": "https://www.lets-club.jp/shop/hachinohetamukai/" }, "geometry": { "type": "Point", "coordinates": [ 141.503844500000014, 40.49612 ] } },
{ "type": "Feature", "properties": { "内容": "特定非営利活動法人ポッケル【通所介護】青森県八戸市西白山台5丁目11番12号", "url": "https://www.kaigokensaku.mhlw.go.jp/02/index.php?action_kouhyou_detail_004_kani=true&JigyosyoCd=0270303910-00&ServiceCd=150&Type=search", "url2": null }, "geometry": { "type": "Point", "coordinates": [ 141.459775600000057, 40.4730325 ] } },
{ "type": "Feature", "properties": { "内容": "しろがね軟水泉【通所介護】青森県八戸市白銀三丁目5-5", "url": "https://www.kaigokensaku.mhlw.go.jp/02/index.php?action_kouhyou_detail_004_kani=true&JigyosyoCd=0270303928-00&ServiceCd=150&Type=search", "url2": "https://info36277.wixsite.com/shiroganeonsen" }, "geometry": { "type": "Point", "coordinates": [ 141.546769899999958, 40.5210339 ] } },
{ "type": "Feature", "properties": { "内容": "コンパスウォーク八戸柏崎【通所介護】青森県八戸市柏崎1-10-44ロイヤルマンション柏崎1F103号室", "url": "https://www.kaigokensaku.mhlw.go.jp/02/index.php?action_kouhyou_detail_004_kani=true&JigyosyoCd=0270304140-00&ServiceCd=150&Type=search", "url2": "https://kinoukaifuku.com" }, "geometry": { "type": "Point", "coordinates": [ 141.497159, 40.5125179 ] } },
{ "type": "Feature", "properties": { "内容": "デイサ－ビスセンタ－岩泉町【通所介護】青森県八戸市岩泉町7番地", "url": "https://www.kaigokensaku.mhlw.go.jp/02/index.php?action_kouhyou_detail_004_kani=true&JigyosyoCd=0270304322-00&ServiceCd=150&Type=search", "url2": null }, "geometry": { "type": "Point", "coordinates": [ 141.494111316532894, 40.508894075466678 ] } },
{ "type": "Feature", "properties": { "内容": "コンパスウォーク八戸下長【通所介護】青森県八戸市下長1丁目19-20", "url": "https://www.kaigokensaku.mhlw.go.jp/02/index.php?action_kouhyou_detail_004_kani=true&JigyosyoCd=0270304397-00&ServiceCd=150&Type=search", "url2": "https://keigo-group.co.jp/" }, "geometry": { "type": "Point", "coordinates": [ 141.4726332, 40.5296862 ] } },
{ "type": "Feature", "properties": { "内容": "社会福祉法人八戸市社会福祉協議会通所介護事業所【通所介護】青森県八戸市南郷大字島守字阿庄内15-2", "url": "https://www.kaigokensaku.mhlw.go.jp/02/index.php?action_kouhyou_detail_004_kani=true&JigyosyoCd=0272700378-00&ServiceCd=150&Type=search", "url2": "https://www.hachinohe-shakyo.or.jp" }, "geometry": { "type": "Point", "coordinates": [ 141.453833700000018, 40.4066153 ] } },
{ "type": "Feature", "properties": { "内容": "特別養護老人ホーム　サンシャイン【通所介護】青森県八戸市東白山台二丁目２番１", "url": "https://www.kaigokensaku.mhlw.go.jp/02/index.php?action_kouhyou_detail_004_kani=true&JigyosyoCd=0270301419-00&ServiceCd=150&Type=search", "url2": "https://s-tokokai.or.jp/facility/tokubetuyogo/" }, "geometry": { "type": "Point", "coordinates": [ 141.471378271260164, 40.489363904475923 ] } },
{ "type": "Feature", "properties": { "内容": "デイサービスセンターやわた【通所介護】青森県八戸市大字八幡字林崎２７－２", "url": "https://www.kaigokensaku.mhlw.go.jp/02/index.php?action_kouhyou_detail_004_kani=true&JigyosyoCd=0270301906-00&ServiceCd=150&Type=search", "url2": "http://www.base-kaigo.com" }, "geometry": { "type": "Point", "coordinates": [ 141.438287700000046, 40.4887744 ] } },
{ "type": "Feature", "properties": { "内容": "なかざわデイサービスセンター【通所介護】青森県八戸市湊高台２丁目１２番２号", "url": "https://www.kaigokensaku.mhlw.go.jp/02/index.php?action_kouhyou_detail_004_kani=true&JigyosyoCd=0270304504-00&ServiceCd=150&Type=search", "url2": null }, "geometry": { "type": "Point", "coordinates": [ 141.536629, 40.5052982 ] } },
{ "type": "Feature", "properties": { "内容": "ケア・ステーション淨信館【通所介護】青森県八戸市一番町２丁目３-１２", "url": "https://www.kaigokensaku.mhlw.go.jp/02/index.php?action_kouhyou_detail_004_kani=true&JigyosyoCd=0270301831-00&ServiceCd=150&Type=search", "url2": "http://joshinkan.com/index.html" }, "geometry": { "type": "Point", "coordinates": [ 141.4351067, 40.5092996 ] } },
{ "type": "Feature", "properties": { "内容": "特定非営利活動法人　来夢の里【通所介護】青森県八戸市大字新井田字常光田25-1", "url": "https://www.kaigokensaku.mhlw.go.jp/02/index.php?action_kouhyou_detail_004_kani=true&JigyosyoCd=0270303936-00&ServiceCd=150&Type=search", "url2": null }, "geometry": { "type": "Point", "coordinates": [ 141.5246613, 40.495195 ] } },
{ "type": "Feature", "properties": { "内容": "デイサービスふきのとう【通所介護】八戸市是川一丁目11番地1デイサービスふきのとう", "url": "https://www.kaigokensaku.mhlw.go.jp/02/index.php?action_kouhyou_detail_004_kani=true&JigyosyoCd=0270304520-00&ServiceCd=150&Type=search", "url2": "https://dearest-care.jp" }, "geometry": { "type": "Point", "coordinates": [ 141.4988549, 40.4665207 ] } },
{ "type": "Feature", "properties": { "内容": "デイサービスセンターひまわり苑【通所介護】青森県八戸市糠塚字下屋敷6-1", "url": "https://www.kaigokensaku.mhlw.go.jp/02/index.php?action_kouhyou_detail_004_kani=true&JigyosyoCd=0270300247-00&ServiceCd=150&Type=search", "url2": "himawarien@proof.ocn.ne.jp" }, "geometry": { "type": "Point", "coordinates": [ 141.4815635, 40.5069706 ] } },
{ "type": "Feature", "properties": { "内容": "黒石デイサービスセンター【通所介護】青森県黒石市大字赤坂字池田136番地", "url": "https://www.kaigokensaku.mhlw.go.jp/02/index.php?action_kouhyou_detail_004_kani=true&JigyosyoCd=0270400096-00&ServiceCd=150&Type=search", "url2": "http://www.roujinhome-kuroishi.or.jp" }, "geometry": { "type": "Point", "coordinates": [ 140.610023700000056, 40.6660795 ] } },
{ "type": "Feature", "properties": { "内容": "すみれデイサービスセンター【通所介護】黒石市馬場尻南61-2", "url": "https://www.kaigokensaku.mhlw.go.jp/02/index.php?action_kouhyou_detail_004_kani=true&JigyosyoCd=0270400104-00&ServiceCd=150&Type=search", "url2": "http://sumire-kai.jp/" }, "geometry": { "type": "Point", "coordinates": [ 140.5867922, 40.6748472 ] } },
{ "type": "Feature", "properties": { "内容": "すみれデイサービスセンター花巻【通所介護】青森県黒石市大字花巻字村北13-3", "url": "https://www.kaigokensaku.mhlw.go.jp/02/index.php?action_kouhyou_detail_004_kani=true&JigyosyoCd=0270400120-00&ServiceCd=150&Type=search", "url2": "http://社会福祉法人すみれ会.com/" }, "geometry": { "type": "Point", "coordinates": [ 140.645326399999931, 40.6231191 ] } },
{ "type": "Feature", "properties": { "内容": "デイサービスセンターあさがお【通所介護】青森県黒石市緑町4丁目１８０－２", "url": "https://www.kaigokensaku.mhlw.go.jp/02/index.php?action_kouhyou_detail_004_kani=true&JigyosyoCd=0270400427-00&ServiceCd=150&Type=search", "url2": "http://www.miyukikai.jpindexphp?id=3" }, "geometry": { "type": "Point", "coordinates": [ 140.59000919999994, 40.6534443 ] } },
{ "type": "Feature", "properties": { "内容": "デイサービス「ゆうじょう」【通所介護】青森県黒石市大字東野添字長坂道北152番地7", "url": "https://www.kaigokensaku.mhlw.go.jp/02/index.php?action_kouhyou_detail_004_kani=true&JigyosyoCd=0270401037-00&ServiceCd=150&Type=search", "url2": null }, "geometry": { "type": "Point", "coordinates": [ 140.614797, 40.646479 ] } },
{ "type": "Feature", "properties": { "内容": "祥光苑デイサービスセンター【通所介護】青森県五所川原市大字沖飯詰字帯刀３５７番地１", "url": "https://www.kaigokensaku.mhlw.go.jp/02/index.php?action_kouhyou_detail_004_kani=true&JigyosyoCd=0270500101-00&ServiceCd=150&Type=search", "url2": "//www.shokoen.or.jp" }, "geometry": { "type": "Point", "coordinates": [ 140.4525741, 40.8357852 ] } },
{ "type": "Feature", "properties": { "内容": "青山荘デイサービスセンター【通所介護】青森県五所川原市大字金山字盛山４２－８", "url": "https://www.kaigokensaku.mhlw.go.jp/02/index.php?action_kouhyou_detail_004_kani=true&JigyosyoCd=0270500127-00&ServiceCd=150&Type=search", "url2": "http://www.seizanso.or.jp/" }, "geometry": { "type": "Point", "coordinates": [ 140.4992244, 40.8090506 ] } },
{ "type": "Feature", "properties": { "内容": "五所川原市地域福祉センター【通所介護】青森県五所川原市字幾世森２４番地３８", "url": "https://www.kaigokensaku.mhlw.go.jp/02/index.php?action_kouhyou_detail_004_kani=true&JigyosyoCd=0270500226-00&ServiceCd=150&Type=search", "url2": "http://gccsw.net/sisetu/sisetuindex.html" }, "geometry": { "type": "Point", "coordinates": [ 140.447358300000019, 40.8204396 ] } },
{ "type": "Feature", "properties": { "内容": "うめたデイサービスセンター【通所介護】青森県五所川原市大字梅田字福浦４０５－２", "url": "https://www.kaigokensaku.mhlw.go.jp/02/index.php?action_kouhyou_detail_004_kani=true&JigyosyoCd=0270500325-00&ServiceCd=150&Type=search", "url2": "http://www4.plala.or.jp/umeta/index.html" }, "geometry": { "type": "Point", "coordinates": [ 140.472202899999957, 40.7753565 ] } },
{ "type": "Feature", "properties": { "内容": "あけぼのデイサービスセンター【通所介護】青森県五所川原市長橋字橋元75-1", "url": "https://www.kaigokensaku.mhlw.go.jp/02/index.php?action_kouhyou_detail_004_kani=true&JigyosyoCd=0270500374-00&ServiceCd=150&Type=search", "url2": null }, "geometry": { "type": "Point", "coordinates": [ 140.446621193202304, 40.817282427803711 ] } },
{ "type": "Feature", "properties": { "内容": "社会福祉法人　白生会　デイサービス　けやき【通所介護】青森県五所川原市字敷島町１番地３", "url": "https://www.kaigokensaku.mhlw.go.jp/02/index.php?action_kouhyou_detail_004_kani=true&JigyosyoCd=0270500655-00&ServiceCd=150&Type=search", "url2": "http://welfare.hakuseikai.com/" }, "geometry": { "type": "Point", "coordinates": [ 140.44550049999998, 40.8121683 ] } },
{ "type": "Feature", "properties": { "内容": "市浦生活支援ハウス【通所介護】青森県五所川原市相内３２１番地", "url": "https://www.kaigokensaku.mhlw.go.jp/02/index.php?action_kouhyou_detail_004_kani=true&JigyosyoCd=0270500697-00&ServiceCd=150&Type=search", "url2": "http://gccsw.net/" }, "geometry": { "type": "Point", "coordinates": [ 140.346835, 41.0545529 ] } },
{ "type": "Feature", "properties": { "内容": "デイサービスセンターひかり【通所介護】青森県五所川原市大字姥萢字桜木255", "url": "https://www.kaigokensaku.mhlw.go.jp/02/index.php?action_kouhyou_detail_004_kani=true&JigyosyoCd=0270500747-00&ServiceCd=150&Type=search", "url2": null }, "geometry": { "type": "Point", "coordinates": [ 140.441504913422023, 40.790044976496041 ] } },
{ "type": "Feature", "properties": { "内容": "デイサービスセンターあしの園【通所介護】青森県五所川原市金木町川倉七夕野84-442", "url": "https://www.kaigokensaku.mhlw.go.jp/02/index.php?action_kouhyou_detail_004_kani=true&JigyosyoCd=0270500754-00&ServiceCd=150&Type=search", "url2": "http：//asino-kai.com" }, "geometry": { "type": "Point", "coordinates": [ 140.456754480426071, 40.921449347608366 ] } },
{ "type": "Feature", "properties": { "内容": "さかもとデイサービスセンター【通所介護】青森県五所川原市字鎌谷町519番地5", "url": "https://www.kaigokensaku.mhlw.go.jp/02/index.php?action_kouhyou_detail_004_kani=true&JigyosyoCd=0270500788-00&ServiceCd=150&Type=search", "url2": "http://www.sakamoto-sekkotu-in.com/" }, "geometry": { "type": "Point", "coordinates": [ 140.453999899999985, 40.807858 ] } },
{ "type": "Feature", "properties": { "内容": "デイサービスセンターまごころ【通所介護】青森県五所川原市大字唐笠柳字藤巻478－17", "url": "https://www.kaigokensaku.mhlw.go.jp/02/index.php?action_kouhyou_detail_004_kani=true&JigyosyoCd=0270500911-00&ServiceCd=150&Type=search", "url2": null }, "geometry": { "type": "Point", "coordinates": [ 140.462797200000068, 40.7938793 ] } },
{ "type": "Feature", "properties": { "内容": "デイサービス　ライラック【通所介護】青森県五所川原市福山実吉72-3", "url": "https://www.kaigokensaku.mhlw.go.jp/02/index.php?action_kouhyou_detail_004_kani=true&JigyosyoCd=0270500937-00&ServiceCd=150&Type=search", "url2": "http://lilac-group.jp" }, "geometry": { "type": "Point", "coordinates": [ 140.497339499999953, 40.7786898 ] } },
{ "type": "Feature", "properties": { "内容": "通所介護事業所　さかもと広場【通所介護】青森県五所川原市大字広田字榊森51-7", "url": "https://www.kaigokensaku.mhlw.go.jp/02/index.php?action_kouhyou_detail_004_kani=true&JigyosyoCd=0270501018-00&ServiceCd=150&Type=search", "url2": "http://sakamoto-sekkotu-in.com/" }, "geometry": { "type": "Point", "coordinates": [ 140.46730424655766, 40.784464143336095 ] } },
{ "type": "Feature", "properties": { "内容": "デイサービスのざと【通所介護】青森県五所川原市大字神山字牧原56-1", "url": "https://www.kaigokensaku.mhlw.go.jp/02/index.php?action_kouhyou_detail_004_kani=true&JigyosyoCd=0270501034-00&ServiceCd=150&Type=search", "url2": "http://www.masuda-hp.net" }, "geometry": { "type": "Point", "coordinates": [ 140.516412599999967, 40.7847451 ] } },
{ "type": "Feature", "properties": { "内容": "デイサービスセンター　ラポール【通所介護】青森県五所川原市大字水野尾字懸樋218番地1", "url": "https://www.kaigokensaku.mhlw.go.jp/02/index.php?action_kouhyou_detail_004_kani=true&JigyosyoCd=0270501075-00&ServiceCd=150&Type=search", "url2": "rapport@takushinkai.or.jp" }, "geometry": { "type": "Point", "coordinates": [ 140.48271067857354, 40.790798067168161 ] } },
{ "type": "Feature", "properties": { "内容": "ESCORTデイ　ここあす【通所介護】青森県五所川原市栄町26番地", "url": "https://www.kaigokensaku.mhlw.go.jp/02/index.php?action_kouhyou_detail_004_kani=true&JigyosyoCd=0270501232-00&ServiceCd=150&Type=search", "url2": null }, "geometry": { "type": "Point", "coordinates": [ 140.4456288, 40.7992032 ] } },
{ "type": "Feature", "properties": { "内容": "五所川原リハビリ倶楽部【通所介護】青森県五所川原市大字水野尾字懸樋222-1", "url": "https://www.kaigokensaku.mhlw.go.jp/02/index.php?action_kouhyou_detail_004_kani=true&JigyosyoCd=0270501281-00&ServiceCd=150&Type=search", "url2": "http://www.takushinkai.or.jp" }, "geometry": { "type": "Point", "coordinates": [ 140.482204499999966, 40.7895035 ] } },
{ "type": "Feature", "properties": { "内容": "デイサービス　浅井【通所介護】浅井字色吉163番地1", "url": "https://www.kaigokensaku.mhlw.go.jp/02/index.php?action_kouhyou_detail_004_kani=true&JigyosyoCd=0270501398-00&ServiceCd=150&Type=search", "url2": "asaidey@takushinkai.or.jp" }, "geometry": { "type": "Point", "coordinates": [ 140.488905, 40.7786543 ] } },
{ "type": "Feature", "properties": { "内容": "五所川原市社会福祉協議会金木支所【通所介護】五所川原市金木町川倉七夕野426番地11", "url": "https://www.kaigokensaku.mhlw.go.jp/02/index.php?action_kouhyou_detail_004_kani=true&JigyosyoCd=0272400052-00&ServiceCd=150&Type=search", "url2": null }, "geometry": { "type": "Point", "coordinates": [ 140.462972700000023, 40.918457 ] } },
{ "type": "Feature", "properties": { "内容": "デイサービスセンターラサンブレ御所【通所介護】青森県五所川原市栄町７０番地４", "url": "https://www.kaigokensaku.mhlw.go.jp/02/index.php?action_kouhyou_detail_004_kani=true&JigyosyoCd=0270501299-00&ServiceCd=150&Type=search", "url2": "www.seizanso.or.jp/" }, "geometry": { "type": "Point", "coordinates": [ 140.446721706740789, 40.799734995513326 ] } },
{ "type": "Feature", "properties": { "内容": "有限会社　ケアサービスたんぽぽ【通所介護】青森県五所川原市金木町芦野２００－２６７", "url": "https://www.kaigokensaku.mhlw.go.jp/02/index.php?action_kouhyou_detail_004_kani=true&JigyosyoCd=0272400557-00&ServiceCd=150&Type=search", "url2": null }, "geometry": { "type": "Point", "coordinates": [ 140.4560179, 40.9116827 ] } },
{ "type": "Feature", "properties": { "内容": "さかえデイサービスセンター【通所介護】五所川原市大字水野尾字懸樋222-3", "url": "https://www.kaigokensaku.mhlw.go.jp/02/index.php?action_kouhyou_detail_004_kani=true&JigyosyoCd=0270500168-00&ServiceCd=150&Type=search", "url2": null }, "geometry": { "type": "Point", "coordinates": [ 140.481571, 40.790294 ] } },
{ "type": "Feature", "properties": { "内容": "デイサービスセンター　まちなか【通所介護】青森県十和田市東三番町1-6生きがいプラザ　1階", "url": "https://www.kaigokensaku.mhlw.go.jp/02/index.php?action_kouhyou_detail_004_kani=true&JigyosyoCd=0270601305-00&ServiceCd=150&Type=search", "url2": "http://ikigai.towada.net" }, "geometry": { "type": "Point", "coordinates": [ 141.2149972, 40.6159867 ] } },
{ "type": "Feature", "properties": { "内容": "コンパスウォーク十和田中央【通所介護】青森県十和田市稲生町17-11", "url": "https://www.kaigokensaku.mhlw.go.jp/02/index.php?action_kouhyou_detail_004_kani=true&JigyosyoCd=0270601354-00&ServiceCd=150&Type=search", "url2": null }, "geometry": { "type": "Point", "coordinates": [ 141.2145343, 40.6131268 ] } },
{ "type": "Feature", "properties": { "内容": "デイサービスセンターなかよし荘【通所介護】青森県十和田市大字深持字南平３１２－４", "url": "https://www.kaigokensaku.mhlw.go.jp/02/index.php?action_kouhyou_detail_004_kani=true&JigyosyoCd=0270600042-00&ServiceCd=150&Type=search", "url2": "http://www.nakayoshi-sou.or.jp" }, "geometry": { "type": "Point", "coordinates": [ 141.172910900000034, 40.6145301 ] } },
{ "type": "Feature", "properties": { "内容": "十和田デイサービスセンター【通所介護】青森県十和田市西二十三番町30-36", "url": "https://www.kaigokensaku.mhlw.go.jp/02/index.php?action_kouhyou_detail_004_kani=true&JigyosyoCd=0270600109-00&ServiceCd=150&Type=search", "url2": "http://www.fukushinosato.com" }, "geometry": { "type": "Point", "coordinates": [ 141.19792259999997, 40.6076282 ] } },
{ "type": "Feature", "properties": { "内容": "デイサービスセンターきゃんぱす【通所介護】十和田市大字相坂字小林76-5", "url": "https://www.kaigokensaku.mhlw.go.jp/02/index.php?action_kouhyou_detail_004_kani=true&JigyosyoCd=0270600463-00&ServiceCd=150&Type=search", "url2": "http：//www.towadakokai.jp" }, "geometry": { "type": "Point", "coordinates": [ 141.23073039999997, 40.5986967 ] } },
{ "type": "Feature", "properties": { "内容": "ＪＡ十和田おいらせデイサービスセンター「きずな」【通所介護】十和田市東一番町6-5", "url": "https://www.kaigokensaku.mhlw.go.jp/02/index.php?action_kouhyou_detail_004_kani=true&JigyosyoCd=0270600760-00&ServiceCd=150&Type=search", "url2": "http://care-net.biz/02/kizuna/" }, "geometry": { "type": "Point", "coordinates": [ 141.214589700000033, 40.6202859 ] } },
{ "type": "Feature", "properties": { "内容": "青い森ケアうるおい【通所介護】青森県十和田市大字三本木字西小稲206-2", "url": "https://www.kaigokensaku.mhlw.go.jp/02/index.php?action_kouhyou_detail_004_kani=true&JigyosyoCd=0270600877-00&ServiceCd=150&Type=search", "url2": "http://aoimori-care.com/" }, "geometry": { "type": "Point", "coordinates": [ 141.2103687, 40.5959299 ] } },
{ "type": "Feature", "properties": { "内容": "デイサービスセンター八甲荘【通所介護】大字相坂字高清水７８－２３２", "url": "https://www.kaigokensaku.mhlw.go.jp/02/index.php?action_kouhyou_detail_004_kani=true&JigyosyoCd=0270600984-00&ServiceCd=150&Type=search", "url2": "http://hakkoudakai.jp" }, "geometry": { "type": "Point", "coordinates": [ 141.261137700000035, 40.6331999 ] } },
{ "type": "Feature", "properties": { "内容": "デイサービスセンターよつ葉【通所介護】青森県十和田市東十一番町２３番３５号", "url": "https://www.kaigokensaku.mhlw.go.jp/02/index.php?action_kouhyou_detail_004_kani=true&JigyosyoCd=0270601115-00&ServiceCd=150&Type=search", "url2": "http://www.yotuba4968.com" }, "geometry": { "type": "Point", "coordinates": [ 141.222920441139223, 40.62468435405885 ] } },
{ "type": "Feature", "properties": { "内容": "デイサービスセンターおいらせ【通所介護】青森県十和田市大字奥瀬字中平155", "url": "https://www.kaigokensaku.mhlw.go.jp/02/index.php?action_kouhyou_detail_004_kani=true&JigyosyoCd=0272501057-00&ServiceCd=150&Type=search", "url2": "http://www.sg-kumiai.or.jp/oirase/index.htm" }, "geometry": { "type": "Point", "coordinates": [ 141.107279, 40.5853188 ] } },
{ "type": "Feature", "properties": { "内容": "トコスデイサービス【通所介護】青森県十和田市一本木沢１丁目１１－２２", "url": "https://www.kaigokensaku.mhlw.go.jp/02/index.php?action_kouhyou_detail_004_kani=true&JigyosyoCd=0270601032-00&ServiceCd=150&Type=search", "url2": "http://tocos.main.jp/" }, "geometry": { "type": "Point", "coordinates": [ 141.228876600663767, 40.632096132884975 ] } },
{ "type": "Feature", "properties": { "内容": "ニチイケアセンター三沢【通所介護】青森県三沢市大町2丁目8-3", "url": "https://www.kaigokensaku.mhlw.go.jp/02/index.php?action_kouhyou_detail_004_kani=true&JigyosyoCd=0270700081-00&ServiceCd=150&Type=search", "url2": "http:/www.nichiigakkan.co.jp" }, "geometry": { "type": "Point", "coordinates": [ 141.3624853, 40.6780284 ] } },
{ "type": "Feature", "properties": { "内容": "ひばり苑デイサービスセンター【通所介護】青森県三沢市六川目六丁目２８番地６号", "url": "https://www.kaigokensaku.mhlw.go.jp/02/index.php?action_kouhyou_detail_004_kani=true&JigyosyoCd=0270700115-00&ServiceCd=150&Type=search", "url2": "Joukoukai@joukoukai.or.jp" }, "geometry": { "type": "Point", "coordinates": [ 141.4020749, 40.7723223 ] } },
{ "type": "Feature", "properties": { "内容": "デイサービスセンターにこにこプラザみさわ【通所介護】青森県三沢市松園町3丁目2番1号", "url": "https://www.kaigokensaku.mhlw.go.jp/02/index.php?action_kouhyou_detail_004_kani=true&JigyosyoCd=0270700214-00&ServiceCd=150&Type=search", "url2": "https://www.jinsenkai.com/" }, "geometry": { "type": "Point", "coordinates": [ 141.365604599999983, 40.6764592 ] } },
{ "type": "Feature", "properties": { "内容": "合同会社All-gooo　歩行・リハビリ特化型デイサービス　アルクGYM【通所介護】松園町2丁目19-9", "url": "https://www.kaigokensaku.mhlw.go.jp/02/index.php?action_kouhyou_detail_004_kani=true&JigyosyoCd=0270700727-00&ServiceCd=150&Type=search", "url2": null }, "geometry": { "type": "Point", "coordinates": [ 141.3687836, 40.6757311 ] } },
{ "type": "Feature", "properties": { "内容": "ほっと荘デイサービス【通所介護】青森県三沢市緑町１丁目２－１０", "url": "https://www.kaigokensaku.mhlw.go.jp/02/index.php?action_kouhyou_detail_004_kani=true&JigyosyoCd=0270700628-00&ServiceCd=150&Type=search", "url2": null }, "geometry": { "type": "Point", "coordinates": [ 141.372210526983622, 40.68667769620933 ] } },
{ "type": "Feature", "properties": { "内容": "恵光園デイサービスセンター【通所介護】青森県むつ市大字奥内字11番3号", "url": "https://www.kaigokensaku.mhlw.go.jp/02/index.php?action_kouhyou_detail_004_kani=true&JigyosyoCd=0270800055-00&ServiceCd=150&Type=search", "url2": null }, "geometry": { "type": "Point", "coordinates": [ 141.280056899999977, 41.1930587 ] } },
{ "type": "Feature", "properties": { "内容": "デイセンター桜木【通所介護】青森県むつ市中央二丁目23-1", "url": "https://www.kaigokensaku.mhlw.go.jp/02/index.php?action_kouhyou_detail_004_kani=true&JigyosyoCd=0270800097-00&ServiceCd=150&Type=search", "url2": "https://sakuragien.sakuragikai.net" }, "geometry": { "type": "Point", "coordinates": [ 141.184890727895578, 41.29059186262576 ] } },
{ "type": "Feature", "properties": { "内容": "ニチイケアセンターむつ【通所介護】青森県むつ市関根字北関根205-4", "url": "https://www.kaigokensaku.mhlw.go.jp/02/index.php?action_kouhyou_detail_004_kani=true&JigyosyoCd=0270800113-00&ServiceCd=150&Type=search", "url2": "http://nichiigakkan.co.jp" }, "geometry": { "type": "Point", "coordinates": [ 141.205751100000043, 41.3596038 ] } },
{ "type": "Feature", "properties": { "内容": "いりえデイサービスセンター【通所介護】青森県むつ市大字田名部字宮ノ後198-1", "url": "https://www.kaigokensaku.mhlw.go.jp/02/index.php?action_kouhyou_detail_004_kani=true&JigyosyoCd=0270800402-00&ServiceCd=150&Type=search", "url2": null }, "geometry": { "type": "Point", "coordinates": [ 141.20523849999995, 41.3263411 ] } },
{ "type": "Feature", "properties": { "内容": "デイサービスアイランド【通所介護】青森県むつ市大湊新町9番43号サービス付き高齢者向け住宅アイランド", "url": "https://www.kaigokensaku.mhlw.go.jp/02/index.php?action_kouhyou_detail_004_kani=true&JigyosyoCd=0270800782-00&ServiceCd=150&Type=search", "url2": "https://chitsukaoshima0106.wixsite.com/mysite-1" }, "geometry": { "type": "Point", "coordinates": [ 141.1618555, 41.279555 ] } },
{ "type": "Feature", "properties": { "内容": "せせらぎデイサービスセンター【通所介護】青森県むつ市川内町獅子畑128番地4", "url": "https://www.kaigokensaku.mhlw.go.jp/02/index.php?action_kouhyou_detail_004_kani=true&JigyosyoCd=0272600370-00&ServiceCd=150&Type=search", "url2": "www.yachiyo-kai.com" }, "geometry": { "type": "Point", "coordinates": [ 140.98550350000005, 41.2569248 ] } },
{ "type": "Feature", "properties": { "内容": "ふれあいかんデイサービスセンター【通所介護】青森県むつ市大畑町観音堂25-1むつ市総合福祉センターふれあいかん", "url": "https://www.kaigokensaku.mhlw.go.jp/02/index.php?action_kouhyou_detail_004_kani=true&JigyosyoCd=0272600149-00&ServiceCd=150&Type=search", "url2": "http://sankeikai-aomori.com/" }, "geometry": { "type": "Point", "coordinates": [ 141.157319700000016, 41.399487 ] } },
{ "type": "Feature", "properties": { "内容": "むらなかデイサービス【通所介護】青森県むつ市新町１０－４６", "url": "https://www.kaigokensaku.mhlw.go.jp/02/index.php?action_kouhyou_detail_004_kani=true&JigyosyoCd=0270800329-00&ServiceCd=150&Type=search", "url2": "http://www.muranaka.or.jp/aisatu.html" }, "geometry": { "type": "Point", "coordinates": [ 141.205727, 41.2907631 ] } },
{ "type": "Feature", "properties": { "内容": "夢・プラザデイサービスセンター【通所介護】大畑町中島60-1", "url": "https://www.kaigokensaku.mhlw.go.jp/02/index.php?action_kouhyou_detail_004_kani=true&JigyosyoCd=0270800501-00&ServiceCd=150&Type=search", "url2": "contact@yume-plaza.net" }, "geometry": { "type": "Point", "coordinates": [ 141.165468899999951, 41.4066089 ] } },
{ "type": "Feature", "properties": { "内容": "つがる市社会福祉協議会　デイサービスセンターしゃりき【通所介護】青森県つがる市豊富町屛風山１-377", "url": "https://www.kaigokensaku.mhlw.go.jp/02/index.php?action_kouhyou_detail_004_kani=true&JigyosyoCd=0270900012-00&ServiceCd=150&Type=search", "url2": "http://tsugarushi-shakyo.net/" }, "geometry": { "type": "Point", "coordinates": [ 140.362976521906319, 40.966810645842322 ] } },
{ "type": "Feature", "properties": { "内容": "デイサービスセンター武田の湯【通所介護】青森県つがる市稲垣町繁田袋井１０９－１９デイサービスセンター武田の湯", "url": "https://www.kaigokensaku.mhlw.go.jp/02/index.php?action_kouhyou_detail_004_kani=true&JigyosyoCd=0270900129-00&ServiceCd=150&Type=search", "url2": null }, "geometry": { "type": "Point", "coordinates": [ 140.4133541, 40.9375877 ] } },
{ "type": "Feature", "properties": { "内容": "つがる市社会福祉協議会デイサービスセンターかっこうの館【通所介護】青森県つがる市木造若緑５２番地", "url": "https://www.kaigokensaku.mhlw.go.jp/02/index.php?action_kouhyou_detail_004_kani=true&JigyosyoCd=0272100223-00&ServiceCd=150&Type=search", "url2": "http://tsugarushi-shaky.net/" }, "geometry": { "type": "Point", "coordinates": [ 140.380887, 40.8074559 ] } },
{ "type": "Feature", "properties": { "内容": "つがる市社会福祉協議会デイサービスセンターいながき【通所介護】青森県つがる市稲垣町豊川宮川42番地3", "url": "https://www.kaigokensaku.mhlw.go.jp/02/index.php?action_kouhyou_detail_004_kani=true&JigyosyoCd=0272100413-00&ServiceCd=150&Type=search", "url2": "http://tsugarushi-shakyo.net/" }, "geometry": { "type": "Point", "coordinates": [ 140.395891300000017, 40.88172 ] } },
{ "type": "Feature", "properties": { "内容": "デイサービスセンター　かしわ【通所介護】青森県つがる市柏桑野木田若宮２５８番地１", "url": "https://www.kaigokensaku.mhlw.go.jp/02/index.php?action_kouhyou_detail_004_kani=true&JigyosyoCd=0272100579-00&ServiceCd=150&Type=search", "url2": "https://www.hakuyuukai.com" }, "geometry": { "type": "Point", "coordinates": [ 140.405395532471402, 40.779576775826655 ] } },
{ "type": "Feature", "properties": { "内容": "つがる市社会福祉協議会　デイサービスセンターあーすとぴあ【通所介護】青森県つがる市森田町森田月見野２７７番地３", "url": "https://www.kaigokensaku.mhlw.go.jp/02/index.php?action_kouhyou_detail_004_kani=true&JigyosyoCd=0272100793-00&ServiceCd=150&Type=search", "url2": "http://tsugarushi-shakyo.net/" }, "geometry": { "type": "Point", "coordinates": [ 140.3468097, 40.7767835 ] } },
{ "type": "Feature", "properties": { "内容": "デイサービスセンター柏風園【通所介護】青森県つがる市木造筒木坂鳥谷沢１８－９", "url": "https://www.kaigokensaku.mhlw.go.jp/02/index.php?action_kouhyou_detail_004_kani=true&JigyosyoCd=0272100827-00&ServiceCd=150&Type=search", "url2": "https://hakufuen.com/" }, "geometry": { "type": "Point", "coordinates": [ 140.346330399999943, 40.9141031 ] } },
{ "type": "Feature", "properties": { "内容": "デイサービスセンター和み【通所介護】青森県つがる市木造藤田44-5", "url": "https://www.kaigokensaku.mhlw.go.jp/02/index.php?action_kouhyou_detail_004_kani=true&JigyosyoCd=0272100892-00&ServiceCd=150&Type=search", "url2": "http://www.takushinkai.or.jp/" }, "geometry": { "type": "Point", "coordinates": [ 140.384647500000028, 40.8167521 ] } },
{ "type": "Feature", "properties": { "内容": "デイサービスセンター　三笠【通所介護】青森県平川市館田西和田200", "url": "https://www.kaigokensaku.mhlw.go.jp/02/index.php?action_kouhyou_detail_004_kani=true&JigyosyoCd=0272300138-00&ServiceCd=150&Type=search", "url2": "http://www.mikasaen.or.jp/" }, "geometry": { "type": "Point", "coordinates": [ 140.539419299999963, 40.5871593 ] } },
{ "type": "Feature", "properties": { "内容": "緑青園デイサービスセンター【通所介護】青森県平川市沖舘和田８４番地", "url": "https://www.kaigokensaku.mhlw.go.jp/02/index.php?action_kouhyou_detail_004_kani=true&JigyosyoCd=0272300450-00&ServiceCd=150&Type=search", "url2": "http://ryokufu.or.jp/" }, "geometry": { "type": "Point", "coordinates": [ 140.57090310000001, 40.5748561 ] } },
{ "type": "Feature", "properties": { "内容": "ディサービスセンターさわやか園【通所介護】青森県平川市日沼樋田８５", "url": "https://www.kaigokensaku.mhlw.go.jp/02/index.php?action_kouhyou_detail_004_kani=true&JigyosyoCd=0272300567-00&ServiceCd=150&Type=search", "url2": "http://www.sawayakaen.net/" }, "geometry": { "type": "Point", "coordinates": [ 140.516564099999982, 40.6203461 ] } },
{ "type": "Feature", "properties": { "内容": "デイサービスあすかの湯【通所介護】青森県平川市町居西田111番地1", "url": "https://www.kaigokensaku.mhlw.go.jp/02/index.php?action_kouhyou_detail_004_kani=true&JigyosyoCd=0272300690-00&ServiceCd=150&Type=search", "url2": "http://www.kaigo-support.co.jp/" }, "geometry": { "type": "Point", "coordinates": [ 140.579143700000031, 40.586746899999987 ] } },
{ "type": "Feature", "properties": { "内容": "デイサービスセンターなごみ【通所介護】青森県平川市柏木町藤山30-35", "url": "https://www.kaigokensaku.mhlw.go.jp/02/index.php?action_kouhyou_detail_004_kani=true&JigyosyoCd=0272300823-00&ServiceCd=150&Type=search", "url2": "https://miraikai.cloud-line.com/" }, "geometry": { "type": "Point", "coordinates": [ 140.563703499999974, 40.5843661 ] } },
{ "type": "Feature", "properties": { "内容": "デイサービスセンターおのえ【通所介護】青森県平川市中佐渡上石田３６－１", "url": "https://www.kaigokensaku.mhlw.go.jp/02/index.php?action_kouhyou_detail_004_kani=true&JigyosyoCd=0272301011-00&ServiceCd=150&Type=search", "url2": "http://www.tsugaru-sanwakai.or.jp/" }, "geometry": { "type": "Point", "coordinates": [ 140.564494976721193, 40.608061386578136 ] } },
{ "type": "Feature", "properties": { "内容": "デイサービスセンター夜越山【通所介護】青森県東津軽郡平内町大字浜子字堀替７７－３", "url": "https://www.kaigokensaku.mhlw.go.jp/02/index.php?action_kouhyou_detail_004_kani=true&JigyosyoCd=0272000472-00&ServiceCd=150&Type=search", "url2": "http://www.s-care.jp/" }, "geometry": { "type": "Point", "coordinates": [ 140.991033600000037, 40.92646 ] } },
{ "type": "Feature", "properties": { "内容": "社会福祉法人徳寿福祉会　デイサービスセンターひまわり【通所介護】青森県東津軽郡平内町清水川字権十郎新田８", "url": "https://www.kaigokensaku.mhlw.go.jp/02/index.php?action_kouhyou_detail_004_kani=true&JigyosyoCd=0272000050-00&ServiceCd=150&Type=search", "url2": "https://sites.google.com/view/hiranaitown-dsc-himawari/%E3%83%87%E3%82%A4%E3%82%B5%E3%83%BC%E3%83%93%E3%82%B9%E3%82%BB%E3%83%B3%E3%82%BF%E3%83%BC" }, "geometry": { "type": "Point", "coordinates": [ 141.011109499999947, 40.9272415 ] } },
{ "type": "Feature", "properties": { "内容": "よもぎケアセンター【通所介護】青森県東津軽郡蓬田村大字郷沢字浜田397", "url": "https://www.kaigokensaku.mhlw.go.jp/02/index.php?action_kouhyou_detail_004_kani=true&JigyosyoCd=0272000225-00&ServiceCd=150&Type=search", "url2": "http://www/watona-ru.com/houseien" }, "geometry": { "type": "Point", "coordinates": [ 140.647715799999986, 40.9900592 ] } },
{ "type": "Feature", "properties": { "内容": "外ヶ浜町三厩高齢者生活福祉センター寿楽園【通所介護】青森県東津軽郡外ヶ浜町字三厩新町７番地", "url": "https://www.kaigokensaku.mhlw.go.jp/02/index.php?action_kouhyou_detail_004_kani=true&JigyosyoCd=0272000316-00&ServiceCd=150&Type=search", "url2": "http://www.ajisaikai.or.jp" }, "geometry": { "type": "Point", "coordinates": [ 140.4353132, 41.1948023 ] } },
{ "type": "Feature", "properties": { "内容": "外ヶ浜町社協蟹田通所介護事業所【通所介護】青森県東津軽郡外ヶ浜町字下蟹田43-2外ヶ浜町総合福祉センター「などわーる」", "url": "https://www.kaigokensaku.mhlw.go.jp/02/index.php?action_kouhyou_detail_004_kani=true&JigyosyoCd=0272000399-00&ServiceCd=150&Type=search", "url2": "http://www.s-syakyo.jp" }, "geometry": { "type": "Point", "coordinates": [ 140.639514599999984, 41.0428707 ] } },
{ "type": "Feature", "properties": { "内容": "つくし荘デイサービスセンター【通所介護】青森県西津軽郡鯵ヶ沢町大字北浮田町字今須87-1", "url": "https://www.kaigokensaku.mhlw.go.jp/02/index.php?action_kouhyou_detail_004_kani=true&JigyosyoCd=0272100298-00&ServiceCd=150&Type=search", "url2": "http://aomoritsukushikai.com/" }, "geometry": { "type": "Point", "coordinates": [ 140.253567400000065, 40.790002 ] } },
{ "type": "Feature", "properties": { "内容": "あじがさわ　いきいきラボ【通所介護】青森県西津軽郡鰺ヶ沢町大字舞戸町字後家屋敷9番地の4鰺ヶ沢町総合保健福祉センター", "url": "https://www.kaigokensaku.mhlw.go.jp/02/index.php?action_kouhyou_detail_004_kani=true&JigyosyoCd=0272101155-00&ServiceCd=150&Type=search", "url2": "http://www.ajisyakyo.justhpbs.jp" }, "geometry": { "type": "Point", "coordinates": [ 140.229128, 40.7706013 ] } },
{ "type": "Feature", "properties": { "内容": "あいデイサービス【通所介護】青森県西津軽郡鯵ヶ沢町大字舞戸町字北禿142-1", "url": "https://www.kaigokensaku.mhlw.go.jp/02/index.php?action_kouhyou_detail_004_kani=true&JigyosyoCd=0272101031-00&ServiceCd=150&Type=search", "url2": null }, "geometry": { "type": "Point", "coordinates": [ 140.223372400000017, 40.7744248 ] } },
{ "type": "Feature", "properties": { "内容": "デイサービスセンターさんふじ【通所介護】青森県南津軽郡藤崎町大字柏木堰字南亀田1番地１", "url": "https://www.kaigokensaku.mhlw.go.jp/02/index.php?action_kouhyou_detail_004_kani=true&JigyosyoCd=0272300195-00&ServiceCd=150&Type=search", "url2": "https://seneikai-sanfuji.com/" }, "geometry": { "type": "Point", "coordinates": [ 140.5130196, 40.6903766 ] } },
{ "type": "Feature", "properties": { "内容": "デイサービスセンターみずき【通所介護】青森県南津軽郡藤崎町大字水木字浅田９５", "url": "https://www.kaigokensaku.mhlw.go.jp/02/index.php?action_kouhyou_detail_004_kani=true&JigyosyoCd=0272300260-00&ServiceCd=150&Type=search", "url2": "http://care-net.biz/02toueikai/" }, "geometry": { "type": "Point", "coordinates": [ 140.536743099999967, 40.6780925 ] } },
{ "type": "Feature", "properties": { "内容": "藤崎町社協デイサービスセンター【通所介護】青森県南津軽郡藤崎町大字常盤字富田67-1", "url": "https://www.kaigokensaku.mhlw.go.jp/02/index.php?action_kouhyou_detail_004_kani=true&JigyosyoCd=0272300385-00&ServiceCd=150&Type=search", "url2": "http://www.@fujisakishakyo.or.jp/" }, "geometry": { "type": "Point", "coordinates": [ 140.54804, 40.6704632 ] } },
{ "type": "Feature", "properties": { "内容": "デイサービスセンター　メープルの里ふじさき【通所介護】青森県南津軽郡藤崎町大字藤崎字東村井１４", "url": "https://www.kaigokensaku.mhlw.go.jp/02/index.php?action_kouhyou_detail_004_kani=true&JigyosyoCd=0272301045-00&ServiceCd=150&Type=search", "url2": "http://www.maple-sato.com" }, "geometry": { "type": "Point", "coordinates": [ 140.501872300000059, 40.6514085 ] } },
{ "type": "Feature", "properties": { "内容": "デイサービスセンター　えびす【通所介護】青森県南津軽郡藤崎町大字藤崎字西浅田60", "url": "https://www.kaigokensaku.mhlw.go.jp/02/index.php?action_kouhyou_detail_004_kani=true&JigyosyoCd=0272300633-00&ServiceCd=150&Type=search", "url2": "https://ebisu-2002-7-22.amebaownd.com/" }, "geometry": { "type": "Point", "coordinates": [ 140.502624962565619, 40.646124097642051 ] } },
{ "type": "Feature", "properties": { "内容": "おおわにデイサービスセンター　ゆけむり荘【通所介護】青森県南津軽郡大鰐町大字大鰐字湯野川原92-88", "url": "https://www.kaigokensaku.mhlw.go.jp/02/index.php?action_kouhyou_detail_004_kani=true&JigyosyoCd=0272300963-00&ServiceCd=150&Type=search", "url2": null }, "geometry": { "type": "Point", "coordinates": [ 140.574988600000012, 40.5192209 ] } },
{ "type": "Feature", "properties": { "内容": "あずみ野デイセンター【通所介護】青森県南津軽郡大鰐町大字鯖石字浅瀬渕３５番地５", "url": "https://www.kaigokensaku.mhlw.go.jp/02/index.php?action_kouhyou_detail_004_kani=true&JigyosyoCd=0272300658-00&ServiceCd=150&Type=search", "url2": "http://www.owani.com/" }, "geometry": { "type": "Point", "coordinates": [ 140.556096759524507, 40.532382217820519 ] } },
{ "type": "Feature", "properties": { "内容": "田舎館村老人デイサービス事業所【通所介護】青森県南津軽郡田舎館村大字八反田字古舘206-1", "url": "https://www.kaigokensaku.mhlw.go.jp/02/index.php?action_kouhyou_detail_004_kani=true&JigyosyoCd=0272300302-00&ServiceCd=150&Type=search", "url2": "http://inakadateshakyo.or.jp/" }, "geometry": { "type": "Point", "coordinates": [ 140.548777200000018, 40.6379762 ] } },
{ "type": "Feature", "properties": { "内容": "デイサービスいぶし銀【通所介護】青森県南津軽田舎館村大字川部字中西田９９番地１", "url": "https://www.kaigokensaku.mhlw.go.jp/02/index.php?action_kouhyou_detail_004_kani=true&JigyosyoCd=0272301334-00&ServiceCd=150&Type=search", "url2": null }, "geometry": { "type": "Point", "coordinates": [ 140.523720419326793, 40.648088845240771 ] } },
{ "type": "Feature", "properties": { "内容": "みどりデイサービスセンター【通所介護】北津軽郡板柳町大字福野田字実田５４番地3", "url": "https://www.kaigokensaku.mhlw.go.jp/02/index.php?action_kouhyou_detail_004_kani=true&JigyosyoCd=0272400177-00&ServiceCd=150&Type=search", "url2": "http://ryokuoukai.net/" }, "geometry": { "type": "Point", "coordinates": [ 140.459799, 40.6972519 ] } },
{ "type": "Feature", "properties": { "内容": "デイサービスセンター鶴住【通所介護】青森県北津軽郡板柳町大字野中字鶴住１０２－２", "url": "https://www.kaigokensaku.mhlw.go.jp/02/index.php?action_kouhyou_detail_004_kani=true&JigyosyoCd=0272400292-00&ServiceCd=150&Type=search", "url2": "http://turuzumikai.jp/" }, "geometry": { "type": "Point", "coordinates": [ 140.450818499999968, 40.7220886 ] } },
{ "type": "Feature", "properties": { "内容": "デイサービスセンターいたや荘【通所介護】青森県北津軽郡板柳町大字辻字岸田６６番地いたや荘", "url": "https://www.kaigokensaku.mhlw.go.jp/02/index.php?action_kouhyou_detail_004_kani=true&JigyosyoCd=0272400466-00&ServiceCd=150&Type=search", "url2": "http://www.tsugaru-sanwakai.or.jp" }, "geometry": { "type": "Point", "coordinates": [ 140.470259299999952, 40.6908448 ] } },
{ "type": "Feature", "properties": { "内容": "デイサービスセンター　ひばの里【通所介護】青森県北津軽郡板柳町大字掛落林字前田140-1", "url": "https://www.kaigokensaku.mhlw.go.jp/02/index.php?action_kouhyou_detail_004_kani=true&JigyosyoCd=0272400599-00&ServiceCd=150&Type=search", "url2": "hibanosato@iaa.itkeeper.ne.jp" }, "geometry": { "type": "Point", "coordinates": [ 140.4402665, 40.7185276 ] } },
{ "type": "Feature", "properties": { "内容": "ライフケア高増デイサービスセンター【通所介護】青森県北津軽郡板柳町大字大俵字和田４２３番地６津軽の里　高増", "url": "https://www.kaigokensaku.mhlw.go.jp/02/index.php?action_kouhyou_detail_004_kani=true&JigyosyoCd=0272401043-00&ServiceCd=150&Type=search", "url2": "http://tsugarunosato.com/takamasu/" }, "geometry": { "type": "Point", "coordinates": [ 140.489398599999959, 40.7173461 ] } },
{ "type": "Feature", "properties": { "内容": "鶴松園デイサービスセンター【通所介護】青森県北津軽郡鶴田町大字廻堰字上野尻142", "url": "https://www.kaigokensaku.mhlw.go.jp/02/index.php?action_kouhyou_detail_004_kani=true&JigyosyoCd=0272400151-00&ServiceCd=150&Type=search", "url2": "http://kakusyou.sakura.ne.jp/" }, "geometry": { "type": "Point", "coordinates": [ 140.397670100000028, 40.7659556 ] } },
{ "type": "Feature", "properties": { "内容": "鶴田町社会福祉協議会【通所介護】青森県北津軽郡鶴田町大字鶴田字沖津193番地", "url": "https://www.kaigokensaku.mhlw.go.jp/02/index.php?action_kouhyou_detail_004_kani=true&JigyosyoCd=0272400201-00&ServiceCd=150&Type=search", "url2": "http://tsuruta-syakyo.or.jp/" }, "geometry": { "type": "Point", "coordinates": [ 140.427785399999948, 40.7489665 ] } },
{ "type": "Feature", "properties": { "内容": "アップル鶴の里【通所介護】青森県北津軽郡鶴田町大字横萢字矢留崎97", "url": "https://www.kaigokensaku.mhlw.go.jp/02/index.php?action_kouhyou_detail_004_kani=true&JigyosyoCd=0272400946-00&ServiceCd=150&Type=search", "url2": null }, "geometry": { "type": "Point", "coordinates": [ 140.48311149999995, 40.7528062 ] } },
{ "type": "Feature", "properties": { "内容": "ワイズ・パーク青森中泊店【通所介護】青森県北津軽郡中泊町中里亀山170-1中泊町総合福祉健康センター湯らぱ〜く", "url": "https://www.kaigokensaku.mhlw.go.jp/02/index.php?action_kouhyou_detail_004_kani=true&JigyosyoCd=0272401340-00&ServiceCd=150&Type=search", "url2": "https://ak-company.jp/" }, "geometry": { "type": "Point", "coordinates": [ 140.4380425, 40.9675135 ] } },
{ "type": "Feature", "properties": { "内容": "社会福祉法人中泊町社会福祉協議会通所介護事業所【通所介護】青森県北津軽郡中泊町大字小泊字朝間25", "url": "https://www.kaigokensaku.mhlw.go.jp/02/index.php?action_kouhyou_detail_004_kani=true&JigyosyoCd=0272400227-00&ServiceCd=150&Type=search", "url2": null }, "geometry": { "type": "Point", "coordinates": [ 140.30983660000004, 41.1275647 ] } },
{ "type": "Feature", "properties": { "内容": "内潟療護園デイサービスセンター【通所介護】青森県北津軽郡中泊町大字田茂木字若宮1933番地", "url": "https://www.kaigokensaku.mhlw.go.jp/02/index.php?action_kouhyou_detail_004_kani=true&JigyosyoCd=0272400268-00&ServiceCd=150&Type=search", "url2": "http://uchigata.or.jp/" }, "geometry": { "type": "Point", "coordinates": [ 140.40951270000005, 41.0032515 ] } },
{ "type": "Feature", "properties": { "内容": "竹山荘デイサービスセンター【通所介護】青森県北津軽郡中泊町大字今泉字神山１４１", "url": "https://www.kaigokensaku.mhlw.go.jp/02/index.php?action_kouhyou_detail_004_kani=true&JigyosyoCd=0272400698-00&ServiceCd=150&Type=search", "url2": "izuminosato@vanilla.ocn.ne.jp" }, "geometry": { "type": "Point", "coordinates": [ 140.4233597, 41.033932 ] } },
{ "type": "Feature", "properties": { "内容": "花まるデイサービスセンター【通所介護】北津軽郡中泊町大字大沢内字海原148-196", "url": "https://www.kaigokensaku.mhlw.go.jp/02/index.php?action_kouhyou_detail_004_kani=true&JigyosyoCd=0272400938-00&ServiceCd=150&Type=search", "url2": null }, "geometry": { "type": "Point", "coordinates": [ 140.4454121, 40.9459283 ] } },
{ "type": "Feature", "properties": { "内容": "デイサービスセンター宝森【通所介護】青森県北津軽郡中泊町大字中里字宝森291番地1", "url": "https://www.kaigokensaku.mhlw.go.jp/02/index.php?action_kouhyou_detail_004_kani=true&JigyosyoCd=0272400367-00&ServiceCd=150&Type=search", "url2": null }, "geometry": { "type": "Point", "coordinates": [ 140.4294344, 40.9688278 ] } },
{ "type": "Feature", "properties": { "内容": "デイサービスセンターはまなす【通所介護】青森県上北郡野辺地町字餅粟川原3-2", "url": "https://www.kaigokensaku.mhlw.go.jp/02/index.php?action_kouhyou_detail_004_kani=true&JigyosyoCd=0272500984-00&ServiceCd=150&Type=search", "url2": "http://www.fukushinosato.com" }, "geometry": { "type": "Point", "coordinates": [ 141.128218800000013, 40.8533453 ] } },
{ "type": "Feature", "properties": { "内容": "デイサービス　ふる里【通所介護】青森県上北郡野辺地町字大月平34-23", "url": "https://www.kaigokensaku.mhlw.go.jp/02/index.php?action_kouhyou_detail_004_kani=true&JigyosyoCd=0272501628-00&ServiceCd=150&Type=search", "url2": null }, "geometry": { "type": "Point", "coordinates": [ 141.141811400000051, 40.8757994 ] } },
{ "type": "Feature", "properties": { "内容": "天寿園デイサービスセンター【通所介護】青森県上北郡七戸町字舟場向川久保308番地", "url": "https://www.kaigokensaku.mhlw.go.jp/02/index.php?action_kouhyou_detail_004_kani=true&JigyosyoCd=0272500281-00&ServiceCd=150&Type=search", "url2": "https://tenjuen.net/" }, "geometry": { "type": "Point", "coordinates": [ 141.17940729999998, 40.7579735 ] } },
{ "type": "Feature", "properties": { "内容": "美土里荘デイサービスセンター梓【通所介護】青森県上北郡七戸町字寒水70-17", "url": "https://www.kaigokensaku.mhlw.go.jp/02/index.php?action_kouhyou_detail_004_kani=true&JigyosyoCd=0272500372-00&ServiceCd=150&Type=search", "url2": "http://midorikai-gr.or.jp" }, "geometry": { "type": "Point", "coordinates": [ 141.174846099999968, 40.7169923 ] } },
{ "type": "Feature", "properties": { "内容": "城南デイサービスセンター【通所介護】青森県上北郡七戸町字太田野19番地4城南福祉プラザ", "url": "https://www.kaigokensaku.mhlw.go.jp/02/index.php?action_kouhyou_detail_004_kani=true&JigyosyoCd=0272501024-00&ServiceCd=150&Type=search", "url2": null }, "geometry": { "type": "Point", "coordinates": [ 141.162773099999981, 40.6911975 ] } },
{ "type": "Feature", "properties": { "内容": "デイサービスセンターにこにこプラザ六戸【通所介護】青森県上北郡六戸町大字犬落瀬字権現沢54-767", "url": "https://www.kaigokensaku.mhlw.go.jp/02/index.php?action_kouhyou_detail_004_kani=true&JigyosyoCd=0272500463-00&ServiceCd=150&Type=search", "url2": "http://www.sg-momijikai.com/" }, "geometry": { "type": "Point", "coordinates": [ 141.303749599999946, 40.6472275 ] } },
{ "type": "Feature", "properties": { "内容": "はるが丘デイサービスセンター【通所介護】青森県上北郡六戸町大字犬落瀬字堀切沢５９－５４", "url": "https://www.kaigokensaku.mhlw.go.jp/02/index.php?action_kouhyou_detail_004_kani=true&JigyosyoCd=0272500778-00&ServiceCd=150&Type=search", "url2": "http://www.rakuseikai.or.jp/" }, "geometry": { "type": "Point", "coordinates": [ 141.346326064418037, 40.659155108434867 ] } },
{ "type": "Feature", "properties": { "内容": "デイサービスセンター　ほのぼの【通所介護】青森県上北郡六戸町小松ヶ丘4丁目77-787", "url": "https://www.kaigokensaku.mhlw.go.jp/02/index.php?action_kouhyou_detail_004_kani=true&JigyosyoCd=0272502014-00&ServiceCd=150&Type=search", "url2": "http://shafuku-nozomi.com/" }, "geometry": { "type": "Point", "coordinates": [ 141.341743100000031, 40.6616349 ] } },
{ "type": "Feature", "properties": { "内容": "デイサービスセンターメープル【通所介護】青森県上北郡六戸町大字上吉田字長谷８５番地１１", "url": "https://www.kaigokensaku.mhlw.go.jp/02/index.php?action_kouhyou_detail_004_kani=true&JigyosyoCd=0272500554-00&ServiceCd=150&Type=search", "url2": "http://meipuru.or.jp/" }, "geometry": { "type": "Point", "coordinates": [ 141.339479100000062, 40.5931894 ] } },
{ "type": "Feature", "properties": { "内容": "エスノス六戸福祉センター　デイサービスセンター【通所介護】青森県上北郡六戸町大字犬落瀬字前谷地98番地", "url": "https://www.kaigokensaku.mhlw.go.jp/02/index.php?action_kouhyou_detail_004_kani=true&JigyosyoCd=0272501032-00&ServiceCd=150&Type=search", "url2": "https://www.esnos.jp" }, "geometry": { "type": "Point", "coordinates": [ 141.322608811639384, 40.607814800374847 ] } },
{ "type": "Feature", "properties": { "内容": "デイサービスセンターなのはな苑【通所介護】青森県上北郡横浜町字三保野５４番地", "url": "https://www.kaigokensaku.mhlw.go.jp/02/index.php?action_kouhyou_detail_004_kani=true&JigyosyoCd=0272500422-00&ServiceCd=150&Type=search", "url2": "http://kiboukai.com/" }, "geometry": { "type": "Point", "coordinates": [ 141.2522348, 41.081033 ] } },
{ "type": "Feature", "properties": { "内容": "デイサービスセンターサンポエム【通所介護】青森県上北郡東北町大字大浦字境ノ沢１２７", "url": "https://www.kaigokensaku.mhlw.go.jp/02/index.php?action_kouhyou_detail_004_kani=true&JigyosyoCd=0272500455-00&ServiceCd=150&Type=search", "url2": "https://akibakai.com" }, "geometry": { "type": "Point", "coordinates": [ 141.235248800000022, 40.7124687 ] } },
{ "type": "Feature", "properties": { "内容": "デイサービスセンター　ヴィラ中央【通所介護】青森県上北郡東北町上北北2丁目３３－５５", "url": "https://www.kaigokensaku.mhlw.go.jp/02/index.php?action_kouhyou_detail_004_kani=true&JigyosyoCd=0272500471-00&ServiceCd=150&Type=search", "url2": "http://washinkai.or.jp" }, "geometry": { "type": "Point", "coordinates": [ 141.255010299999981, 40.7332508 ] } },
{ "type": "Feature", "properties": { "内容": "デイサービスセンター　ぽぷら【通所介護】青森県上北郡東北町字往来の下３３番地３", "url": "https://www.kaigokensaku.mhlw.go.jp/02/index.php?action_kouhyou_detail_004_kani=true&JigyosyoCd=0272500976-00&ServiceCd=150&Type=search", "url2": "http://care-net.biz/02/akamatsu/" }, "geometry": { "type": "Point", "coordinates": [ 141.281428900000037, 40.7750522 ] } },
{ "type": "Feature", "properties": { "内容": "ちびきデイサービスセンター【通所介護】青森県上北郡東北町字大平１番地１１４", "url": "https://www.kaigokensaku.mhlw.go.jp/02/index.php?action_kouhyou_detail_004_kani=true&JigyosyoCd=0272501495-00&ServiceCd=150&Type=search", "url2": "prime-line.jp" }, "geometry": { "type": "Point", "coordinates": [ 141.133, 40.8124804 ] } },
{ "type": "Feature", "properties": { "内容": "デイサービスみらい【通所介護】青森県上北郡東北町大字大浦字唐虫沢４４－１７９", "url": "https://www.kaigokensaku.mhlw.go.jp/02/index.php?action_kouhyou_detail_004_kani=true&JigyosyoCd=0272501727-00&ServiceCd=150&Type=search", "url2": "http://yuukikai.net/" }, "geometry": { "type": "Point", "coordinates": [ 141.293970487696811, 40.701552432583135 ] } },
{ "type": "Feature", "properties": { "内容": "デイサービスセンター松風荘【通所介護】青森県上北郡東北町字乙供123番地", "url": "https://www.kaigokensaku.mhlw.go.jp/02/index.php?action_kouhyou_detail_004_kani=true&JigyosyoCd=0272501941-00&ServiceCd=150&Type=search", "url2": "http://keitokukai-1992.com//" }, "geometry": { "type": "Point", "coordinates": [ 141.194882252476759, 40.766610270457058 ] } },
{ "type": "Feature", "properties": { "内容": "リハビリデイサービスすみれ【通所介護】青森県上北郡東北町上北北1丁目34-103", "url": "https://www.kaigokensaku.mhlw.go.jp/02/index.php?action_kouhyou_detail_004_kani=true&JigyosyoCd=0272502154-00&ServiceCd=150&Type=search", "url2": null }, "geometry": { "type": "Point", "coordinates": [ 141.260932506745888, 40.734237146074811 ] } },
{ "type": "Feature", "properties": { "内容": "ぼんてん荘デイサ－ビスセンタ－【通所介護】青森県上北郡六ヶ所村大字出戸字棚沢１３０番１６", "url": "https://www.kaigokensaku.mhlw.go.jp/02/index.php?action_kouhyou_detail_004_kani=true&JigyosyoCd=0272500604-00&ServiceCd=150&Type=search", "url2": "http://syouryokufukusikai.com/" }, "geometry": { "type": "Point", "coordinates": [ 141.369001499999968, 41.0061387 ] } },
{ "type": "Feature", "properties": { "内容": "たもぎデイサービスセンター【通所介護】青森県上北郡六ヶ所村大字平沼字二階坂92-7", "url": "https://www.kaigokensaku.mhlw.go.jp/02/index.php?action_kouhyou_detail_004_kani=true&JigyosyoCd=0272501164-00&ServiceCd=150&Type=search", "url2": null }, "geometry": { "type": "Point", "coordinates": [ 141.35904830000004, 40.872601 ] } },
{ "type": "Feature", "properties": { "内容": "デイサービスセンター木崎野【通所介護】おいらせ町向山東二丁目２－１２６２", "url": "https://www.kaigokensaku.mhlw.go.jp/02/index.php?action_kouhyou_detail_004_kani=true&JigyosyoCd=0272500547-00&ServiceCd=150&Type=search", "url2": "https://www.seiyukai-oirase.jp" }, "geometry": { "type": "Point", "coordinates": [ 141.39205190000007, 40.6321002 ] } },
{ "type": "Feature", "properties": { "内容": "れいろう倶楽部【通所介護】中野平40番地１イオンモール下田内", "url": "https://www.kaigokensaku.mhlw.go.jp/02/index.php?action_kouhyou_detail_004_kani=true&JigyosyoCd=0272501685-00&ServiceCd=150&Type=search", "url2": null }, "geometry": { "type": "Point", "coordinates": [ 141.418172700000014, 40.6020537 ] } },
{ "type": "Feature", "properties": { "内容": "デイサービスセンター阿光坊の郷【通所介護】上北郡おいらせ町阿光坊１０５-１１０", "url": "https://www.kaigokensaku.mhlw.go.jp/02/index.php?action_kouhyou_detail_004_kani=true&JigyosyoCd=0272501826-00&ServiceCd=150&Type=search", "url2": "http://www.momoishiso.or.jp" }, "geometry": { "type": "Point", "coordinates": [ 141.3742456, 40.6073777 ] } },
{ "type": "Feature", "properties": { "内容": "デイサービスセンター和花【通所介護】青森県上北郡おいらせ町下明堂56番地1", "url": "https://www.kaigokensaku.mhlw.go.jp/02/index.php?action_kouhyou_detail_004_kani=true&JigyosyoCd=0272502006-00&ServiceCd=150&Type=search", "url2": "http://www.momoishiso.or.jp" }, "geometry": { "type": "Point", "coordinates": [ 141.431294100000059, 40.5944885 ] } },
{ "type": "Feature", "properties": { "内容": "デイサービスセンター　ガーデンプレイスおいらせ【通所介護】青森県上北郡おいらせ町鶉久保3-42", "url": "https://www.kaigokensaku.mhlw.go.jp/02/index.php?action_kouhyou_detail_004_kani=true&JigyosyoCd=0272502071-00&ServiceCd=150&Type=search", "url2": "http:///www.momoishiso.or.jp" }, "geometry": { "type": "Point", "coordinates": [ 141.3772073, 40.6572641 ] } },
{ "type": "Feature", "properties": { "内容": "デイサービスセンター　たんぽぽ【通所介護】青森県上北郡おいらせ町沼端370番地1", "url": "https://www.kaigokensaku.mhlw.go.jp/02/index.php?action_kouhyou_detail_004_kani=true&JigyosyoCd=0272500216-00&ServiceCd=150&Type=search", "url2": "http://www.momoishiso.or.jp" }, "geometry": { "type": "Point", "coordinates": [ 141.4460398, 40.6121647 ] } },
{ "type": "Feature", "properties": { "内容": "米寿温泉【通所介護】青森県上北郡おいらせ町立蛇15-4", "url": "https://www.kaigokensaku.mhlw.go.jp/02/index.php?action_kouhyou_detail_004_kani=true&JigyosyoCd=0272502352-00&ServiceCd=150&Type=search", "url2": "https://beijyuonsen.termedi.com/" }, "geometry": { "type": "Point", "coordinates": [ 141.3910433, 40.5993242 ] } },
{ "type": "Feature", "properties": { "内容": "デイサービスセンターくろまつ【通所介護】青森県下北郡大間町大字大間字大間平20－78", "url": "https://www.kaigokensaku.mhlw.go.jp/02/index.php?action_kouhyou_detail_004_kani=true&JigyosyoCd=0272600263-00&ServiceCd=150&Type=search", "url2": null }, "geometry": { "type": "Point", "coordinates": [ 140.927498, 41.5267124 ] } },
{ "type": "Feature", "properties": { "内容": "公益社団法人地域医療振興協会東通村保健福祉センター通所介護事業所【通所介護】青森県下北郡東通村大字砂子又字里１７－２", "url": "https://www.kaigokensaku.mhlw.go.jp/02/index.php?action_kouhyou_detail_004_kani=true&JigyosyoCd=0272600016-00&ServiceCd=150&Type=search", "url2": "https://higashidori.jadecom.or.jp" }, "geometry": { "type": "Point", "coordinates": [ 141.337477400000012, 41.2766568 ] } },
{ "type": "Feature", "properties": { "内容": "デイサービスセンター鶴亀【通所介護】青森県三戸郡三戸町大字斗内字和田60-1", "url": "https://www.kaigokensaku.mhlw.go.jp/02/index.php?action_kouhyou_detail_004_kani=true&JigyosyoCd=0272700329-00&ServiceCd=150&Type=search", "url2": "http://www.keishinkai.com/tsurukamesou" }, "geometry": { "type": "Point", "coordinates": [ 141.2204878, 40.3625767 ] } },
{ "type": "Feature", "properties": { "内容": "デイサービスセンター桜【通所介護】青森県三戸郡三戸町川守田字大明地１８－４", "url": "https://www.kaigokensaku.mhlw.go.jp/02/index.php?action_kouhyou_detail_004_kani=true&JigyosyoCd=0272701418-00&ServiceCd=150&Type=search", "url2": null }, "geometry": { "type": "Point", "coordinates": [ 141.2603782, 40.3838503 ] } },
{ "type": "Feature", "properties": { "内容": "デイサービスセンタールピナス【通所介護】青森県三戸郡五戸町大字浅水字下平35番2", "url": "https://www.kaigokensaku.mhlw.go.jp/02/index.php?action_kouhyou_detail_004_kani=true&JigyosyoCd=0272700444-00&ServiceCd=150&Type=search", "url2": "lupinus@family-wf.jp" }, "geometry": { "type": "Point", "coordinates": [ 141.305011599999943, 40.4786059 ] } },
{ "type": "Feature", "properties": { "内容": "デイサービスセンター　ハピネス五戸【通所介護】青森県三戸郡五戸町字姥堤34番地1", "url": "https://www.kaigokensaku.mhlw.go.jp/02/index.php?action_kouhyou_detail_004_kani=true&JigyosyoCd=0272700428-00&ServiceCd=150&Type=search", "url2": "http://familly-wf.jp/" }, "geometry": { "type": "Point", "coordinates": [ 141.294572099999982, 40.5314937 ] } },
{ "type": "Feature", "properties": { "内容": "デイサービスセンター　コスモス【通所介護】五戸町上市川字中坪37", "url": "https://www.kaigokensaku.mhlw.go.jp/02/index.php?action_kouhyou_detail_004_kani=true&JigyosyoCd=0272700436-00&ServiceCd=150&Type=search", "url2": "http://www.family-wf.jp" }, "geometry": { "type": "Point", "coordinates": [ 141.382457899999963, 40.5517791 ] } },
{ "type": "Feature", "properties": { "内容": "さくら荘デイサービスセンター【通所介護】青森県三戸郡五戸町大字倉石中市字新山平６４-１", "url": "https://www.kaigokensaku.mhlw.go.jp/02/index.php?action_kouhyou_detail_004_kani=true&JigyosyoCd=0272701152-00&ServiceCd=150&Type=search", "url2": "https://www.sakuraso.or.jp" }, "geometry": { "type": "Point", "coordinates": [ 141.2617199, 40.5112313 ] } },
{ "type": "Feature", "properties": { "内容": "デイサービスセンターにこにこプラザ五戸【通所介護】青森県三戸郡五戸町字川原町西裏5-80", "url": "https://www.kaigokensaku.mhlw.go.jp/02/index.php?action_kouhyou_detail_004_kani=true&JigyosyoCd=0272701160-00&ServiceCd=150&Type=search", "url2": "https://www.sg-gonohe.com/" }, "geometry": { "type": "Point", "coordinates": [ 141.293694599999981, 40.5238724 ] } },
{ "type": "Feature", "properties": { "内容": "デイサービスセンターくらいし温泉【通所介護】青森県三戸郡五戸町大字倉石又重字上川原153", "url": "https://www.kaigokensaku.mhlw.go.jp/02/index.php?action_kouhyou_detail_004_kani=true&JigyosyoCd=0272702143-00&ServiceCd=150&Type=search", "url2": null }, "geometry": { "type": "Point", "coordinates": [ 141.217678, 40.481525100000049 ] } },
{ "type": "Feature", "properties": { "内容": "田子町老人デイサービスセンター【通所介護】青森県三戸郡田子町大字田子字前田2番地1号", "url": "https://www.kaigokensaku.mhlw.go.jp/02/index.php?action_kouhyou_detail_004_kani=true&JigyosyoCd=0272700535-00&ServiceCd=150&Type=search", "url2": "https://takko-shakyo.jp/" }, "geometry": { "type": "Point", "coordinates": [ 141.153824699999973, 40.3410614 ] } },
{ "type": "Feature", "properties": { "内容": "デイサービスセンターみろく苑【通所介護】青森県三戸郡田子町大字田子字七日市上ノ平60番地", "url": "https://www.kaigokensaku.mhlw.go.jp/02/index.php?action_kouhyou_detail_004_kani=true&JigyosyoCd=0272700816-00&ServiceCd=150&Type=search", "url2": "http://mirokuen.com/" }, "geometry": { "type": "Point", "coordinates": [ 141.151783499999965, 40.3351456 ] } },
{ "type": "Feature", "properties": { "内容": "デイサービスセンターあじさい【通所介護】青森県三戸郡南部町大字下名久井字剣吉前川原1-20", "url": "https://www.kaigokensaku.mhlw.go.jp/02/index.php?action_kouhyou_detail_004_kani=true&JigyosyoCd=0272700501-00&ServiceCd=150&Type=search", "url2": null }, "geometry": { "type": "Point", "coordinates": [ 141.340894799999973, 40.4407977 ] } },
{ "type": "Feature", "properties": { "内容": "あいたすデイサービスセンター【通所介護】青森県三戸郡南部町大字福田字あかね１２－１", "url": "https://www.kaigokensaku.mhlw.go.jp/02/index.php?action_kouhyou_detail_004_kani=true&JigyosyoCd=0272700568-00&ServiceCd=150&Type=search", "url2": "http://chorokai.or.jp/" }, "geometry": { "type": "Point", "coordinates": [ 141.381715611192362, 40.459002740362394 ] } },
{ "type": "Feature", "properties": { "内容": "デイサービスセンター　スマイル【通所介護】青森県三戸郡南部町大字埖渡字下外窪12－67", "url": "https://www.kaigokensaku.mhlw.go.jp/02/index.php?action_kouhyou_detail_004_kani=true&JigyosyoCd=0272701640-00&ServiceCd=150&Type=search", "url2": "daysmile@lime.ocn.ne.jp" }, "geometry": { "type": "Point", "coordinates": [ 141.4026418, 40.460227300000035 ] } },
{ "type": "Feature", "properties": { "内容": "社会福祉法人　恵生会　三老デイサービスセンター八幡のゆ【通所介護】青森県三戸郡南部町大字小向字八幡19-1三老デイサービスセンター八幡のゆ", "url": "https://www.kaigokensaku.mhlw.go.jp/02/index.php?action_kouhyou_detail_004_kani=true&JigyosyoCd=0272701723-00&ServiceCd=150&Type=search", "url2": "https//www.sanrou-hatiman.com" }, "geometry": { "type": "Point", "coordinates": [ 141.269745100000023, 40.408317 ] } },
{ "type": "Feature", "properties": { "内容": "デイサービスセンターありがとう【通所介護】青森県三戸郡階上町大字赤保内字柳沢１５番地３４３", "url": "https://www.kaigokensaku.mhlw.go.jp/02/index.php?action_kouhyou_detail_004_kani=true&JigyosyoCd=0272701400-00&ServiceCd=150&Type=search", "url2": "http://www.arigato-hasikami.com/" }, "geometry": { "type": "Point", "coordinates": [ 141.6094915, 40.4479616 ] } },
{ "type": "Feature", "properties": { "内容": "デイサービスセンター臥牛苑【通所介護】三戸郡階上町大字角柄折字餅粟久保4-1", "url": "https://www.kaigokensaku.mhlw.go.jp/02/index.php?action_kouhyou_detail_004_kani=true&JigyosyoCd=0272701061-00&ServiceCd=150&Type=search", "url2": "http://sousyou.jimdo.com" }, "geometry": { "type": "Point", "coordinates": [ 141.57445359999997, 40.4392704 ] } },
{ "type": "Feature", "properties": { "内容": "デイサービスセンター　かっこうの森【通所介護】蒼前西3丁目9-153", "url": "https://www.kaigokensaku.mhlw.go.jp/02/index.php?action_kouhyou_detail_004_kani=true&JigyosyoCd=0272701673-00&ServiceCd=150&Type=search", "url2": "e-mail:kakkou@mist.ocn.ne.jp" }, "geometry": { "type": "Point", "coordinates": [ 141.574952100000019, 40.4766012 ] } },
{ "type": "Feature", "properties": { "内容": "見心園居宅サービスセンター（デイサービス）【通所介護】青森県三戸郡階上町大字赤保内字道仏道添21-12", "url": "https://www.kaigokensaku.mhlw.go.jp/02/index.php?action_kouhyou_detail_004_kani=true&JigyosyoCd=0272700311-00&ServiceCd=150&Type=search", "url2": "https://www.kenshinen.jp" }, "geometry": { "type": "Point", "coordinates": [ 141.623057, 40.4463621 ] } },
{ "type": "Feature", "properties": { "内容": "医療法人仁泉会　デイサービスセンターしんごう【通所介護】青森県三戸郡新郷村大字戸来字金ヶ沢坂ノ下17-1", "url": "https://www.kaigokensaku.mhlw.go.jp/02/index.php?action_kouhyou_detail_004_kani=true&JigyosyoCd=0272701103-00&ServiceCd=150&Type=search", "url2": null }, "geometry": { "type": "Point", "coordinates": [ 141.176260599999978, 40.4681339 ] } }
]
}
