{
"type": "FeatureCollection",
"name": "geo_02_特別支援学校",
"crs": { "type": "name", "properties": { "name": "urn:ogc:def:crs:EPSG::6668" } },
"features": [
{ "type": "Feature", "properties": { "P29_001": "02202", "P29_002": "E102110000012", "P29_003": "16012", "P29_004": "弘前大学教育学部附属特別支援学校", "P29_005": "青森県弘前市富野町1-76", "P29_006": "1", "P29_007": "0", "P29_008": "00", "P29_009": null }, "geometry": { "type": "Point", "coordinates": [ 140.476395140748309, 40.588837605935559 ] } },
{ "type": "Feature", "properties": { "P29_001": "02201", "P29_002": "E102210000010", "P29_003": "16012", "P29_004": "青森県立盲学校", "P29_005": "青森県青森市矢田前字浅井24-2", "P29_006": "2", "P29_007": "0", "P29_008": "00", "P29_009": null }, "geometry": { "type": "Point", "coordinates": [ 140.810767615259493, 40.830502626799799 ] } },
{ "type": "Feature", "properties": { "P29_001": "02203", "P29_002": "E102210000029", "P29_003": "16012", "P29_004": "青森県立八戸盲学校", "P29_005": "青森県八戸市柏崎6-29-24", "P29_006": "2", "P29_007": "0", "P29_008": "00", "P29_009": null }, "geometry": { "type": "Point", "coordinates": [ 141.506415039604946, 40.515130516666623 ] } },
{ "type": "Feature", "properties": { "P29_001": "02201", "P29_002": "E102210000038", "P29_003": "16012", "P29_004": "青森県立青森聾学校", "P29_005": "青森県青森市安田字稲森125-1", "P29_006": "2", "P29_007": "0", "P29_008": "00", "P29_009": null }, "geometry": { "type": "Point", "coordinates": [ 140.714368258497217, 40.802772632802132 ] } },
{ "type": "Feature", "properties": { "P29_001": "02202", "P29_002": "E102210000047", "P29_003": "16012", "P29_004": "青森県立弘前聾学校", "P29_005": "青森県弘前市原ヶ平3-3-1", "P29_006": "2", "P29_007": "0", "P29_008": "00", "P29_009": null }, "geometry": { "type": "Point", "coordinates": [ 140.473140934403062, 40.563397865417208 ] } },
{ "type": "Feature", "properties": { "P29_001": "02203", "P29_002": "E102210000056", "P29_003": "16012", "P29_004": "青森県立八戸聾学校", "P29_005": "青森県八戸市柏崎6-29-24", "P29_006": "2", "P29_007": "0", "P29_008": "00", "P29_009": null }, "geometry": { "type": "Point", "coordinates": [ 141.505694790795019, 40.514798274172279 ] } },
{ "type": "Feature", "properties": { "P29_001": "02201", "P29_002": "E102210000065", "P29_003": "16012", "P29_004": "青森県立青森第一養護学校", "P29_005": "青森県青森市石江字江渡101-1", "P29_006": "2", "P29_007": "0", "P29_008": "00", "P29_009": null }, "geometry": { "type": "Point", "coordinates": [ 140.699799248851804, 40.821957805633851 ] } },
{ "type": "Feature", "properties": { "P29_001": "02201", "P29_002": "E102210000074", "P29_003": "16012", "P29_004": "青森県立青森第二養護学校", "P29_005": "青森県青森市戸山字宮崎56", "P29_006": "2", "P29_007": "0", "P29_008": "00", "P29_009": null }, "geometry": { "type": "Point", "coordinates": [ 140.80318702845085, 40.808660366403494 ] } },
{ "type": "Feature", "properties": { "P29_001": "02201", "P29_002": "E102210000083", "P29_003": "16012", "P29_004": "青森県立青森第一高等養護学校", "P29_005": "青森県青森市西田沢字浜田368", "P29_006": "2", "P29_007": "0", "P29_008": "00", "P29_009": null }, "geometry": { "type": "Point", "coordinates": [ 140.682848742539619, 40.860614817567857 ] } },
{ "type": "Feature", "properties": { "P29_001": "02201", "P29_002": "E102210000092", "P29_003": "16012", "P29_004": "青森県立青森第二高等養護学校", "P29_005": "青森県青森市戸山字宮崎22-2", "P29_006": "2", "P29_007": "0", "P29_008": "00", "P29_009": null }, "geometry": { "type": "Point", "coordinates": [ 140.804695524786695, 40.811070981950039 ] } },
{ "type": "Feature", "properties": { "P29_001": "02201", "P29_002": "E102210000109", "P29_003": "16012", "P29_004": "青森県立青森若葉養護学校", "P29_005": "青森県青森市東造道1-7-1", "P29_006": "2", "P29_007": "0", "P29_008": "00", "P29_009": null }, "geometry": { "type": "Point", "coordinates": [ 140.793000040665618, 40.830588048567321 ] } },
{ "type": "Feature", "properties": { "P29_001": "02203", "P29_002": "E102210000118", "P29_003": "16012", "P29_004": "青森県立八戸第一養護学校", "P29_005": "青森県八戸市大久保字行人塚10-1", "P29_006": "2", "P29_007": "0", "P29_008": "00", "P29_009": null }, "geometry": { "type": "Point", "coordinates": [ 141.563459933091366, 40.491466726302356 ] } },
{ "type": "Feature", "properties": { "P29_001": "02201", "P29_002": "E102210000127", "P29_003": "16012", "P29_004": "青森県立浪岡養護学校", "P29_005": "青森県青森市浪岡女鹿沢字平野215-6", "P29_006": "2", "P29_007": "0", "P29_008": "00", "P29_009": null }, "geometry": { "type": "Point", "coordinates": [ 140.571628625052455, 40.708137343888176 ] } },
{ "type": "Feature", "properties": { "P29_001": "02202", "P29_002": "E102210000136", "P29_003": "16012", "P29_004": "青森県立弘前第一養護学校", "P29_005": "青森県弘前市中別所字平山140-8", "P29_006": "2", "P29_007": "0", "P29_008": "00", "P29_009": null }, "geometry": { "type": "Point", "coordinates": [ 140.379800908338098, 40.660378240461519 ] } },
{ "type": "Feature", "properties": { "P29_001": "02203", "P29_002": "E102210000145", "P29_003": "16012", "P29_004": "青森県立八戸第二養護学校", "P29_005": "青森県八戸市松館字水野平20-19", "P29_006": "2", "P29_007": "0", "P29_008": "00", "P29_009": null }, "geometry": { "type": "Point", "coordinates": [ 141.518450683417996, 40.461183580324402 ] } },
{ "type": "Feature", "properties": { "P29_001": "02209", "P29_002": "E102210000154", "P29_003": "16012", "P29_004": "青森県立森田養護学校", "P29_005": "青森県つがる市森田町床舞鶴喰104-5", "P29_006": "2", "P29_007": "0", "P29_008": "00", "P29_009": null }, "geometry": { "type": "Point", "coordinates": [ 140.31804028177018, 40.766556126149808 ] } },
{ "type": "Feature", "properties": { "P29_001": "02402", "P29_002": "E102210000163", "P29_003": "16012", "P29_004": "青森県立七戸養護学校", "P29_005": "青森県上北郡七戸町字蛇坂57-31", "P29_006": "2", "P29_007": "0", "P29_008": "00", "P29_009": null }, "geometry": { "type": "Point", "coordinates": [ 141.151630903097612, 40.71098331243234 ] } },
{ "type": "Feature", "properties": { "P29_001": "02208", "P29_002": "E102210000172", "P29_003": "16012", "P29_004": "青森県立むつ養護学校", "P29_005": "青森県むつ市奥内字栖立場1-110", "P29_006": "2", "P29_007": "0", "P29_008": "00", "P29_009": null }, "geometry": { "type": "Point", "coordinates": [ 141.281421475365192, 41.198831953503557 ] } },
{ "type": "Feature", "properties": { "P29_001": "02204", "P29_002": "E102210000181", "P29_003": "16012", "P29_004": "青森県立黒石養護学校", "P29_005": "青森県黒石市温湯字がむし堤沢5-3", "P29_006": "2", "P29_007": "0", "P29_008": "00", "P29_009": null }, "geometry": { "type": "Point", "coordinates": [ 140.673257953901611, 40.610039049070672 ] } },
{ "type": "Feature", "properties": { "P29_001": "02202", "P29_002": "E102210000190", "P29_003": "16012", "P29_004": "青森県立弘前第二養護学校", "P29_005": "青森県弘前市中別所向野227-6", "P29_006": "2", "P29_007": "0", "P29_008": "00", "P29_009": null }, "geometry": { "type": "Point", "coordinates": [ 140.378870828860613, 40.663362802811569 ] } },
{ "type": "Feature", "properties": { "P29_001": "02203", "P29_002": "E102210000207", "P29_003": "16012", "P29_004": "青森県立八戸高等支援学校", "P29_005": "青森県八戸市鮫町小舟渡平9-291", "P29_006": "2", "P29_007": "0", "P29_008": "00", "P29_009": null }, "geometry": { "type": "Point", "coordinates": [ 141.570416541283151, 40.535270390586071 ] } }
]
}
