{
"type": "FeatureCollection",
"name": "geo_02_中学校",
"crs": { "type": "name", "properties": { "name": "urn:ogc:def:crs:EPSG::6668" } },
"features": [
{ "type": "Feature", "properties": { "P29_001": "02202", "P29_002": "C102110000017", "P29_003": "16002", "P29_004": "弘前大学教育学部附属中学校", "P29_005": "青森県弘前市学園町1-1", "P29_006": "1", "P29_007": "1", "P29_008": "00", "P29_009": null }, "geometry": { "type": "Point", "coordinates": [ 140.482124620801386, 40.580037715764085 ] } },
{ "type": "Feature", "properties": { "P29_001": "02201", "P29_002": "C102210000015", "P29_003": "16002", "P29_004": "青森市立造道中学校", "P29_005": "青森県青森市岡造道2-14-1", "P29_006": "3", "P29_007": "1", "P29_008": "00", "P29_009": null }, "geometry": { "type": "Point", "coordinates": [ 140.788819169623849, 40.825552422392775 ] } },
{ "type": "Feature", "properties": { "P29_001": "02201", "P29_002": "C102210000024", "P29_003": "16002", "P29_004": "青森市立浪打中学校", "P29_005": "青森県青森市合浦1-11-10", "P29_006": "3", "P29_007": "1", "P29_008": "00", "P29_009": null }, "geometry": { "type": "Point", "coordinates": [ 140.772163446882729, 40.827934174014963 ] } },
{ "type": "Feature", "properties": { "P29_001": "02201", "P29_002": "C102210000033", "P29_003": "16002", "P29_004": "青森市立佃中学校", "P29_005": "青森県青森市中佃2-7-1", "P29_006": "3", "P29_007": "1", "P29_008": "00", "P29_009": null }, "geometry": { "type": "Point", "coordinates": [ 140.780709859852607, 40.815580779317784 ] } },
{ "type": "Feature", "properties": { "P29_001": "02201", "P29_002": "C102210000042", "P29_003": "16002", "P29_004": "青森市立浦町中学校", "P29_005": "青森県青森市勝田2-25-12", "P29_006": "3", "P29_007": "1", "P29_008": "00", "P29_009": null }, "geometry": { "type": "Point", "coordinates": [ 140.76005029508994, 40.815706000497009 ] } },
{ "type": "Feature", "properties": { "P29_001": "02201", "P29_002": "C102210000051", "P29_003": "16002", "P29_004": "青森市立古川中学校", "P29_005": "青森県青森市久須志2-9-1", "P29_006": "3", "P29_007": "1", "P29_008": "00", "P29_009": null }, "geometry": { "type": "Point", "coordinates": [ 140.728508941284844, 40.819862214532712 ] } },
{ "type": "Feature", "properties": { "P29_001": "02201", "P29_002": "C102210000060", "P29_003": "16002", "P29_004": "青森市立甲田中学校", "P29_005": "青森県青森市金沢3-11-1", "P29_006": "3", "P29_007": "1", "P29_008": "00", "P29_009": null }, "geometry": { "type": "Point", "coordinates": [ 140.732984748732122, 40.808993010072584 ] } },
{ "type": "Feature", "properties": { "P29_001": "02201", "P29_002": "C102210000079", "P29_003": "16002", "P29_004": "青森市立沖館中学校", "P29_005": "青森県青森市沖館5-19-1", "P29_006": "3", "P29_007": "1", "P29_008": "00", "P29_009": null }, "geometry": { "type": "Point", "coordinates": [ 140.716904913935309, 40.835963877438239 ] } },
{ "type": "Feature", "properties": { "P29_001": "02201", "P29_002": "C102210000088", "P29_003": "16002", "P29_004": "青森市立油川中学校", "P29_005": "青森県青森市羽白字沢田471", "P29_006": "3", "P29_007": "1", "P29_008": "00", "P29_009": null }, "geometry": { "type": "Point", "coordinates": [ 140.687744385905432, 40.854455716991708 ] } },
{ "type": "Feature", "properties": { "P29_001": "02201", "P29_002": "C102210000097", "P29_003": "16002", "P29_004": "青森市立荒川中学校", "P29_005": "青森県青森市金浜字稲田107", "P29_006": "3", "P29_007": "1", "P29_008": "00", "P29_009": null }, "geometry": { "type": "Point", "coordinates": [ 140.740604859062728, 40.78043728534 ] } },
{ "type": "Feature", "properties": { "P29_001": "02201", "P29_002": "C102210000104", "P29_003": "16002", "P29_004": "青森市立筒井中学校", "P29_005": "青森県青森市桜川8-15-1", "P29_006": "3", "P29_007": "1", "P29_008": "00", "P29_009": null }, "geometry": { "type": "Point", "coordinates": [ 140.770464855645258, 40.807857982188864 ] } },
{ "type": "Feature", "properties": { "P29_001": "02201", "P29_002": "C102210000113", "P29_003": "16002", "P29_004": "青森市立横内中学校", "P29_005": "青森県青森市四ツ石字里見64-6", "P29_006": "3", "P29_007": "1", "P29_008": "00", "P29_009": null }, "geometry": { "type": "Point", "coordinates": [ 140.772404712804018, 40.777746122321915 ] } },
{ "type": "Feature", "properties": { "P29_001": "02201", "P29_002": "C102210000122", "P29_003": "16002", "P29_004": "青森市立新城中学校", "P29_005": "青森県青森市新城字平岡160-10", "P29_006": "3", "P29_007": "1", "P29_008": "00", "P29_009": null }, "geometry": { "type": "Point", "coordinates": [ 140.680602641209504, 40.821456135947123 ] } },
{ "type": "Feature", "properties": { "P29_001": "02201", "P29_002": "C102210000131", "P29_003": "16002", "P29_004": "青森市立西中学校", "P29_005": "青森県青森市浪館志田36", "P29_006": "3", "P29_007": "1", "P29_008": "00", "P29_009": null }, "geometry": { "type": "Point", "coordinates": [ 140.719319522558607, 40.808536050992089 ] } },
{ "type": "Feature", "properties": { "P29_001": "02201", "P29_002": "C102210000140", "P29_003": "16002", "P29_004": "青森市立南中学校", "P29_005": "青森県青森市緑2-6-1", "P29_006": "3", "P29_007": "1", "P29_008": "00", "P29_009": null }, "geometry": { "type": "Point", "coordinates": [ 140.746229563871736, 40.807407872017542 ] } },
{ "type": "Feature", "properties": { "P29_001": "02201", "P29_002": "C102210000159", "P29_003": "16002", "P29_004": "青森市立東中学校", "P29_005": "青森県青森市八幡林字熊谷28", "P29_006": "3", "P29_007": "1", "P29_008": "00", "P29_009": null }, "geometry": { "type": "Point", "coordinates": [ 140.817715484473325, 40.834713521352342 ] } },
{ "type": "Feature", "properties": { "P29_001": "02201", "P29_002": "C102210000168", "P29_003": "16002", "P29_004": "青森市立戸山中学校", "P29_005": "青森県青森市赤坂1-1-1", "P29_006": "3", "P29_007": "1", "P29_008": "00", "P29_009": null }, "geometry": { "type": "Point", "coordinates": [ 140.805826312051039, 40.801781917664911 ] } },
{ "type": "Feature", "properties": { "P29_001": "02201", "P29_002": "C102210000177", "P29_003": "16002", "P29_004": "青森市立三内中学校", "P29_005": "青森県青森市三内丸山108-4", "P29_006": "3", "P29_007": "1", "P29_008": "00", "P29_009": null }, "geometry": { "type": "Point", "coordinates": [ 140.704149687940799, 40.815754203209607 ] } },
{ "type": "Feature", "properties": { "P29_001": "02201", "P29_002": "C102210000186", "P29_003": "16002", "P29_004": "青森市立北中学校", "P29_005": "青森県青森市清水字浜元135-1", "P29_006": "3", "P29_007": "1", "P29_008": "00", "P29_009": null }, "geometry": { "type": "Point", "coordinates": [ 140.669019862816697, 40.904425384224062 ] } },
{ "type": "Feature", "properties": { "P29_001": "02202", "P29_002": "C102210000195", "P29_003": "16002", "P29_004": "弘前市立新和中学校", "P29_005": "青森県弘前市種市小島57-2", "P29_006": "3", "P29_007": "1", "P29_008": "00", "P29_009": null }, "geometry": { "type": "Point", "coordinates": [ 140.429948969696909, 40.706572618997825 ] } },
{ "type": "Feature", "properties": { "P29_001": "02202", "P29_002": "C102210000202", "P29_003": "16002", "P29_004": "弘前市立船沢中学校", "P29_005": "青森県弘前市富栄字浅井名1", "P29_006": "3", "P29_007": "1", "P29_008": "00", "P29_009": null }, "geometry": { "type": "Point", "coordinates": [ 140.414834096493081, 40.642259328733594 ] } },
{ "type": "Feature", "properties": { "P29_001": "02202", "P29_002": "C102210000211", "P29_003": "16002", "P29_004": "弘前市立東目屋中学校", "P29_005": "青森県弘前市桜庭字清水流63-3", "P29_006": "3", "P29_007": "1", "P29_008": "00", "P29_009": null }, "geometry": { "type": "Point", "coordinates": [ 140.33789181877944, 40.589492176326608 ] } },
{ "type": "Feature", "properties": { "P29_001": "02202", "P29_002": "C102210000220", "P29_003": "16002", "P29_004": "弘前市立第一中学校", "P29_005": "青森県弘前市和徳町363-13", "P29_006": "3", "P29_007": "1", "P29_008": "00", "P29_009": null }, "geometry": { "type": "Point", "coordinates": [ 140.477125101981642, 40.608648431869177 ] } },
{ "type": "Feature", "properties": { "P29_001": "02202", "P29_002": "C102210000239", "P29_003": "16002", "P29_004": "弘前市立第二中学校", "P29_005": "青森県弘前市平岡町72", "P29_006": "3", "P29_007": "1", "P29_008": "00", "P29_009": null }, "geometry": { "type": "Point", "coordinates": [ 140.454211455687272, 40.608954651163636 ] } },
{ "type": "Feature", "properties": { "P29_001": "02202", "P29_002": "C102210000248", "P29_003": "16002", "P29_004": "弘前市立第三中学校", "P29_005": "青森県弘前市豊原1-3-3", "P29_006": "3", "P29_007": "1", "P29_008": "00", "P29_009": null }, "geometry": { "type": "Point", "coordinates": [ 140.47639627385874, 40.583614814281049 ] } },
{ "type": "Feature", "properties": { "P29_001": "02202", "P29_002": "C102210000257", "P29_003": "16002", "P29_004": "弘前市立第四中学校", "P29_005": "青森県弘前市樹木5-2-6", "P29_006": "3", "P29_007": "1", "P29_008": "00", "P29_009": null }, "geometry": { "type": "Point", "coordinates": [ 140.459270212560966, 40.588555389885023 ] } },
{ "type": "Feature", "properties": { "P29_001": "02202", "P29_002": "C102210000266", "P29_003": "16002", "P29_004": "弘前市立第五中学校", "P29_005": "青森県弘前市川先2-4-1", "P29_006": "3", "P29_007": "1", "P29_008": "00", "P29_009": null }, "geometry": { "type": "Point", "coordinates": [ 140.493993183320015, 40.586904587166316 ] } },
{ "type": "Feature", "properties": { "P29_001": "02202", "P29_002": "C102210000275", "P29_003": "16002", "P29_004": "弘前市立石川中学校", "P29_005": "青森県弘前市石川字庄司川添19-1", "P29_006": "3", "P29_007": "1", "P29_008": "00", "P29_009": null }, "geometry": { "type": "Point", "coordinates": [ 140.550361914346752, 40.550492086850745 ] } },
{ "type": "Feature", "properties": { "P29_001": "02202", "P29_002": "C102210000284", "P29_003": "16002", "P29_004": "弘前市立北辰中学校", "P29_005": "青森県弘前市高杉字五反田191", "P29_006": "3", "P29_007": "1", "P29_008": "00", "P29_009": null }, "geometry": { "type": "Point", "coordinates": [ 140.435513125454719, 40.662578105251058 ] } },
{ "type": "Feature", "properties": { "P29_001": "02202", "P29_002": "C102210000293", "P29_003": "16002", "P29_004": "弘前市立裾野中学校", "P29_005": "青森県弘前市十面沢字湯ヶ森40", "P29_006": "3", "P29_007": "1", "P29_008": "00", "P29_009": null }, "geometry": { "type": "Point", "coordinates": [ 140.360763406288157, 40.720082481805399 ] } },
{ "type": "Feature", "properties": { "P29_001": "02202", "P29_002": "C102210000300", "P29_003": "16002", "P29_004": "弘前市立南中学校", "P29_005": "青森県弘前市原ヶ平字山中20-13", "P29_006": "3", "P29_007": "1", "P29_008": "00", "P29_009": null }, "geometry": { "type": "Point", "coordinates": [ 140.466294239658765, 40.567442103022437 ] } },
{ "type": "Feature", "properties": { "P29_001": "02202", "P29_002": "C102210000319", "P29_003": "16002", "P29_004": "弘前市立東中学校", "P29_005": "青森県弘前市末広3-2-1", "P29_006": "3", "P29_007": "1", "P29_008": "00", "P29_009": null }, "geometry": { "type": "Point", "coordinates": [ 140.503449999424419, 40.602966995345788 ] } },
{ "type": "Feature", "properties": { "P29_001": "02203", "P29_002": "C102210000328", "P29_003": "16002", "P29_004": "八戸市立第一中学校", "P29_005": "青森県八戸市吹上2-17-1", "P29_006": "3", "P29_007": "1", "P29_008": "00", "P29_009": null }, "geometry": { "type": "Point", "coordinates": [ 141.500807641312974, 40.50105171651051 ] } },
{ "type": "Feature", "properties": { "P29_001": "02203", "P29_002": "C102210000337", "P29_003": "16002", "P29_004": "八戸市立第二中学校", "P29_005": "青森県八戸市長根3-23-1", "P29_006": "3", "P29_007": "1", "P29_008": "00", "P29_009": null }, "geometry": { "type": "Point", "coordinates": [ 141.479165794001631, 40.516453343467212 ] } },
{ "type": "Feature", "properties": { "P29_001": "02203", "P29_002": "C102210000346", "P29_003": "16002", "P29_004": "八戸市立第三中学校", "P29_005": "青森県八戸市青葉3-13-36", "P29_006": "3", "P29_007": "1", "P29_008": "00", "P29_009": null }, "geometry": { "type": "Point", "coordinates": [ 141.508741382434437, 40.510022250104278 ] } },
{ "type": "Feature", "properties": { "P29_001": "02203", "P29_002": "C102210000355", "P29_003": "16002", "P29_004": "八戸市立長者中学校", "P29_005": "青森県八戸市沢里字休場28-1", "P29_006": "3", "P29_007": "1", "P29_008": "00", "P29_009": null }, "geometry": { "type": "Point", "coordinates": [ 141.478421067483168, 40.492326125409768 ] } },
{ "type": "Feature", "properties": { "P29_001": "02203", "P29_002": "C102210000364", "P29_003": "16002", "P29_004": "八戸市立小中野中学校", "P29_005": "青森県八戸市小中野3-9-26", "P29_006": "3", "P29_007": "1", "P29_008": "00", "P29_009": null }, "geometry": { "type": "Point", "coordinates": [ 141.511578554583082, 40.516159418532659 ] } },
{ "type": "Feature", "properties": { "P29_001": "02203", "P29_002": "C102210000373", "P29_003": "16002", "P29_004": "八戸市立湊中学校", "P29_005": "青森県八戸市白銀町右新井田道13-2", "P29_006": "3", "P29_007": "1", "P29_008": "00", "P29_009": null }, "geometry": { "type": "Point", "coordinates": [ 141.533916257885977, 40.515722787580515 ] } },
{ "type": "Feature", "properties": { "P29_001": "02203", "P29_002": "C102210000382", "P29_003": "16002", "P29_004": "八戸市立白銀中学校", "P29_005": "青森県八戸市白銀町字栗沢道38", "P29_006": "3", "P29_007": "1", "P29_008": "00", "P29_009": null }, "geometry": { "type": "Point", "coordinates": [ 141.557796225006541, 40.518098584937299 ] } },
{ "type": "Feature", "properties": { "P29_001": "02203", "P29_002": "C102210000391", "P29_003": "16002", "P29_004": "八戸市立鮫中学校", "P29_005": "青森県八戸市鮫町字古馬屋23-5", "P29_006": "3", "P29_007": "1", "P29_008": "00", "P29_009": null }, "geometry": { "type": "Point", "coordinates": [ 141.566591862919438, 40.531525517629817 ] } },
{ "type": "Feature", "properties": { "P29_001": "02203", "P29_002": "C102210000408", "P29_003": "16002", "P29_004": "八戸市立南浜中学校", "P29_005": "青森県八戸市鮫町字子猪越15-2", "P29_006": "3", "P29_007": "1", "P29_008": "00", "P29_009": null }, "geometry": { "type": "Point", "coordinates": [ 141.622804292032498, 40.496537660030775 ] } },
{ "type": "Feature", "properties": { "P29_001": "02203", "P29_002": "C102210000417", "P29_003": "16002", "P29_004": "八戸市立根城中学校", "P29_005": "青森県八戸市根城5-11-42", "P29_006": "3", "P29_007": "1", "P29_008": "00", "P29_009": null }, "geometry": { "type": "Point", "coordinates": [ 141.468032178049839, 40.506805016428522 ] } },
{ "type": "Feature", "properties": { "P29_001": "02203", "P29_002": "C102210000426", "P29_003": "16002", "P29_004": "八戸市立下長中学校", "P29_005": "青森県八戸市河原木字河原木後77-2", "P29_006": "3", "P29_007": "1", "P29_008": "00", "P29_009": null }, "geometry": { "type": "Point", "coordinates": [ 141.465781900296605, 40.530857548931124 ] } },
{ "type": "Feature", "properties": { "P29_001": "02203", "P29_002": "C102210000435", "P29_003": "16002", "P29_004": "八戸市立是川中学校", "P29_005": "青森県八戸市是川字細越河原3-1", "P29_006": "3", "P29_007": "1", "P29_008": "00", "P29_009": null }, "geometry": { "type": "Point", "coordinates": [ 141.493267473114486, 40.458817435983008 ] } },
{ "type": "Feature", "properties": { "P29_001": "02203", "P29_002": "C102210000444", "P29_003": "16002", "P29_004": "八戸市立三条中学校", "P29_005": "青森県八戸市尻内町字中根市2", "P29_006": "3", "P29_007": "1", "P29_008": "00", "P29_009": null }, "geometry": { "type": "Point", "coordinates": [ 141.425251853522809, 40.51373294104107 ] } },
{ "type": "Feature", "properties": { "P29_001": "02203", "P29_002": "C102210000453", "P29_003": "16002", "P29_004": "八戸市立明治中学校", "P29_005": "青森県八戸市八幡字上ミ沢23-1", "P29_006": "3", "P29_007": "1", "P29_008": "00", "P29_009": null }, "geometry": { "type": "Point", "coordinates": [ 141.436665539449422, 40.484712625436075 ] } },
{ "type": "Feature", "properties": { "P29_001": "02203", "P29_002": "C102210000462", "P29_003": "16002", "P29_004": "八戸市立市川中学校", "P29_005": "青森県八戸市市川町字赤畑34-2", "P29_006": "3", "P29_007": "1", "P29_008": "00", "P29_009": null }, "geometry": { "type": "Point", "coordinates": [ 141.444213841112088, 40.578859463757006 ] } },
{ "type": "Feature", "properties": { "P29_001": "02203", "P29_002": "C102210000471", "P29_003": "16002", "P29_004": "八戸市立豊崎中学校", "P29_005": "青森県八戸市豊崎町字上七崎1-1", "P29_006": "3", "P29_007": "1", "P29_008": "00", "P29_009": null }, "geometry": { "type": "Point", "coordinates": [ 141.366182649145088, 40.512634608112066 ] } },
{ "type": "Feature", "properties": { "P29_001": "02203", "P29_002": "C102210000480", "P29_003": "16002", "P29_004": "八戸市立大館中学校", "P29_005": "青森県八戸市新井田字市子林17-1", "P29_006": "3", "P29_007": "1", "P29_008": "00", "P29_009": null }, "geometry": { "type": "Point", "coordinates": [ 141.52340496197877, 40.490427599267051 ] } },
{ "type": "Feature", "properties": { "P29_001": "02203", "P29_002": "C102210000499", "P29_003": "16002", "P29_004": "八戸市立江陽中学校", "P29_005": "青森県八戸市江陽1-1-33", "P29_006": "3", "P29_007": "1", "P29_008": "00", "P29_009": null }, "geometry": { "type": "Point", "coordinates": [ 141.500142656846833, 40.517568197232087 ] } },
{ "type": "Feature", "properties": { "P29_001": "02203", "P29_002": "C102210000505", "P29_003": "16002", "P29_004": "八戸市立北稜中学校", "P29_005": "青森県八戸市河原木字八太郎山10-139", "P29_006": "3", "P29_007": "1", "P29_008": "00", "P29_009": null }, "geometry": { "type": "Point", "coordinates": [ 141.485918260221155, 40.546048904752816 ] } },
{ "type": "Feature", "properties": { "P29_001": "02203", "P29_002": "C102210000514", "P29_003": "16002", "P29_004": "八戸市立東中学校", "P29_005": "青森県八戸市湊高台2-14-8", "P29_006": "3", "P29_007": "1", "P29_008": "00", "P29_009": null }, "geometry": { "type": "Point", "coordinates": [ 141.539343486542293, 40.504337832926566 ] } },
{ "type": "Feature", "properties": { "P29_001": "02203", "P29_002": "C102210000523", "P29_003": "16002", "P29_004": "八戸市立白銀南中学校", "P29_005": "青森県八戸市大久保字生平1", "P29_006": "3", "P29_007": "1", "P29_008": "00", "P29_009": null }, "geometry": { "type": "Point", "coordinates": [ 141.557321014680213, 40.511464724053383 ] } },
{ "type": "Feature", "properties": { "P29_001": "02203", "P29_002": "C102210000532", "P29_003": "16002", "P29_004": "八戸市立白山台中学校", "P29_005": "青森県八戸市西白山台3-24-1", "P29_006": "3", "P29_007": "1", "P29_008": "00", "P29_009": null }, "geometry": { "type": "Point", "coordinates": [ 141.455143641528849, 40.480335348666728 ] } },
{ "type": "Feature", "properties": { "P29_001": "02204", "P29_002": "C102210000541", "P29_003": "16002", "P29_004": "黒石市立中郷中学校", "P29_005": "青森県黒石市株梗木字中渡1-1", "P29_006": "3", "P29_007": "1", "P29_008": "00", "P29_009": null }, "geometry": { "type": "Point", "coordinates": [ 140.590220907353228, 40.655644798509492 ] } },
{ "type": "Feature", "properties": { "P29_001": "02204", "P29_002": "C102210000550", "P29_003": "16002", "P29_004": "黒石市立黒石中学校", "P29_005": "青森県黒石市柵ノ木4-1", "P29_006": "3", "P29_007": "1", "P29_008": "00", "P29_009": null }, "geometry": { "type": "Point", "coordinates": [ 140.611655539397475, 40.639814053958361 ] } },
{ "type": "Feature", "properties": { "P29_001": "02205", "P29_002": "C102210000569", "P29_003": "16002", "P29_004": "五所川原市立五所川原第一中学校", "P29_005": "青森県五所川原市松島町3-1", "P29_006": "3", "P29_007": "1", "P29_008": "00", "P29_009": null }, "geometry": { "type": "Point", "coordinates": [ 140.455272371443073, 40.807606213072908 ] } },
{ "type": "Feature", "properties": { "P29_001": "02205", "P29_002": "C102210000578", "P29_003": "16002", "P29_004": "五所川原市立五所川原第三中学校", "P29_005": "青森県五所川原市広田字藤浦105-1", "P29_006": "3", "P29_007": "1", "P29_008": "00", "P29_009": null }, "geometry": { "type": "Point", "coordinates": [ 140.463245809395232, 40.781828628756138 ] } },
{ "type": "Feature", "properties": { "P29_001": "02205", "P29_002": "C102210000587", "P29_003": "16002", "P29_004": "五所川原市立五所川原第二中学校", "P29_005": "青森県五所川原市羽野木沢字隈無179-2", "P29_006": "3", "P29_007": "1", "P29_008": "00", "P29_009": null }, "geometry": { "type": "Point", "coordinates": [ 140.525824822568836, 40.755808291350242 ] } },
{ "type": "Feature", "properties": { "P29_001": "02205", "P29_002": "C102210000596", "P29_003": "16002", "P29_004": "五所川原市立五所川原第四中学校", "P29_005": "青森県五所川原市沖飯詰字男鹿274-1", "P29_006": "3", "P29_007": "1", "P29_008": "00", "P29_009": null }, "geometry": { "type": "Point", "coordinates": [ 140.469298630630732, 40.83329029089743 ] } },
{ "type": "Feature", "properties": { "P29_001": "02206", "P29_002": "C102210000603", "P29_003": "16002", "P29_004": "十和田市立三本木中学校", "P29_005": "青森県十和田市西十三番町5-24", "P29_006": "3", "P29_007": "1", "P29_008": "00", "P29_009": null }, "geometry": { "type": "Point", "coordinates": [ 141.202064993301747, 40.609026679488174 ] } },
{ "type": "Feature", "properties": { "P29_001": "02206", "P29_002": "C102210000612", "P29_003": "16002", "P29_004": "十和田市立切田中学校", "P29_005": "青森県十和田市切田字平林387", "P29_006": "3", "P29_007": "1", "P29_008": "00", "P29_009": null }, "geometry": { "type": "Point", "coordinates": [ 141.186036296653924, 40.580237273483519 ] } },
{ "type": "Feature", "properties": { "P29_001": "02206", "P29_002": "C102210000621", "P29_003": "16002", "P29_004": "十和田市立大深内中学校", "P29_005": "青森県十和田市洞内字千刈田24-6", "P29_006": "3", "P29_007": "1", "P29_008": "00", "P29_009": null }, "geometry": { "type": "Point", "coordinates": [ 141.215552650974644, 40.669418625650074 ] } },
{ "type": "Feature", "properties": { "P29_001": "02206", "P29_002": "C102210000630", "P29_003": "16002", "P29_004": "十和田市立甲東中学校", "P29_005": "青森県十和田市深持字南平330", "P29_006": "3", "P29_007": "1", "P29_008": "00", "P29_009": null }, "geometry": { "type": "Point", "coordinates": [ 141.170968132057141, 40.616047147834919 ] } },
{ "type": "Feature", "properties": { "P29_001": "02206", "P29_002": "C102210000649", "P29_003": "16002", "P29_004": "十和田市立十和田中学校", "P29_005": "青森県十和田市東十六番町27-1", "P29_006": "3", "P29_007": "1", "P29_008": "00", "P29_009": null }, "geometry": { "type": "Point", "coordinates": [ 141.232655173594225, 40.603371715800051 ] } },
{ "type": "Feature", "properties": { "P29_001": "02206", "P29_002": "C102210000658", "P29_003": "16002", "P29_004": "十和田市立四和中学校", "P29_005": "青森県十和田市米田字高谷140", "P29_006": "3", "P29_007": "1", "P29_008": "00", "P29_009": null }, "geometry": { "type": "Point", "coordinates": [ 141.234826759985111, 40.548324082225591 ] } },
{ "type": "Feature", "properties": { "P29_001": "02206", "P29_002": "C102210000667", "P29_003": "16002", "P29_004": "十和田市立東中学校", "P29_005": "青森県十和田市東二十二番町29-1", "P29_006": "3", "P29_007": "1", "P29_008": "00", "P29_009": null }, "geometry": { "type": "Point", "coordinates": [ 141.238148116846332, 40.626867254856698 ] } },
{ "type": "Feature", "properties": { "P29_001": "02206", "P29_002": "C102210000676", "P29_003": "16002", "P29_004": "青森県立三本木高等学校附属中学校", "P29_005": "青森県十和田市西五番町7-1", "P29_006": "2", "P29_007": "1", "P29_008": "00", "P29_009": null }, "geometry": { "type": "Point", "coordinates": [ 141.218671805294662, 40.602955532897781 ] } },
{ "type": "Feature", "properties": { "P29_001": "02207", "P29_002": "C102210000685", "P29_003": "16002", "P29_004": "三沢市立第一中学校", "P29_005": "青森県三沢市松園町2-1-34", "P29_006": "3", "P29_007": "1", "P29_008": "00", "P29_009": null }, "geometry": { "type": "Point", "coordinates": [ 141.366510294398125, 40.679572793710605 ] } },
{ "type": "Feature", "properties": { "P29_001": "02207", "P29_002": "C102210000694", "P29_003": "16002", "P29_004": "三沢市立第二中学校", "P29_005": "青森県三沢市三沢字園沢97-2", "P29_006": "3", "P29_007": "1", "P29_008": "00", "P29_009": null }, "geometry": { "type": "Point", "coordinates": [ 141.406673484322567, 40.684906203313624 ] } },
{ "type": "Feature", "properties": { "P29_001": "02207", "P29_002": "C102210000701", "P29_003": "16002", "P29_004": "三沢市立第三中学校", "P29_005": "青森県三沢市三沢字庭構1084-33", "P29_006": "3", "P29_007": "1", "P29_008": "00", "P29_009": null }, "geometry": { "type": "Point", "coordinates": [ 141.399196719386509, 40.781150043104546 ] } },
{ "type": "Feature", "properties": { "P29_001": "02207", "P29_002": "C102210000710", "P29_003": "16002", "P29_004": "三沢市立第五中学校", "P29_005": "青森県三沢市古間木山141-111", "P29_006": "3", "P29_007": "1", "P29_008": "00", "P29_009": null }, "geometry": { "type": "Point", "coordinates": [ 141.35859025352778, 40.670867926101153 ] } },
{ "type": "Feature", "properties": { "P29_001": "02207", "P29_002": "C102210000729", "P29_003": "16002", "P29_004": "三沢市立堀口中学校", "P29_005": "青森県三沢市三沢字堀口94-143", "P29_006": "3", "P29_007": "1", "P29_008": "00", "P29_009": null }, "geometry": { "type": "Point", "coordinates": [ 141.383533422760593, 40.683165408270611 ] } },
{ "type": "Feature", "properties": { "P29_001": "02208", "P29_002": "C102210000738", "P29_003": "16002", "P29_004": "むつ市立田名部中学校", "P29_005": "青森県むつ市緑町22-8", "P29_006": "3", "P29_007": "1", "P29_008": "00", "P29_009": null }, "geometry": { "type": "Point", "coordinates": [ 141.200595676925275, 41.285751888345196 ] } },
{ "type": "Feature", "properties": { "P29_001": "02208", "P29_002": "C102210000747", "P29_003": "16002", "P29_004": "むつ市立むつ中学校", "P29_005": "青森県むつ市栗山町17-2", "P29_006": "3", "P29_007": "1", "P29_008": "00", "P29_009": null }, "geometry": { "type": "Point", "coordinates": [ 141.206755593179309, 41.306483089452492 ] } },
{ "type": "Feature", "properties": { "P29_001": "02208", "P29_002": "C102210000756", "P29_003": "16002", "P29_004": "むつ市立関根中学校", "P29_005": "青森県むつ市関根字北関根99-2", "P29_006": "3", "P29_007": "1", "P29_008": "00", "P29_009": null }, "geometry": { "type": "Point", "coordinates": [ 141.20272481317383, 41.355853751722364 ] } },
{ "type": "Feature", "properties": { "P29_001": "02208", "P29_002": "C102210000765", "P29_003": "16002", "P29_004": "むつ市立近川中学校", "P29_005": "青森県むつ市奥内字江豚沢1-2", "P29_006": "3", "P29_007": "1", "P29_008": "00", "P29_009": null }, "geometry": { "type": "Point", "coordinates": [ 141.273179968310757, 41.196924432610729 ] } },
{ "type": "Feature", "properties": { "P29_001": "02208", "P29_002": "C102210000774", "P29_003": "16002", "P29_004": "むつ市立大平中学校", "P29_005": "青森県むつ市並川町2-4", "P29_006": "3", "P29_007": "1", "P29_008": "00", "P29_009": null }, "geometry": { "type": "Point", "coordinates": [ 141.165438441903035, 41.285688138852422 ] } },
{ "type": "Feature", "properties": { "P29_001": "02208", "P29_002": "C102210000783", "P29_003": "16002", "P29_004": "むつ市立大湊中学校", "P29_005": "青森県むつ市桜木町19-1", "P29_006": "3", "P29_007": "1", "P29_008": "00", "P29_009": null }, "geometry": { "type": "Point", "coordinates": [ 141.134013045230461, 41.25478704087606 ] } },
{ "type": "Feature", "properties": { "P29_001": "02307", "P29_002": "C102210000827", "P29_003": "16002", "P29_004": "外ヶ浜町立蟹田中学校", "P29_005": "青森県東津軽郡外ヶ浜町字蟹田田ノ沢78", "P29_006": "3", "P29_007": "1", "P29_008": "00", "P29_009": null }, "geometry": { "type": "Point", "coordinates": [ 140.641868451309364, 41.035808869926335 ] } },
{ "type": "Feature", "properties": { "P29_001": "02303", "P29_002": "C102210000836", "P29_003": "16002", "P29_004": "今別町立今別中学校", "P29_005": "青森県東津軽郡今別町山崎字山崎108-2", "P29_006": "3", "P29_007": "1", "P29_008": "00", "P29_009": null }, "geometry": { "type": "Point", "coordinates": [ 140.491414924472906, 41.184896702936058 ] } },
{ "type": "Feature", "properties": { "P29_001": "02304", "P29_002": "C102210000845", "P29_003": "16002", "P29_004": "蓬田村立蓬田中学校", "P29_005": "青森県東津軽郡蓬田村郷沢字浜田138", "P29_006": "3", "P29_007": "1", "P29_008": "00", "P29_009": null }, "geometry": { "type": "Point", "coordinates": [ 140.651262449184316, 40.986288238548205 ] } },
{ "type": "Feature", "properties": { "P29_001": "02307", "P29_002": "C102210000854", "P29_003": "16002", "P29_004": "外ヶ浜町立三厩中学校", "P29_005": "青森県東津軽郡外ヶ浜町字三厩下平5-1", "P29_006": "3", "P29_007": "1", "P29_008": "00", "P29_009": null }, "geometry": { "type": "Point", "coordinates": [ 140.399648294398361, 41.228307497239534 ] } },
{ "type": "Feature", "properties": { "P29_001": "02321", "P29_002": "C102210000863", "P29_003": "16002", "P29_004": "鰺ヶ沢町立鰺ヶ沢中学校", "P29_005": "青森県西津軽郡鰺ヶ沢町赤石町字大和田27", "P29_006": "3", "P29_007": "1", "P29_008": "00", "P29_009": null }, "geometry": { "type": "Point", "coordinates": [ 140.181562690582268, 40.773409569443885 ] } },
{ "type": "Feature", "properties": { "P29_001": "02209", "P29_002": "C102210000872", "P29_003": "16002", "P29_004": "つがる市立木造中学校", "P29_005": "青森県つがる市木造浮巣20", "P29_006": "3", "P29_007": "1", "P29_008": "00", "P29_009": null }, "geometry": { "type": "Point", "coordinates": [ 140.389631142345308, 40.81282915673976 ] } },
{ "type": "Feature", "properties": { "P29_001": "02323", "P29_002": "C102210000881", "P29_003": "16002", "P29_004": "深浦町立深浦中学校", "P29_005": "青森県西津軽郡深浦町深浦字蓙野60", "P29_006": "3", "P29_007": "1", "P29_008": "00", "P29_009": null }, "geometry": { "type": "Point", "coordinates": [ 139.936081766928623, 40.651450580552954 ] } },
{ "type": "Feature", "properties": { "P29_001": "02323", "P29_002": "C102210000890", "P29_003": "16002", "P29_004": "深浦町立大戸瀬中学校", "P29_005": "青森県西津軽郡深浦町北金ヶ沢字榊原上野208-23", "P29_006": "3", "P29_007": "1", "P29_008": "00", "P29_009": null }, "geometry": { "type": "Point", "coordinates": [ 140.079083107157629, 40.752337598742848 ] } },
{ "type": "Feature", "properties": { "P29_001": "02209", "P29_002": "C102210000916", "P29_003": "16002", "P29_004": "つがる市立森田中学校", "P29_005": "青森県つがる市森田町森田屏風山2-1", "P29_006": "3", "P29_007": "1", "P29_008": "00", "P29_009": null }, "geometry": { "type": "Point", "coordinates": [ 140.33921798011238, 40.777211511138802 ] } },
{ "type": "Feature", "properties": { "P29_001": "02209", "P29_002": "C102210000925", "P29_003": "16002", "P29_004": "つがる市立柏中学校", "P29_005": "青森県つがる市泊広須福島82", "P29_006": "3", "P29_007": "1", "P29_008": "00", "P29_009": null }, "geometry": { "type": "Point", "coordinates": [ 140.406552095100466, 40.786188424631455 ] } },
{ "type": "Feature", "properties": { "P29_001": "02209", "P29_002": "C102210000934", "P29_003": "16002", "P29_004": "つがる市立稲垣中学校", "P29_005": "青森県つがる市稲垣町豊川宮川45-1", "P29_006": "3", "P29_007": "1", "P29_008": "00", "P29_009": null }, "geometry": { "type": "Point", "coordinates": [ 140.396583550055226, 40.882210170452019 ] } },
{ "type": "Feature", "properties": { "P29_001": "02209", "P29_002": "C102210000943", "P29_003": "16002", "P29_004": "つがる市立車力中学校", "P29_005": "青森県つがる市車力町屏風山1-214", "P29_006": "3", "P29_007": "1", "P29_008": "00", "P29_009": null }, "geometry": { "type": "Point", "coordinates": [ 140.354617482954097, 40.951109407425605 ] } },
{ "type": "Feature", "properties": { "P29_001": "02202", "P29_002": "C102210000952", "P29_003": "16002", "P29_004": "弘前市立津軽中学校", "P29_005": "青森県弘前市五代字早稲田478", "P29_006": "3", "P29_007": "1", "P29_008": "00", "P29_009": null }, "geometry": { "type": "Point", "coordinates": [ 140.414165017450813, 40.618242047642859 ] } },
{ "type": "Feature", "properties": { "P29_001": "02202", "P29_002": "C102210000961", "P29_003": "16002", "P29_004": "弘前市立常盤野中学校", "P29_005": "青森県弘前市常盤野字湯の沢45-4", "P29_006": "3", "P29_007": "1", "P29_008": "00", "P29_009": null }, "geometry": { "type": "Point", "coordinates": [ 140.264230828240841, 40.628050362849905 ] } },
{ "type": "Feature", "properties": { "P29_001": "02202", "P29_002": "C102210000970", "P29_003": "16002", "P29_004": "弘前市立相馬中学校", "P29_005": "青森県弘前市紙漉沢字山越48", "P29_006": "3", "P29_007": "1", "P29_008": "00", "P29_009": null }, "geometry": { "type": "Point", "coordinates": [ 140.388335505050861, 40.579513217620388 ] } },
{ "type": "Feature", "properties": { "P29_001": "02361", "P29_002": "C102210000989", "P29_003": "16002", "P29_004": "藤崎町立藤崎中学校", "P29_005": "青森県南津軽郡藤崎町藤崎字西豊田90-1", "P29_006": "3", "P29_007": "1", "P29_008": "00", "P29_009": null }, "geometry": { "type": "Point", "coordinates": [ 140.504715030313633, 40.65986375078284 ] } },
{ "type": "Feature", "properties": { "P29_001": "02362", "P29_002": "C102210000998", "P29_003": "16002", "P29_004": "大鰐町立大鰐中学校", "P29_005": "青森県南津軽郡大鰐町虹貝字篠塚24-1", "P29_006": "3", "P29_007": "1", "P29_008": "00", "P29_009": null }, "geometry": { "type": "Point", "coordinates": [ 140.560880104300963, 40.519963603580877 ] } },
{ "type": "Feature", "properties": { "P29_001": "02210", "P29_002": "C102210001005", "P29_003": "16002", "P29_004": "平川市立尾上中学校", "P29_005": "青森県平川市中佐渡南田49", "P29_006": "3", "P29_007": "1", "P29_008": "00", "P29_009": null }, "geometry": { "type": "Point", "coordinates": [ 140.572209462199282, 40.611941059431246 ] } },
{ "type": "Feature", "properties": { "P29_001": "02201", "P29_002": "C102210001014", "P29_003": "16002", "P29_004": "青森市立浪岡中学校", "P29_005": "青森県青森市浪岡浪岡字稲盛1", "P29_006": "3", "P29_007": "1", "P29_008": "00", "P29_009": null }, "geometry": { "type": "Point", "coordinates": [ 140.588061464222505, 40.705557153472796 ] } },
{ "type": "Feature", "properties": { "P29_001": "02210", "P29_002": "C102210001023", "P29_003": "16002", "P29_004": "平川市立平賀西中学校", "P29_005": "青森県平川市大光寺白山13-2", "P29_006": "3", "P29_007": "1", "P29_008": "00", "P29_009": null }, "geometry": { "type": "Point", "coordinates": [ 140.551551451174731, 40.585685933071389 ] } },
{ "type": "Feature", "properties": { "P29_001": "02210", "P29_002": "C102210001032", "P29_003": "16002", "P29_004": "平川市立平賀東中学校", "P29_005": "青森県平川市新館字後野104-1", "P29_006": "3", "P29_007": "1", "P29_008": "00", "P29_009": null }, "geometry": { "type": "Point", "coordinates": [ 140.584821556135012, 40.580414997879899 ] } },
{ "type": "Feature", "properties": { "P29_001": "02361", "P29_002": "C102210001041", "P29_003": "16002", "P29_004": "藤崎町立明徳中学校", "P29_005": "青森県南津軽郡藤崎町常盤字一西田21-1", "P29_006": "3", "P29_007": "1", "P29_008": "00", "P29_009": null }, "geometry": { "type": "Point", "coordinates": [ 140.547933252297611, 40.673272523122868 ] } },
{ "type": "Feature", "properties": { "P29_001": "02367", "P29_002": "C102210001050", "P29_003": "16002", "P29_004": "田舎館村立田舎館中学校", "P29_005": "青森県南津軽郡田舎館村畑中字観妙寺40-1", "P29_006": "3", "P29_007": "1", "P29_008": "00", "P29_009": null }, "geometry": { "type": "Point", "coordinates": [ 140.550978977585288, 40.638839543190095 ] } },
{ "type": "Feature", "properties": { "P29_001": "02210", "P29_002": "C102210001069", "P29_003": "16002", "P29_004": "平川市立碇ヶ関中学校", "P29_005": "青森県平川市碇ヶ関三笠山100-2", "P29_006": "3", "P29_007": "1", "P29_008": "00", "P29_009": null }, "geometry": { "type": "Point", "coordinates": [ 140.630195752702775, 40.476032569925302 ] } },
{ "type": "Feature", "properties": { "P29_001": "02381", "P29_002": "C102210001078", "P29_003": "16002", "P29_004": "板柳町立板柳中学校", "P29_005": "青森県北津軽郡板柳町三千石字五十嵐103", "P29_006": "3", "P29_007": "1", "P29_008": "00", "P29_009": null }, "geometry": { "type": "Point", "coordinates": [ 140.469740610974384, 40.712354097378345 ] } },
{ "type": "Feature", "properties": { "P29_001": "02205", "P29_002": "C102210001087", "P29_003": "16002", "P29_004": "五所川原市立金木中学校", "P29_005": "青森県五所川原市金木町芦野84-9", "P29_006": "3", "P29_007": "1", "P29_008": "00", "P29_009": null }, "geometry": { "type": "Point", "coordinates": [ 140.462266527624053, 40.905245233154751 ] } },
{ "type": "Feature", "properties": { "P29_001": "02387", "P29_002": "C102210001096", "P29_003": "16002", "P29_004": "中泊町立中里中学校", "P29_005": "青森県北津軽郡中泊町中里字宝森309", "P29_006": "3", "P29_007": "1", "P29_008": "00", "P29_009": null }, "geometry": { "type": "Point", "coordinates": [ 140.425655978429944, 40.967827103520733 ] } },
{ "type": "Feature", "properties": { "P29_001": "02384", "P29_002": "C102210001103", "P29_003": "16002", "P29_004": "鶴田町立鶴田中学校", "P29_005": "青森県北津軽郡鶴田町鶴田字渡舟80-1", "P29_006": "3", "P29_007": "1", "P29_008": "00", "P29_009": null }, "geometry": { "type": "Point", "coordinates": [ 140.425180618390868, 40.751396857029761 ] } },
{ "type": "Feature", "properties": { "P29_001": "02205", "P29_002": "C102210001112", "P29_003": "16002", "P29_004": "五所川原市立市浦中学校", "P29_005": "青森県五所川原市相内岩井81", "P29_006": "3", "P29_007": "1", "P29_008": "00", "P29_009": null }, "geometry": { "type": "Point", "coordinates": [ 140.349345049876547, 41.060278984878849 ] } },
{ "type": "Feature", "properties": { "P29_001": "02387", "P29_002": "C102210001121", "P29_003": "16002", "P29_004": "中泊町立小泊中学校", "P29_005": "青森県北津軽郡中泊町小泊字砂山1076-3", "P29_006": "3", "P29_007": "1", "P29_008": "00", "P29_009": null }, "geometry": { "type": "Point", "coordinates": [ 140.310567148778773, 41.128887032754498 ] } },
{ "type": "Feature", "properties": { "P29_001": "02401", "P29_002": "C102210001130", "P29_003": "16002", "P29_004": "野辺地町立野辺地中学校", "P29_005": "青森県上北郡野辺地町浜掛11-5", "P29_006": "3", "P29_007": "1", "P29_008": "00", "P29_009": null }, "geometry": { "type": "Point", "coordinates": [ 141.124264380274866, 40.868622516658803 ] } },
{ "type": "Feature", "properties": { "P29_001": "02402", "P29_002": "C102210001149", "P29_003": "16002", "P29_004": "七戸町立七戸中学校", "P29_005": "青森県上北郡七戸町字鶴児平191", "P29_006": "3", "P29_007": "1", "P29_008": "00", "P29_009": null }, "geometry": { "type": "Point", "coordinates": [ 141.131074447164906, 40.704170493575916 ] } },
{ "type": "Feature", "properties": { "P29_001": "02412", "P29_002": "C102210001158", "P29_003": "16002", "P29_004": "おいらせ町立百石中学校", "P29_005": "青森県上北郡おいらせ町東下谷地116", "P29_006": "3", "P29_007": "1", "P29_008": "00", "P29_009": null }, "geometry": { "type": "Point", "coordinates": [ 141.427810069441307, 40.617444519980396 ] } },
{ "type": "Feature", "properties": { "P29_001": "02206", "P29_002": "C102210001167", "P29_003": "16002", "P29_004": "十和田市立十和田湖中学校", "P29_005": "青森県十和田市奥瀬字十和田湖畔宇樽部420", "P29_006": "3", "P29_007": "1", "P29_008": "00", "P29_009": null }, "geometry": { "type": "Point", "coordinates": [ 140.933300057703747, 40.441122913179157 ] } },
{ "type": "Feature", "properties": { "P29_001": "02206", "P29_002": "C102210001176", "P29_003": "16002", "P29_004": "十和田市立第一中学校", "P29_005": "青森県十和田市奥瀬字生内32-6", "P29_006": "3", "P29_007": "1", "P29_008": "00", "P29_009": null }, "geometry": { "type": "Point", "coordinates": [ 141.106543531699145, 40.578145158882776 ] } },
{ "type": "Feature", "properties": { "P29_001": "02405", "P29_002": "C102210001185", "P29_003": "16002", "P29_004": "六戸町立六戸中学校", "P29_005": "青森県上北郡六戸町犬落瀬字柴山2-90", "P29_006": "3", "P29_007": "1", "P29_008": "00", "P29_009": null }, "geometry": { "type": "Point", "coordinates": [ 141.326843228903442, 40.612584911899674 ] } },
{ "type": "Feature", "properties": { "P29_001": "02405", "P29_002": "C102210001194", "P29_003": "16002", "P29_004": "六戸町立七百中学校", "P29_005": "青森県上北郡六戸町犬落瀬字権現沢54-41", "P29_006": "3", "P29_007": "1", "P29_008": "00", "P29_009": null }, "geometry": { "type": "Point", "coordinates": [ 141.301534319955579, 40.64666469015053 ] } },
{ "type": "Feature", "properties": { "P29_001": "02406", "P29_002": "C102210001201", "P29_003": "16002", "P29_004": "横浜町立横浜中学校", "P29_005": "青森県上北郡横浜町字上イタヤノ木91-17", "P29_006": "3", "P29_007": "1", "P29_008": "00", "P29_009": null }, "geometry": { "type": "Point", "coordinates": [ 141.25995509731257, 41.07850574018196 ] } },
{ "type": "Feature", "properties": { "P29_001": "02408", "P29_002": "C102210001210", "P29_003": "16002", "P29_004": "東北町立上北中学校", "P29_005": "青森県上北郡東北町上北南4-32-1", "P29_006": "3", "P29_007": "1", "P29_008": "00", "P29_009": null }, "geometry": { "type": "Point", "coordinates": [ 141.256151817494583, 40.72720277311528 ] } },
{ "type": "Feature", "properties": { "P29_001": "02408", "P29_002": "C102210001229", "P29_003": "16002", "P29_004": "東北町立東北中学校", "P29_005": "青森県上北郡東北町塔ノ沢山1-11", "P29_006": "3", "P29_007": "1", "P29_008": "00", "P29_009": null }, "geometry": { "type": "Point", "coordinates": [ 141.224518001970267, 40.783456547835726 ] } },
{ "type": "Feature", "properties": { "P29_001": "02412", "P29_002": "C102210001238", "P29_003": "16002", "P29_004": "おいらせ町立下田中学校", "P29_005": "青森県上北郡おいらせ町立蛇114-3", "P29_006": "3", "P29_007": "1", "P29_008": "00", "P29_009": null }, "geometry": { "type": "Point", "coordinates": [ 141.387636507862283, 40.603423199169079 ] } },
{ "type": "Feature", "properties": { "P29_001": "02412", "P29_002": "C102210001247", "P29_003": "16002", "P29_004": "おいらせ町立木ノ下中学校", "P29_005": "青森県上北郡おいらせ町上久保22-2", "P29_006": "3", "P29_007": "1", "P29_008": "00", "P29_009": null }, "geometry": { "type": "Point", "coordinates": [ 141.377580927993819, 40.645802314981403 ] } },
{ "type": "Feature", "properties": { "P29_001": "02402", "P29_002": "C102210001256", "P29_003": "16002", "P29_004": "七戸町立天間林中学校", "P29_005": "青森県上北郡七戸町字森ノ上16-4", "P29_006": "3", "P29_007": "1", "P29_008": "00", "P29_009": null }, "geometry": { "type": "Point", "coordinates": [ 141.170653542807258, 40.746047084756249 ] } },
{ "type": "Feature", "properties": { "P29_001": "02411", "P29_002": "C102210001265", "P29_003": "16002", "P29_004": "六ヶ所村立泊中学校", "P29_005": "青森県上北郡六ヶ所村泊川原75-17", "P29_006": "3", "P29_007": "1", "P29_008": "00", "P29_009": null }, "geometry": { "type": "Point", "coordinates": [ 141.387205888166335, 41.087234671930368 ] } },
{ "type": "Feature", "properties": { "P29_001": "02411", "P29_002": "C102210001274", "P29_003": "16002", "P29_004": "六ヶ所村立第一中学校", "P29_005": "青森県上北郡六ヶ所村尾駮字野附1054", "P29_006": "3", "P29_007": "1", "P29_008": "00", "P29_009": null }, "geometry": { "type": "Point", "coordinates": [ 141.366141999595982, 40.968224000930064 ] } },
{ "type": "Feature", "properties": { "P29_001": "02411", "P29_002": "C102210001283", "P29_003": "16002", "P29_004": "六ヶ所村立第二中学校", "P29_005": "青森県上北郡六ヶ所村倉内字湯沢112-1", "P29_006": "3", "P29_007": "1", "P29_008": "00", "P29_009": null }, "geometry": { "type": "Point", "coordinates": [ 141.341013387450175, 40.860598487382177 ] } },
{ "type": "Feature", "properties": { "P29_001": "02208", "P29_002": "C102210001292", "P29_003": "16002", "P29_004": "むつ市立川内中学校", "P29_005": "青森県むつ市川内町休所5-1", "P29_006": "3", "P29_007": "1", "P29_008": "00", "P29_009": null }, "geometry": { "type": "Point", "coordinates": [ 140.984311070840363, 41.201091784629646 ] } },
{ "type": "Feature", "properties": { "P29_001": "02208", "P29_002": "C102210001309", "P29_003": "16002", "P29_004": "むつ市立大畑中学校", "P29_005": "青森県むつ市大畑町兎沢17-7", "P29_006": "3", "P29_007": "1", "P29_008": "00", "P29_009": null }, "geometry": { "type": "Point", "coordinates": [ 141.156284400497157, 41.393181859259727 ] } },
{ "type": "Feature", "properties": { "P29_001": "02423", "P29_002": "C102210001318", "P29_003": "16002", "P29_004": "大間町立大間中学校", "P29_005": "青森県下北郡大間町大間字大間平31-1", "P29_006": "3", "P29_007": "1", "P29_008": "00", "P29_009": null }, "geometry": { "type": "Point", "coordinates": [ 140.923485888650703, 41.528316316821197 ] } },
{ "type": "Feature", "properties": { "P29_001": "02424", "P29_002": "C102210001336", "P29_003": "16002", "P29_004": "東通村立東通中学校", "P29_005": "青森県下北郡東通村砂子又字沢内9-4", "P29_006": "3", "P29_007": "1", "P29_008": "00", "P29_009": null }, "geometry": { "type": "Point", "coordinates": [ 141.333484386180544, 41.273864233784614 ] } },
{ "type": "Feature", "properties": { "P29_001": "02425", "P29_002": "C102210001345", "P29_003": "16002", "P29_004": "風間浦村立風間浦中学校", "P29_005": "青森県下北郡風間浦村易国間字古野18-1", "P29_006": "3", "P29_007": "1", "P29_008": "00", "P29_009": null }, "geometry": { "type": "Point", "coordinates": [ 140.989218105290973, 41.490787166316778 ] } },
{ "type": "Feature", "properties": { "P29_001": "02426", "P29_002": "C102210001354", "P29_003": "16002", "P29_004": "佐井村立佐井中学校", "P29_005": "青森県下北郡佐井村佐井字中道75", "P29_006": "3", "P29_007": "1", "P29_008": "00", "P29_009": null }, "geometry": { "type": "Point", "coordinates": [ 140.871407599409309, 41.441794877640703 ] } },
{ "type": "Feature", "properties": { "P29_001": "02426", "P29_002": "C102210001363", "P29_003": "16002", "P29_004": "佐井村立牛滝中学校", "P29_005": "青森県下北郡佐井村長後牛滝川目99", "P29_006": "3", "P29_007": "9", "P29_008": "00", "P29_009": null }, "geometry": { "type": "Point", "coordinates": [ 140.804478612217935, 41.289836829236691 ] } },
{ "type": "Feature", "properties": { "P29_001": "02208", "P29_002": "C102210001372", "P29_003": "16002", "P29_004": "むつ市立脇野沢中学校", "P29_005": "青森県むつ市脇野沢瀬野川目85-2", "P29_006": "3", "P29_007": "1", "P29_008": "00", "P29_009": null }, "geometry": { "type": "Point", "coordinates": [ 140.81501266251766, 41.141766444247338 ] } },
{ "type": "Feature", "properties": { "P29_001": "02441", "P29_002": "C102210001381", "P29_003": "16002", "P29_004": "三戸町立三戸中学校", "P29_005": "青森県三戸郡三戸町梅内権現林1", "P29_006": "3", "P29_007": "1", "P29_008": "00", "P29_009": null }, "geometry": { "type": "Point", "coordinates": [ 141.268288768890358, 40.376989590600587 ] } },
{ "type": "Feature", "properties": { "P29_001": "02442", "P29_002": "C102210001407", "P29_003": "16002", "P29_004": "五戸町立五戸中学校", "P29_005": "青森県三戸郡五戸町豊間内字地蔵平1-276", "P29_006": "3", "P29_007": "1", "P29_008": "00", "P29_009": null }, "geometry": { "type": "Point", "coordinates": [ 141.326019782220612, 40.510592588201824 ] } },
{ "type": "Feature", "properties": { "P29_001": "02442", "P29_002": "C102210001416", "P29_003": "16002", "P29_004": "五戸町立川内中学校", "P29_005": "青森県三戸郡五戸町上市川字赤川々原1", "P29_006": "3", "P29_007": "1", "P29_008": "00", "P29_009": null }, "geometry": { "type": "Point", "coordinates": [ 141.379115241557713, 40.553890072449477 ] } },
{ "type": "Feature", "properties": { "P29_001": "02443", "P29_002": "C102210001425", "P29_003": "16002", "P29_004": "田子町立田子中学校", "P29_005": "青森県三戸郡田子町田子字風張27-1", "P29_006": "3", "P29_007": "1", "P29_008": "00", "P29_009": null }, "geometry": { "type": "Point", "coordinates": [ 141.145087838081309, 40.338351696182201 ] } },
{ "type": "Feature", "properties": { "P29_001": "02445", "P29_002": "C102210001434", "P29_003": "16002", "P29_004": "南部町立名川中学校", "P29_005": "青森県三戸郡南部町下名久井字白山81", "P29_006": "3", "P29_007": "1", "P29_008": "00", "P29_009": null }, "geometry": { "type": "Point", "coordinates": [ 141.332546377104563, 40.425185457636204 ] } },
{ "type": "Feature", "properties": { "P29_001": "02445", "P29_002": "C102210001443", "P29_003": "16002", "P29_004": "南部町立南部中学校", "P29_005": "青森県三戸郡南部町沖田面字沖中101", "P29_006": "3", "P29_007": "1", "P29_008": "00", "P29_009": null }, "geometry": { "type": "Point", "coordinates": [ 141.281300381066529, 40.416698404451139 ] } },
{ "type": "Feature", "properties": { "P29_001": "02446", "P29_002": "C102210001452", "P29_003": "16002", "P29_004": "階上町立道仏中学校", "P29_005": "青森県三戸郡階上町道仏字蓬窪4-7", "P29_006": "3", "P29_007": "1", "P29_008": "00", "P29_009": null }, "geometry": { "type": "Point", "coordinates": [ 141.656639885323472, 40.452279467930623 ] } },
{ "type": "Feature", "properties": { "P29_001": "02446", "P29_002": "C102210001461", "P29_003": "16002", "P29_004": "階上町立階上中学校", "P29_005": "青森県三戸郡階上町赤保内字柳沢15-2", "P29_006": "3", "P29_007": "1", "P29_008": "00", "P29_009": null }, "geometry": { "type": "Point", "coordinates": [ 141.612855249109288, 40.448978225756889 ] } },
{ "type": "Feature", "properties": { "P29_001": "02445", "P29_002": "C102210001470", "P29_003": "16002", "P29_004": "南部町立福地中学校", "P29_005": "青森県三戸郡南部町福田字板橋1-2", "P29_006": "3", "P29_007": "1", "P29_008": "00", "P29_009": null }, "geometry": { "type": "Point", "coordinates": [ 141.381947440679539, 40.4533979405726 ] } },
{ "type": "Feature", "properties": { "P29_001": "02203", "P29_002": "C102210001498", "P29_003": "16002", "P29_004": "八戸市立中沢中学校", "P29_005": "青森県八戸市南郷市野沢字黄檗7", "P29_006": "3", "P29_007": "1", "P29_008": "00", "P29_009": null }, "geometry": { "type": "Point", "coordinates": [ 141.436549578712231, 40.399447403143405 ] } },
{ "type": "Feature", "properties": { "P29_001": "02203", "P29_002": "C102210001504", "P29_003": "16002", "P29_004": "八戸市立島守中学校", "P29_005": "青森県八戸市南郷島守字馬場37", "P29_006": "3", "P29_007": "1", "P29_008": "00", "P29_009": null }, "geometry": { "type": "Point", "coordinates": [ 141.4890484020722, 40.418485016089811 ] } },
{ "type": "Feature", "properties": { "P29_001": "02442", "P29_002": "C102210001513", "P29_003": "16002", "P29_004": "五戸町立倉石中学校", "P29_005": "青森県三戸郡五戸町倉石中市字上ミ平36", "P29_006": "3", "P29_007": "1", "P29_008": "00", "P29_009": null }, "geometry": { "type": "Point", "coordinates": [ 141.251370344704725, 40.505846003050451 ] } },
{ "type": "Feature", "properties": { "P29_001": "02450", "P29_002": "C102210001531", "P29_003": "16002", "P29_004": "新郷村立新郷中学校", "P29_005": "青森県三戸郡新郷村西越字佐野平21", "P29_006": "3", "P29_007": "1", "P29_008": "00", "P29_009": null }, "geometry": { "type": "Point", "coordinates": [ 141.202914003054332, 40.44020591359606 ] } },
{ "type": "Feature", "properties": { "P29_001": "02301", "P29_002": "C102210001541", "P29_003": "16002", "P29_004": "平内町立平内中学校", "P29_005": "青森県東津軽郡平内町小湊字新道46-26", "P29_006": "3", "P29_007": "1", "P29_008": "00", "P29_009": null }, "geometry": { "type": "Point", "coordinates": [ 140.96925874715339, 40.926217753237935 ] } },
{ "type": "Feature", "properties": { "P29_001": "02201", "P29_002": "C102310000013", "P29_003": "16002", "P29_004": "青森山田中学校", "P29_005": "青森県青森市青葉3-13-40", "P29_006": "4", "P29_007": "1", "P29_008": "00", "P29_009": null }, "geometry": { "type": "Point", "coordinates": [ 140.752102584196734, 40.802968507528064 ] } },
{ "type": "Feature", "properties": { "P29_001": "02201", "P29_002": "C102310000022", "P29_003": "16002", "P29_004": "青森明の星中学校", "P29_005": "青森県青森市浪打2-6-32", "P29_006": "4", "P29_007": "1", "P29_008": "00", "P29_009": null }, "geometry": { "type": "Point", "coordinates": [ 140.781867880110866, 40.824194834641787 ] } },
{ "type": "Feature", "properties": { "P29_001": "02202", "P29_002": "C102310000031", "P29_003": "16002", "P29_004": "弘前学院聖愛中学校", "P29_005": "青森県弘前市原ヶ平字山元112-21", "P29_006": "4", "P29_007": "1", "P29_008": "00", "P29_009": null }, "geometry": { "type": "Point", "coordinates": [ 140.47040411295032, 40.571699243879507 ] } },
{ "type": "Feature", "properties": { "P29_001": "02203", "P29_002": "C102310000040", "P29_003": "16002", "P29_004": "八戸聖ウルスラ学院中学校", "P29_005": "青森県八戸市田面木字上野平53-2", "P29_006": "4", "P29_007": "1", "P29_008": "00", "P29_009": null }, "geometry": { "type": "Point", "coordinates": [ 141.448599105586339, 40.490096448284028 ] } },
{ "type": "Feature", "properties": { "P29_001": "02203", "P29_002": "C102310000059", "P29_003": "16002", "P29_004": "八戸工業大学第二高等学校附属中学校", "P29_005": "青森県八戸市妙字大開67", "P29_006": "4", "P29_007": "1", "P29_008": "00", "P29_009": null }, "geometry": { "type": "Point", "coordinates": [ 141.564485000008233, 40.477282352707149 ] } },
{ "type": "Feature", "properties": { "P29_001": "02202", "P29_002": "C102310000068", "P29_003": "16002", "P29_004": "東奥義塾中学校", "P29_005": "青森県弘前市石川長者森61-1", "P29_006": "4", "P29_007": "1", "P29_008": "00", "P29_009": null }, "geometry": { "type": "Point", "coordinates": [ 140.524755439134708, 40.553553374528505 ] } }
]
}
