{
"type": "FeatureCollection",
"name": "geo_02_短期入所生活介護",
"crs": { "type": "name", "properties": { "name": "urn:ogc:def:crs:OGC:1.3:CRS84" } },
"features": [
{ "type": "Feature", "properties": { "内容": "特別養護老人ホーム　三思園【短期入所生活介護】青森県青森市大字横内字若草1番地1", "url": "https://www.kaigokensaku.mhlw.go.jp/02/index.php?action_kouhyou_detail_004_kani=true&JigyosyoCd=0270100241-00&ServiceCd=210&Type=search", "url2": "http://sanshien.site" }, "geometry": { "type": "Point", "coordinates": [ 140.7608871, 40.7848702 ] } },
{ "type": "Feature", "properties": { "内容": "鶴ヶ丘苑【短期入所生活介護】青森県青森市大字新城字平岡746番地", "url": "https://www.kaigokensaku.mhlw.go.jp/02/index.php?action_kouhyou_detail_004_kani=true&JigyosyoCd=0270100316-00&ServiceCd=210&Type=search", "url2": "http://www.keijinkai-ao.jp/turugaoka/" }, "geometry": { "type": "Point", "coordinates": [ 140.6650942, 40.8022334 ] } },
{ "type": "Feature", "properties": { "内容": "特別養護老人ホーム　寿幸園【短期入所生活介護】青森市大字高田字川瀬186番地１", "url": "https://www.kaigokensaku.mhlw.go.jp/02/index.php?action_kouhyou_detail_004_kani=true&JigyosyoCd=0270100407-00&ServiceCd=210&Type=search", "url2": "http://heigenkai.jp/publics/index/144/" }, "geometry": { "type": "Point", "coordinates": [ 140.723610399999984, 40.768016 ] } },
{ "type": "Feature", "properties": { "内容": "特別養護老人ホーム　正寿園【短期入所生活介護】青森市大字田茂木野字阿部野63－2", "url": "https://www.kaigokensaku.mhlw.go.jp/02/index.php?action_kouhyou_detail_004_kani=true&JigyosyoCd=0270100654-00&ServiceCd=210&Type=search", "url2": "https://heigenkai.jp/" }, "geometry": { "type": "Point", "coordinates": [ 140.800028600000019, 40.7669734 ] } },
{ "type": "Feature", "properties": { "内容": "特別養護老人ホーム　和幸園【短期入所生活介護】青森市大字矢田字下野尻48-3", "url": "https://www.kaigokensaku.mhlw.go.jp/02/index.php?action_kouhyou_detail_004_kani=true&JigyosyoCd=0270100670-00&ServiceCd=210&Type=search", "url2": "http://www.wakouen.or.jp" }, "geometry": { "type": "Point", "coordinates": [ 140.848323700000037, 40.8469938 ] } },
{ "type": "Feature", "properties": { "内容": "短期入所生活介護事業所　藤の園【短期入所生活介護】青森県青森市大字駒込字蛍沢　387番地1", "url": "https://www.kaigokensaku.mhlw.go.jp/02/index.php?action_kouhyou_detail_004_kani=true&JigyosyoCd=0270100696-00&ServiceCd=210&Type=search", "url2": "http://www.fujiseiboen.or.jp/" }, "geometry": { "type": "Point", "coordinates": [ 140.813121, 40.7926241 ] } },
{ "type": "Feature", "properties": { "内容": "特別養護老人ホーム雲谷ホーム【短期入所生活介護】青森市大字雲谷字山吹92番地170", "url": "https://www.kaigokensaku.mhlw.go.jp/02/index.php?action_kouhyou_detail_004_kani=true&JigyosyoCd=0270100704-00&ServiceCd=210&Type=search", "url2": "http：//www．moyahomu.com" }, "geometry": { "type": "Point", "coordinates": [ 140.7835476, 40.7395633 ] } },
{ "type": "Feature", "properties": { "内容": "指定介護老人福祉施設　樹の里【短期入所生活介護】青森市大字諏訪沢字丸山56番地１", "url": "https://www.kaigokensaku.mhlw.go.jp/02/index.php?action_kouhyou_detail_004_kani=true&JigyosyoCd=0270100902-00&ServiceCd=210&Type=search", "url2": "https://www.suwanomorikai.com/" }, "geometry": { "type": "Point", "coordinates": [ 140.833076600000027, 40.8199215 ] } },
{ "type": "Feature", "properties": { "内容": "ショートステイやすかた【短期入所生活介護】青森市安方1丁目11-6ヘルスサポートやすかた(旧安方クリニック)ビル内　４F、５F、６F", "url": "https://www.kaigokensaku.mhlw.go.jp/02/index.php?action_kouhyou_detail_004_kani=true&JigyosyoCd=0270101579-00&ServiceCd=210&Type=search", "url2": "http://www.aomori-h-coop.com" }, "geometry": { "type": "Point", "coordinates": [ 140.739753899999982, 40.827688 ] } },
{ "type": "Feature", "properties": { "内容": "特別養護老人ホーム　朝光苑【短期入所生活介護】青森県青森市大字横内字亀井２４５番地１", "url": "https://www.kaigokensaku.mhlw.go.jp/02/index.php?action_kouhyou_detail_004_kani=true&JigyosyoCd=0270101595-00&ServiceCd=210&Type=search", "url2": "http://www.onwakai.or.jp/" }, "geometry": { "type": "Point", "coordinates": [ 140.766712, 40.77118 ] } },
{ "type": "Feature", "properties": { "内容": "特別養護老人ホーム　かいふう【短期入所生活介護】青森県青森市大字久栗坂字山辺８９－１０", "url": "https://www.kaigokensaku.mhlw.go.jp/02/index.php?action_kouhyou_detail_004_kani=true&JigyosyoCd=0270102064-00&ServiceCd=210&Type=search", "url2": "http://www.keijinkai-ao.jp/" }, "geometry": { "type": "Point", "coordinates": [ 140.8523639, 40.8774682 ] } },
{ "type": "Feature", "properties": { "内容": "ショートステイ虹の郷【短期入所生活介護】青森市東大野２丁目３番１３", "url": "https://www.kaigokensaku.mhlw.go.jp/02/index.php?action_kouhyou_detail_004_kani=true&JigyosyoCd=0270103468-00&ServiceCd=210&Type=search", "url2": "http://nijiweb.net/" }, "geometry": { "type": "Point", "coordinates": [ 140.741793599999937, 40.7980324 ] } },
{ "type": "Feature", "properties": { "内容": "特別養護老人ホーム大野和幸園【短期入所生活介護】青森市西大野5丁目16番10号", "url": "https://www.kaigokensaku.mhlw.go.jp/02/index.php?action_kouhyou_detail_004_kani=true&JigyosyoCd=0270104060-00&ServiceCd=210&Type=search", "url2": "http://www.wakouen.or.jp/" }, "geometry": { "type": "Point", "coordinates": [ 140.724650200000042, 40.7990485 ] } },
{ "type": "Feature", "properties": { "内容": "特別養護老人ホームおきだて苑【短期入所生活介護】青森市新田1丁目11番3号", "url": "https://www.kaigokensaku.mhlw.go.jp/02/index.php?action_kouhyou_detail_004_kani=true&JigyosyoCd=0270104102-00&ServiceCd=210&Type=search", "url2": "https://okidateengroup.jp/" }, "geometry": { "type": "Point", "coordinates": [ 140.714988609821717, 40.841858750348415 ] } },
{ "type": "Feature", "properties": { "内容": "特別養護老人ホームすこやか苑【短期入所生活介護】青森県青森市大字浜館字間瀬85番地6", "url": "https://www.kaigokensaku.mhlw.go.jp/02/index.php?action_kouhyou_detail_004_kani=true&JigyosyoCd=0270105091-00&ServiceCd=210&Type=search", "url2": "http://sukoyakaen.com/" }, "geometry": { "type": "Point", "coordinates": [ 140.792546057811023, 40.812854353668286 ] } },
{ "type": "Feature", "properties": { "内容": "特別養護老人ホーム勝田三思園【短期入所生活介護】青森市勝田2丁目20-12", "url": "https://www.kaigokensaku.mhlw.go.jp/02/index.php?action_kouhyou_detail_004_kani=true&JigyosyoCd=0270105414-00&ServiceCd=210&Type=search", "url2": "https://k-sanshien.site" }, "geometry": { "type": "Point", "coordinates": [ 140.758611200000018, 40.8193614 ] } },
{ "type": "Feature", "properties": { "内容": "特別養護老人ホームゆうゆう荘【短期入所生活介護】青森県青森市浪岡大字樽沢字村元３３０－７", "url": "https://www.kaigokensaku.mhlw.go.jp/02/index.php?action_kouhyou_detail_004_kani=true&JigyosyoCd=0272300104-00&ServiceCd=210&Type=search", "url2": "http://care-net.biz/02/yuyusou/" }, "geometry": { "type": "Point", "coordinates": [ 140.558306600000037, 40.7127337 ] } },
{ "type": "Feature", "properties": { "内容": "特別養護老人ホームときわ【短期入所生活介護】青森県南津軽郡藤崎町大字水木字浅田95", "url": "https://www.kaigokensaku.mhlw.go.jp/02/index.php?action_kouhyou_detail_004_kani=true&JigyosyoCd=0272300674-00&ServiceCd=210&Type=search", "url2": "http://www.toueikai.jp/top.html" }, "geometry": { "type": "Point", "coordinates": [ 140.537075499999986, 40.6781478 ] } },
{ "type": "Feature", "properties": { "内容": "ときわショートステイ【短期入所生活介護】青森県南津軽郡藤崎町大字水木字浅田９５", "url": "https://www.kaigokensaku.mhlw.go.jp/02/index.php?action_kouhyou_detail_004_kani=true&JigyosyoCd=0272301094-00&ServiceCd=210&Type=search", "url2": "http://www.toueikai.jp/tokiwa-office.html" }, "geometry": { "type": "Point", "coordinates": [ 140.536743099999967, 40.6780925 ] } },
{ "type": "Feature", "properties": { "内容": "特別養護老人ホームつるがさか【短期入所生活介護】青森県青森市大字鶴ヶ坂字田川１８７－９４", "url": "https://www.kaigokensaku.mhlw.go.jp/02/index.php?action_kouhyou_detail_004_kani=true&JigyosyoCd=0270103971-00&ServiceCd=210&Type=search", "url2": "http://care-net.biz/02/tsurugasaka/" }, "geometry": { "type": "Point", "coordinates": [ 140.6283373, 40.7873948 ] } },
{ "type": "Feature", "properties": { "内容": "津軽保健生活協同組合　健生介護センター虹【短期入所生活介護】弘前市大字向外瀬字豊田292-1", "url": "https://www.kaigokensaku.mhlw.go.jp/02/index.php?action_kouhyou_detail_004_kani=true&JigyosyoCd=0270201445-00&ServiceCd=210&Type=search", "url2": null }, "geometry": { "type": "Point", "coordinates": [ 140.482302900000036, 40.6300966 ] } },
{ "type": "Feature", "properties": { "内容": "ショートステイ長慶の里【短期入所生活介護】大字坂市字亀田53番地3", "url": "https://www.kaigokensaku.mhlw.go.jp/02/index.php?action_kouhyou_detail_004_kani=true&JigyosyoCd=0270203532-00&ServiceCd=210&Type=search", "url2": "htttp://www.choukeien.or.jp" }, "geometry": { "type": "Point", "coordinates": [ 140.379922699999952, 40.5737391 ] } },
{ "type": "Feature", "properties": { "内容": "弘前特別養護老人ホーム介護保険サービス事業センター【短期入所生活介護】青森県弘前市自由ヶ丘５－５－３", "url": "https://www.kaigokensaku.mhlw.go.jp/02/index.php?action_kouhyou_detail_004_kani=true&JigyosyoCd=0270200058-00&ServiceCd=210&Type=search", "url2": "http://tsugarufujimikai.com" }, "geometry": { "type": "Point", "coordinates": [ 140.436733499999946, 40.5822121 ] } },
{ "type": "Feature", "properties": { "内容": "サンアップル短期入所生活介護センター【短期入所生活介護】弘前市浜の町東5丁目24番地3", "url": "https://www.kaigokensaku.mhlw.go.jp/02/index.php?action_kouhyou_detail_004_kani=true&JigyosyoCd=0270200512-00&ServiceCd=210&Type=search", "url2": "http://www.sunapplehome.jp/" }, "geometry": { "type": "Point", "coordinates": [ 140.465020900000042, 40.6224951 ] } },
{ "type": "Feature", "properties": { "内容": "白寿園　短期入所生活介護事業所【短期入所生活介護】青森県弘前市大字大沢字稲元3番地2", "url": "https://www.kaigokensaku.mhlw.go.jp/02/index.php?action_kouhyou_detail_004_kani=true&JigyosyoCd=0270200595-00&ServiceCd=210&Type=search", "url2": "hakujuen-t.or.jp" }, "geometry": { "type": "Point", "coordinates": [ 140.51632010000003, 40.5581117 ] } },
{ "type": "Feature", "properties": { "内容": "弘前静光園短期入所生活介護事業所【短期入所生活介護】青森県弘前市大字豊原一丁目1番地２特別養護老人ホーム弘前静光園", "url": "https://www.kaigokensaku.mhlw.go.jp/02/index.php?action_kouhyou_detail_004_kani=true&JigyosyoCd=0270200652-00&ServiceCd=210&Type=search", "url2": "seikouen＠sh-aiseien.jp" }, "geometry": { "type": "Point", "coordinates": [ 140.4757088, 40.5843432 ] } },
{ "type": "Feature", "properties": { "内容": "おうよう園ショートステイ【短期入所生活介護】青森県弘前市大字城南五丁目１３番地１５", "url": "https://www.kaigokensaku.mhlw.go.jp/02/index.php?action_kouhyou_detail_004_kani=true&JigyosyoCd=0270200694-00&ServiceCd=210&Type=search", "url2": "http://www.oyoen.com/" }, "geometry": { "type": "Point", "coordinates": [ 140.461328169079138, 40.579061180873488 ] } },
{ "type": "Feature", "properties": { "内容": "特別養護老人ホーム三和園【短期入所生活介護】青森県弘前市大字茜町二丁目1番地2", "url": "https://www.kaigokensaku.mhlw.go.jp/02/index.php?action_kouhyou_detail_004_kani=true&JigyosyoCd=0270200702-00&ServiceCd=210&Type=search", "url2": "http://sanwakai.info/" }, "geometry": { "type": "Point", "coordinates": [ 140.446562399999948, 40.6009185 ] } },
{ "type": "Feature", "properties": { "内容": "特別養護老人ホーム　　福寿園【短期入所生活介護】青森県弘前市大字福村字新舘添50-8", "url": "https://www.kaigokensaku.mhlw.go.jp/02/index.php?action_kouhyou_detail_004_kani=true&JigyosyoCd=0270200793-00&ServiceCd=210&Type=search", "url2": "http://ichiyoukai.jp" }, "geometry": { "type": "Point", "coordinates": [ 140.516434, 40.6064283 ] } },
{ "type": "Feature", "properties": { "内容": "短期入所生活介護　サンタハウス弘前【短期入所生活介護】青森県弘前市大字大川字中桜川１８番地１０１０号館", "url": "https://www.kaigokensaku.mhlw.go.jp/02/index.php?action_kouhyou_detail_004_kani=true&JigyosyoCd=0270202088-00&ServiceCd=210&Type=search", "url2": "https://houtokukai.org/" }, "geometry": { "type": "Point", "coordinates": [ 140.456859664556873, 40.676314565926646 ] } },
{ "type": "Feature", "properties": { "内容": "オリーブコート城西一丁目【短期入所生活介護】青森県弘前市城西一丁目８番地７", "url": "https://www.kaigokensaku.mhlw.go.jp/02/index.php?action_kouhyou_detail_004_kani=true&JigyosyoCd=0270203946-00&ServiceCd=210&Type=search", "url2": null }, "geometry": { "type": "Point", "coordinates": [ 140.450553500000069, 40.6052042 ] } },
{ "type": "Feature", "properties": { "内容": "ライフケア高増ショートステイ津軽の里豊原【短期入所生活介護】豊原1丁目4番地11ショートステイ津軽の里豊原", "url": "https://www.kaigokensaku.mhlw.go.jp/02/index.php?action_kouhyou_detail_004_kani=true&JigyosyoCd=0270203995-00&ServiceCd=210&Type=search", "url2": "http://tsugarunosato.com" }, "geometry": { "type": "Point", "coordinates": [ 140.478757790212967, 40.582146620618126 ] } },
{ "type": "Feature", "properties": { "内容": "ショートステイおうよう園山崎【短期入所生活介護】青森県弘前市大字山崎３丁目６番地１", "url": "https://www.kaigokensaku.mhlw.go.jp/02/index.php?action_kouhyou_detail_004_kani=true&JigyosyoCd=0270204019-00&ServiceCd=210&Type=search", "url2": "http://www.oyoen.com/" }, "geometry": { "type": "Point", "coordinates": [ 140.464696300000014, 40.5724722 ] } },
{ "type": "Feature", "properties": { "内容": "短期入所生活介護事業　はくじゅ【短期入所生活介護】青森県弘前市大字大沢字稲元1番地13白寿園驛前館", "url": "https://www.kaigokensaku.mhlw.go.jp/02/index.php?action_kouhyou_detail_004_kani=true&JigyosyoCd=0270204217-00&ServiceCd=210&Type=search", "url2": "https://www.hakujuen-t.or.jp/" }, "geometry": { "type": "Point", "coordinates": [ 140.5163959, 40.55757660000004 ] } },
{ "type": "Feature", "properties": { "内容": "大開ショートステイすこや家【短期入所生活介護】青森県弘前市大開３－６－１", "url": "https://www.kaigokensaku.mhlw.go.jp/02/index.php?action_kouhyou_detail_004_kani=true&JigyosyoCd=0270204274-00&ServiceCd=210&Type=search", "url2": "https://hikarisukoyaka.com" }, "geometry": { "type": "Point", "coordinates": [ 140.446597510450744, 40.578120154725603 ] } },
{ "type": "Feature", "properties": { "内容": "短期入所生活介護事業　松山荘ケアステーション【短期入所生活介護】青森県弘前市大字一町田字浅井443番地1", "url": "https://www.kaigokensaku.mhlw.go.jp/02/index.php?action_kouhyou_detail_004_kani=true&JigyosyoCd=0272200072-00&ServiceCd=210&Type=search", "url2": "https://gakuyokai.jp/" }, "geometry": { "type": "Point", "coordinates": [ 140.419696054083261, 40.609660114948191 ] } },
{ "type": "Feature", "properties": { "内容": "ショートスティ長慶苑【短期入所生活介護】青森県弘前市大字坂市字亀田53番地3", "url": "https://www.kaigokensaku.mhlw.go.jp/02/index.php?action_kouhyou_detail_004_kani=true&JigyosyoCd=0272200163-00&ServiceCd=210&Type=search", "url2": "http://www.choukeien.or.jp" }, "geometry": { "type": "Point", "coordinates": [ 140.379922699999952, 40.5737391 ] } },
{ "type": "Feature", "properties": { "内容": "特別養護老人ホーム　弘前大清水ホーム【短期入所生活介護】青森県弘前市大字清原四丁目9番地2", "url": "https://www.kaigokensaku.mhlw.go.jp/02/index.php?action_kouhyou_detail_004_kani=true&JigyosyoCd=0270200587-00&ServiceCd=210&Type=search", "url2": "http://www.fujiseiboen.or.jp/" }, "geometry": { "type": "Point", "coordinates": [ 140.490530400000011, 40.5780163 ] } },
{ "type": "Feature", "properties": { "内容": "特別養護老人ホーム弘前園介護保険サービス事業センター【短期入所生活介護】青森県弘前市大字鬼沢字山ノ越249番地", "url": "https://www.kaigokensaku.mhlw.go.jp/02/index.php?action_kouhyou_detail_004_kani=true&JigyosyoCd=0270200918-00&ServiceCd=210&Type=search", "url2": null }, "geometry": { "type": "Point", "coordinates": [ 140.40484749999996, 40.6967034 ] } },
{ "type": "Feature", "properties": { "内容": "瑞光園短期入所生活介護【短期入所生活介護】青森県八戸市大字大久保字大山35番地1", "url": "https://www.kaigokensaku.mhlw.go.jp/02/index.php?action_kouhyou_detail_004_kani=true&JigyosyoCd=0270300288-00&ServiceCd=210&Type=search", "url2": "https://www.zuikoen.or.jp" }, "geometry": { "type": "Point", "coordinates": [ 141.579199, 40.4886725 ] } },
{ "type": "Feature", "properties": { "内容": "寿楽荘ショートステイ【短期入所生活介護】青森県八戸市大字市川町字夏秋４", "url": "https://www.kaigokensaku.mhlw.go.jp/02/index.php?action_kouhyou_detail_004_kani=true&JigyosyoCd=0270300627-00&ServiceCd=210&Type=search", "url2": "http://juei-kai.or.jp" }, "geometry": { "type": "Point", "coordinates": [ 141.446144211639449, 40.579106328167832 ] } },
{ "type": "Feature", "properties": { "内容": "特別養護老人ホーム　修光園【短期入所生活介護】青森県八戸市大字十日市字黒坂３５番地", "url": "https://www.kaigokensaku.mhlw.go.jp/02/index.php?action_kouhyou_detail_004_kani=true&JigyosyoCd=0270300650-00&ServiceCd=210&Type=search", "url2": "www.shukouen.or.jp" }, "geometry": { "type": "Point", "coordinates": [ 141.520929600000045, 40.4828772 ] } },
{ "type": "Feature", "properties": { "内容": "短期入所生活介護　リハビリパークえんぶり物語【短期入所生活介護】青森県八戸市大字河原木字見立山６番２０９", "url": "https://www.kaigokensaku.mhlw.go.jp/02/index.php?action_kouhyou_detail_004_kani=true&JigyosyoCd=0270300874-00&ServiceCd=210&Type=search", "url2": "http://www.rehabili-park.com" }, "geometry": { "type": "Point", "coordinates": [ 141.450129899999979, 40.5415073 ] } },
{ "type": "Feature", "properties": { "内容": "ショートステイ　さざなみ【短期入所生活介護】青森県八戸市小中野８丁目９番地２０", "url": "https://www.kaigokensaku.mhlw.go.jp/02/index.php?action_kouhyou_detail_004_kani=true&JigyosyoCd=0270301682-00&ServiceCd=210&Type=search", "url2": "http://www.fukujuso.or.jp" }, "geometry": { "type": "Point", "coordinates": [ 141.518394700000044, 40.5230884 ] } },
{ "type": "Feature", "properties": { "内容": "ケア・ステーション淨信館【短期入所生活介護】青森県八戸市一番町2丁目3番地12", "url": "https://www.kaigokensaku.mhlw.go.jp/02/index.php?action_kouhyou_detail_004_kani=true&JigyosyoCd=0270301831-00&ServiceCd=210&Type=search", "url2": "http://joshinkan.com/" }, "geometry": { "type": "Point", "coordinates": [ 141.4351067, 40.5092996 ] } },
{ "type": "Feature", "properties": { "内容": "サンシャインショートステイ【短期入所生活介護】青森県八戸市東白山台二丁目２番１", "url": "https://www.kaigokensaku.mhlw.go.jp/02/index.php?action_kouhyou_detail_004_kani=true&JigyosyoCd=0270302011-00&ServiceCd=210&Type=search", "url2": "https://s-tokokai.or.jp/facility/tokubetuyogo/" }, "geometry": { "type": "Point", "coordinates": [ 141.471408955819697, 40.489299811165054 ] } },
{ "type": "Feature", "properties": { "内容": "短期入所生活介護施設　光葉園【短期入所生活介護】青森県八戸市大字鮫町字金屎３５番地９０", "url": "https://www.kaigokensaku.mhlw.go.jp/02/index.php?action_kouhyou_detail_004_kani=true&JigyosyoCd=0270302136-00&ServiceCd=210&Type=search", "url2": "http://www.mirokukai.or.jp/koyoen/" }, "geometry": { "type": "Point", "coordinates": [ 141.577567400000021, 40.5140884 ] } },
{ "type": "Feature", "properties": { "内容": "特別養護老人ホーム　ほっとハウス【短期入所生活介護】青森県八戸市大字尻内町字熊ノ沢35番2号", "url": "https://www.kaigokensaku.mhlw.go.jp/02/index.php?action_kouhyou_detail_004_kani=true&JigyosyoCd=0270302227-00&ServiceCd=210&Type=search", "url2": "http://tomonokai.jp/" }, "geometry": { "type": "Point", "coordinates": [ 141.426062499999944, 40.5220034 ] } },
{ "type": "Feature", "properties": { "内容": "特別養護老人ホーム　ハピネスやくら【短期入所生活介護】青森県八戸市大字八幡字下樋田１番１", "url": "https://www.kaigokensaku.mhlw.go.jp/02/index.php?action_kouhyou_detail_004_kani=true&JigyosyoCd=0270302623-00&ServiceCd=210&Type=search", "url2": "http://family-wf.jp" }, "geometry": { "type": "Point", "coordinates": [ 141.436421634819652, 40.495205687917846 ] } },
{ "type": "Feature", "properties": { "内容": "瑞光園短期入所生活介護【短期入所生活介護】青森県八戸市大字大久保字大山35番地1", "url": "https://www.kaigokensaku.mhlw.go.jp/02/index.php?action_kouhyou_detail_004_kani=true&JigyosyoCd=0270302680-00&ServiceCd=210&Type=search", "url2": "https://www.zuikoen.or.jp" }, "geometry": { "type": "Point", "coordinates": [ 141.578990064418008, 40.488703350532177 ] } },
{ "type": "Feature", "properties": { "内容": "修光園サテライト【短期入所生活介護】八戸市田向５丁目７－１", "url": "https://www.kaigokensaku.mhlw.go.jp/02/index.php?action_kouhyou_detail_004_kani=true&JigyosyoCd=0270302706-00&ServiceCd=210&Type=search", "url2": "shukouen.or.jp" }, "geometry": { "type": "Point", "coordinates": [ 141.514443799999981, 40.4898677 ] } },
{ "type": "Feature", "properties": { "内容": "特別養護老人ホーム八戸素心苑【短期入所生活介護】青森県八戸市大字尻内町字矢沢６２－１", "url": "https://www.kaigokensaku.mhlw.go.jp/02/index.php?action_kouhyou_detail_004_kani=true&JigyosyoCd=0270303985-00&ServiceCd=210&Type=search", "url2": "http://soshin-en.com/" }, "geometry": { "type": "Point", "coordinates": [ 141.424528602238524, 40.507262303525032 ] } },
{ "type": "Feature", "properties": { "内容": "ショートステイ　ラ・メール白山台【短期入所生活介護】青森県八戸市北白山台５丁目２番15号", "url": "https://www.kaigokensaku.mhlw.go.jp/02/index.php?action_kouhyou_detail_004_kani=true&JigyosyoCd=0270304116-00&ServiceCd=210&Type=search", "url2": "http://mirokuen.com" }, "geometry": { "type": "Point", "coordinates": [ 141.4629405, 40.4852125 ] } },
{ "type": "Feature", "properties": { "内容": "福寿草インスプリング【短期入所生活介護】青森県八戸市大字妙字西平6番地19", "url": "https://www.kaigokensaku.mhlw.go.jp/02/index.php?action_kouhyou_detail_004_kani=true&JigyosyoCd=0270304124-00&ServiceCd=210&Type=search", "url2": "http://www.fukujuso.or.jp/" }, "geometry": { "type": "Point", "coordinates": [ 141.544095199999987, 40.4893089 ] } },
{ "type": "Feature", "properties": { "内容": "ショートステイラ・メール小中野【短期入所生活介護】青森県八戸市小中野5丁目10番1号", "url": "https://www.kaigokensaku.mhlw.go.jp/02/index.php?action_kouhyou_detail_004_kani=true&JigyosyoCd=0270304231-00&ServiceCd=210&Type=search", "url2": "https://mirokuen.com/" }, "geometry": { "type": "Point", "coordinates": [ 141.5156577, 40.5228105 ] } },
{ "type": "Feature", "properties": { "内容": "福寿草インスプリング【短期入所生活介護】青森県八戸市大字妙字西平6番地19", "url": "https://www.kaigokensaku.mhlw.go.jp/02/index.php?action_kouhyou_detail_004_kani=true&JigyosyoCd=0270300486-00&ServiceCd=210&Type=search", "url2": "http://fukujuso.or.jp/" }, "geometry": { "type": "Point", "coordinates": [ 141.544082399999979, 40.4891572 ] } },
{ "type": "Feature", "properties": { "内容": "ショートステイ　クローバーズ・ピア【短期入所生活介護】青森県八戸市南郷大字市野沢字山陣屋36-50", "url": "https://www.kaigokensaku.mhlw.go.jp/02/index.php?action_kouhyou_detail_004_kani=true&JigyosyoCd=0272700618-00&ServiceCd=210&Type=search", "url2": "https://www.net-pier.org" }, "geometry": { "type": "Point", "coordinates": [ 141.452150599999982, 40.4057793 ] } },
{ "type": "Feature", "properties": { "内容": "すみれ特別養護老人ホーム【短期入所生活介護】青森県黒石市馬場尻南５８", "url": "https://www.kaigokensaku.mhlw.go.jp/02/index.php?action_kouhyou_detail_004_kani=true&JigyosyoCd=0270400021-00&ServiceCd=210&Type=search", "url2": "http://www.sumire-kai.jp/" }, "geometry": { "type": "Point", "coordinates": [ 140.5871866, 40.6749277 ] } },
{ "type": "Feature", "properties": { "内容": "黒石特別養護老人ホーム【短期入所生活介護】青森県黒石市大字赤坂字池田１３６番地", "url": "https://www.kaigokensaku.mhlw.go.jp/02/index.php?action_kouhyou_detail_004_kani=true&JigyosyoCd=0270400088-00&ServiceCd=210&Type=search", "url2": "http://www.roujinhome-kuroishi.or.jp" }, "geometry": { "type": "Point", "coordinates": [ 140.610023700000056, 40.6660795 ] } },
{ "type": "Feature", "properties": { "内容": "特別養護老人ホーム祥光苑【短期入所生活介護】青森県五所川原市大字沖飯詰字帯刀３５７番地１", "url": "https://www.kaigokensaku.mhlw.go.jp/02/index.php?action_kouhyou_detail_004_kani=true&JigyosyoCd=0270500093-00&ServiceCd=210&Type=search", "url2": "http://www.shokoen.or.jp" }, "geometry": { "type": "Point", "coordinates": [ 140.4525741, 40.8357852 ] } },
{ "type": "Feature", "properties": { "内容": "特別養護老人ホーム　青山荘【短期入所生活介護】青森県五所川原市大字金山字盛山42-8", "url": "https://www.kaigokensaku.mhlw.go.jp/02/index.php?action_kouhyou_detail_004_kani=true&JigyosyoCd=0270500135-00&ServiceCd=210&Type=search", "url2": "https://www.seizanso.or.jp" }, "geometry": { "type": "Point", "coordinates": [ 140.4992244, 40.8090506 ] } },
{ "type": "Feature", "properties": { "内容": "あかねショートステイセンター【短期入所生活介護】青森県五所川原市大字前田野目字長峰１１２番地２", "url": "https://www.kaigokensaku.mhlw.go.jp/02/index.php?action_kouhyou_detail_004_kani=true&JigyosyoCd=0270500218-00&ServiceCd=210&Type=search", "url2": "http://wakanakai.com/" }, "geometry": { "type": "Point", "coordinates": [ 140.556480299999947, 40.7598739 ] } },
{ "type": "Feature", "properties": { "内容": "短期入所生活介護事業所　さくらの里【短期入所生活介護】青森県五所川原市大字姥萢字桜木424-1", "url": "https://www.kaigokensaku.mhlw.go.jp/02/index.php?action_kouhyou_detail_004_kani=true&JigyosyoCd=0270501117-00&ServiceCd=210&Type=search", "url2": "https://hv37p.hp.peraichi.com" }, "geometry": { "type": "Point", "coordinates": [ 140.444929300000013, 40.7882444 ] } },
{ "type": "Feature", "properties": { "内容": "ショートステイすわんの里【短期入所生活介護】青森県五所川原市脇元磯辺365番地1", "url": "https://www.kaigokensaku.mhlw.go.jp/02/index.php?action_kouhyou_detail_004_kani=true&JigyosyoCd=0270501380-00&ServiceCd=210&Type=search", "url2": "http://www.takushinkai.or.jp" }, "geometry": { "type": "Point", "coordinates": [ 140.319449, 41.0953911 ] } },
{ "type": "Feature", "properties": { "内容": "特別養護老人ホームあしの園【短期入所生活介護】青森県五所川原市金木町川倉七夕野84-442", "url": "https://www.kaigokensaku.mhlw.go.jp/02/index.php?action_kouhyou_detail_004_kani=true&JigyosyoCd=0272400276-00&ServiceCd=210&Type=search", "url2": null }, "geometry": { "type": "Point", "coordinates": [ 140.456389700000045, 40.9213926 ] } },
{ "type": "Feature", "properties": { "内容": "一葉園短期入所生活介護【短期入所生活介護】青森県十和田市元町西五丁目11-31", "url": "https://www.kaigokensaku.mhlw.go.jp/02/index.php?action_kouhyou_detail_004_kani=true&JigyosyoCd=0270600190-00&ServiceCd=210&Type=search", "url2": "https://shiseikai-1960.or.jp/" }, "geometry": { "type": "Point", "coordinates": [ 141.198261945718428, 40.623543983403117 ] } },
{ "type": "Feature", "properties": { "内容": "特別養護老人ホーム八甲荘【短期入所生活介護】青森県十和田市大字相坂字高清水78番地232", "url": "https://www.kaigokensaku.mhlw.go.jp/02/index.php?action_kouhyou_detail_004_kani=true&JigyosyoCd=0270600406-00&ServiceCd=210&Type=search", "url2": "http://hakkoudakai.jp/" }, "geometry": { "type": "Point", "coordinates": [ 141.261137700000063, 40.6331999 ] } },
{ "type": "Feature", "properties": { "内容": "社会福祉法人　十和田湖会　ショートステイ　きゃんぱす【短期入所生活介護】青森県十和田市大字相坂字小林94-1", "url": "https://www.kaigokensaku.mhlw.go.jp/02/index.php?action_kouhyou_detail_004_kani=true&JigyosyoCd=0270601180-00&ServiceCd=210&Type=search", "url2": "http://www.towadakokai.jp" }, "geometry": { "type": "Point", "coordinates": [ 141.230923584727378, 40.59909823923671 ] } },
{ "type": "Feature", "properties": { "内容": "短期入所生活介護事業所　湖楽園【短期入所生活介護】青森県十和田市大字奥瀬字下川目2-9", "url": "https://www.kaigokensaku.mhlw.go.jp/02/index.php?action_kouhyou_detail_004_kani=true&JigyosyoCd=0272500323-00&ServiceCd=210&Type=search", "url2": "http://www.towadakokai.jp" }, "geometry": { "type": "Point", "coordinates": [ 141.09426069999995, 40.5849684 ] } },
{ "type": "Feature", "properties": { "内容": "ショートステイ桜こまち【短期入所生活介護】十和田市赤沼字下平263-480", "url": "https://www.kaigokensaku.mhlw.go.jp/02/index.php?action_kouhyou_detail_004_kani=true&JigyosyoCd=0270600943-00&ServiceCd=210&Type=search", "url2": "https://sakura-komachi.life/wappuru.html" }, "geometry": { "type": "Point", "coordinates": [ 141.182957699999946, 40.6039809 ] } },
{ "type": "Feature", "properties": { "内容": "ショートステイよつ葉【短期入所生活介護】青森県十和田市東十一番町23番35号", "url": "https://www.kaigokensaku.mhlw.go.jp/02/index.php?action_kouhyou_detail_004_kani=true&JigyosyoCd=0270601123-00&ServiceCd=210&Type=search", "url2": "http://www.yotuba4968.com/" }, "geometry": { "type": "Point", "coordinates": [ 141.2227005, 40.624627352414173 ] } },
{ "type": "Feature", "properties": { "内容": "特別養護老人ホーム　ひばり苑【短期入所生活介護】青森県三沢市六川目６丁目２８－６", "url": "https://www.kaigokensaku.mhlw.go.jp/02/index.php?action_kouhyou_detail_004_kani=true&JigyosyoCd=0270700172-00&ServiceCd=210&Type=search", "url2": "http://www.joukoukai.or.jp/" }, "geometry": { "type": "Point", "coordinates": [ 141.4020749, 40.7723223 ] } },
{ "type": "Feature", "properties": { "内容": "エブリー春日台【短期入所生活介護】青森県三沢市春日台３丁目154-893", "url": "https://www.kaigokensaku.mhlw.go.jp/02/index.php?action_kouhyou_detail_004_kani=true&JigyosyoCd=0270700685-00&ServiceCd=210&Type=search", "url2": null }, "geometry": { "type": "Point", "coordinates": [ 141.3396, 40.6651434 ] } },
{ "type": "Feature", "properties": { "内容": "三沢老人ホーム【短期入所生活介護】青森県三沢市大字三沢字園沢156-8", "url": "https://www.kaigokensaku.mhlw.go.jp/02/index.php?action_kouhyou_detail_004_kani=true&JigyosyoCd=0270700750-00&ServiceCd=210&Type=search", "url2": "https://www.rakuseikai.or.jp/" }, "geometry": { "type": "Point", "coordinates": [ 141.4113955, 40.6777282 ] } },
{ "type": "Feature", "properties": { "内容": "特別養護老人ホーム桜木園【短期入所生活介護】青森県むつ市中央二丁目23-1", "url": "https://www.kaigokensaku.mhlw.go.jp/02/index.php?action_kouhyou_detail_004_kani=true&JigyosyoCd=0270800105-00&ServiceCd=210&Type=search", "url2": "https://sakuragien.sakuragikai.net" }, "geometry": { "type": "Point", "coordinates": [ 141.18488902888916, 41.290434785563306 ] } },
{ "type": "Feature", "properties": { "内容": "みちのく十二林ショートステイ【短期入所生活介護】青森県むつ市十二林17-1", "url": "https://www.kaigokensaku.mhlw.go.jp/02/index.php?action_kouhyou_detail_004_kani=true&JigyosyoCd=0270800279-00&ServiceCd=210&Type=search", "url2": "http:/www.michinokuso.or.jp" }, "geometry": { "type": "Point", "coordinates": [ 141.186058690928661, 41.298674040324649 ] } },
{ "type": "Feature", "properties": { "内容": "おおみなと園【短期入所生活介護】青森県むつ市大湊新町30番10号", "url": "https://www.kaigokensaku.mhlw.go.jp/02/index.php?action_kouhyou_detail_004_kani=true&JigyosyoCd=0270800444-00&ServiceCd=210&Type=search", "url2": "https://oominatoen.sakuragikai.net" }, "geometry": { "type": "Point", "coordinates": [ 141.1601111, 41.282796300000037 ] } },
{ "type": "Feature", "properties": { "内容": "ショートステイ季の恵【短期入所生活介護】青森県むつ市大畑町庚申堂２３番１", "url": "https://www.kaigokensaku.mhlw.go.jp/02/index.php?action_kouhyou_detail_004_kani=true&JigyosyoCd=0270800527-00&ServiceCd=210&Type=search", "url2": "http://sankeikai-aomori.com/" }, "geometry": { "type": "Point", "coordinates": [ 141.163477599999965, 41.4007732 ] } },
{ "type": "Feature", "properties": { "内容": "みちのく金谷ショートステイ【短期入所生活介護】青森県むつ市金谷２丁目20-2特別養護老人ホーム金谷みちのく荘", "url": "https://www.kaigokensaku.mhlw.go.jp/02/index.php?action_kouhyou_detail_004_kani=true&JigyosyoCd=0270800626-00&ServiceCd=210&Type=search", "url2": "http//www.michinokuso.jp" }, "geometry": { "type": "Point", "coordinates": [ 141.193355099999962, 41.2969011 ] } },
{ "type": "Feature", "properties": { "内容": "特別養護老人ホーム　いこいの里【短期入所生活介護】青森県むつ市脇野沢渡向７３番地１", "url": "https://www.kaigokensaku.mhlw.go.jp/02/index.php?action_kouhyou_detail_004_kani=true&JigyosyoCd=0270800725-00&ServiceCd=210&Type=search", "url2": "http://www.sakuragikai.or.jp" }, "geometry": { "type": "Point", "coordinates": [ 140.816609800000037, 41.1449638 ] } },
{ "type": "Feature", "properties": { "内容": "特別養護老人ホーム延寿園【短期入所生活介護】青森県むつ市大畑町大赤川29番地4", "url": "https://www.kaigokensaku.mhlw.go.jp/02/index.php?action_kouhyou_detail_004_kani=true&JigyosyoCd=0272600099-00&ServiceCd=210&Type=search", "url2": "http://sankeikai-aomori.com/" }, "geometry": { "type": "Point", "coordinates": [ 141.115581, 41.4534808 ] } },
{ "type": "Feature", "properties": { "内容": "特別養護老人ホームせせらぎ荘【短期入所生活介護】青森県むつ市川内町獅子畑128番地4", "url": "https://www.kaigokensaku.mhlw.go.jp/02/index.php?action_kouhyou_detail_004_kani=true&JigyosyoCd=0272600115-00&ServiceCd=210&Type=search", "url2": "www.yachiyo-kai.com" }, "geometry": { "type": "Point", "coordinates": [ 140.98550350000005, 41.2569248 ] } },
{ "type": "Feature", "properties": { "内容": "特別養護老人ホーム　恵光園【短期入所生活介護】青森県むつ市大字奥内字竹立9番地", "url": "https://www.kaigokensaku.mhlw.go.jp/02/index.php?action_kouhyou_detail_004_kani=true&JigyosyoCd=0270800048-00&ServiceCd=210&Type=search", "url2": "http://keikouen-mutsu.com/" }, "geometry": { "type": "Point", "coordinates": [ 141.2760012, 41.1995134 ] } },
{ "type": "Feature", "properties": { "内容": "特別養護老人ホーム桑寿園【短期入所生活介護】青森県つがる市柏桑野木田若宮２５５番地１", "url": "https://www.kaigokensaku.mhlw.go.jp/02/index.php?action_kouhyou_detail_004_kani=true&JigyosyoCd=0272100421-00&ServiceCd=210&Type=search", "url2": "https://www.hakuyuukai.com" }, "geometry": { "type": "Point", "coordinates": [ 140.404491300000018, 40.7795405 ] } },
{ "type": "Feature", "properties": { "内容": "明光園短期入所生活介護事業所【短期入所生活介護】青森県つがる市森田町大館勝山142番地3", "url": "https://www.kaigokensaku.mhlw.go.jp/02/index.php?action_kouhyou_detail_004_kani=true&JigyosyoCd=0272100447-00&ServiceCd=210&Type=search", "url2": "http://www.inkoukai.com" }, "geometry": { "type": "Point", "coordinates": [ 140.292579100000012, 40.7788782 ] } },
{ "type": "Feature", "properties": { "内容": "ショートステイゆうあいの里【短期入所生活介護】青森県つがる市豊富町屏風山1番地377", "url": "https://www.kaigokensaku.mhlw.go.jp/02/index.php?action_kouhyou_detail_004_kani=true&JigyosyoCd=0272100660-00&ServiceCd=210&Type=search", "url2": null }, "geometry": { "type": "Point", "coordinates": [ 140.362479200000053, 40.9677537 ] } },
{ "type": "Feature", "properties": { "内容": "つがる市社会福祉協議会　ショートステイ安住の里【短期入所生活介護】青森県つがる市稲垣町豊川宮川143番地1", "url": "https://www.kaigokensaku.mhlw.go.jp/02/index.php?action_kouhyou_detail_004_kani=true&JigyosyoCd=0272100728-00&ServiceCd=210&Type=search", "url2": null }, "geometry": { "type": "Point", "coordinates": [ 140.397782799999959, 40.8797536 ] } },
{ "type": "Feature", "properties": { "内容": "柏風園短期入所生活介護事業所【短期入所生活介護】青森県つがる市木造筒木坂鳥谷沢１８－９", "url": "https://www.kaigokensaku.mhlw.go.jp/02/index.php?action_kouhyou_detail_004_kani=true&JigyosyoCd=0272100397-00&ServiceCd=210&Type=search", "url2": "https://hakufuen.com/" }, "geometry": { "type": "Point", "coordinates": [ 140.346330399999943, 40.9141031 ] } },
{ "type": "Feature", "properties": { "内容": "ショートステイ晏慈【短期入所生活介護】青森県平川市町居山元３０２番地３", "url": "https://www.kaigokensaku.mhlw.go.jp/02/index.php?action_kouhyou_detail_004_kani=true&JigyosyoCd=0271000267-00&ServiceCd=210&Type=search", "url2": "https://tsugaru-yawaragi.jp/" }, "geometry": { "type": "Point", "coordinates": [ 140.589522100000011, 40.5877808 ] } },
{ "type": "Feature", "properties": { "内容": "特別養護老人ホーム　さわやか園【短期入所生活介護】青森県平川市日沼樋田８５", "url": "https://www.kaigokensaku.mhlw.go.jp/02/index.php?action_kouhyou_detail_004_kani=true&JigyosyoCd=0272300542-00&ServiceCd=210&Type=search", "url2": "http://www.sawayakaen.net/" }, "geometry": { "type": "Point", "coordinates": [ 140.516564099999982, 40.6203461 ] } },
{ "type": "Feature", "properties": { "内容": "グレイスハウス平川【短期入所生活介護】青森県平川市町居西田112番地2", "url": "https://www.kaigokensaku.mhlw.go.jp/02/index.php?action_kouhyou_detail_004_kani=true&JigyosyoCd=0271000119-00&ServiceCd=210&Type=search", "url2": "http://www.kaigo-support.co.jp/" }, "geometry": { "type": "Point", "coordinates": [ 140.579270689549276, 40.586562907136674 ] } },
{ "type": "Feature", "properties": { "内容": "特別養護老人ホーム緑青園【短期入所生活介護】青森県平川市沖館和田84番地", "url": "https://www.kaigokensaku.mhlw.go.jp/02/index.php?action_kouhyou_detail_004_kani=true&JigyosyoCd=0272300443-00&ServiceCd=210&Type=search", "url2": "http://ryokufu.or.jp" }, "geometry": { "type": "Point", "coordinates": [ 140.57090310000001, 40.5748561 ] } },
{ "type": "Feature", "properties": { "内容": "特別養護老人ホーム夜越山倶楽部【短期入所生活介護】青森県東津軽郡平内町浜子字堀替７７番地３", "url": "https://www.kaigokensaku.mhlw.go.jp/02/index.php?action_kouhyou_detail_004_kani=true&JigyosyoCd=0272000431-00&ServiceCd=210&Type=search", "url2": "https://koujinkai-seifu.com" }, "geometry": { "type": "Point", "coordinates": [ 140.991033600000037, 40.92646 ] } },
{ "type": "Feature", "properties": { "内容": "特別養護老人ホーム　清風荘【短期入所生活介護】青森県東津軽郡平内町大字小湊字薬師堂６３番地２３", "url": "https://www.kaigokensaku.mhlw.go.jp/02/index.php?action_kouhyou_detail_004_kani=true&JigyosyoCd=0272000100-00&ServiceCd=210&Type=search", "url2": "http://www.s-care.jp/" }, "geometry": { "type": "Point", "coordinates": [ 140.953065, 40.9101572 ] } },
{ "type": "Feature", "properties": { "内容": "特別養護老人ホームなかやま荘【短期入所生活介護】青森県東津軽郡今別町大字今別字西田２４８番地２０５", "url": "https://www.kaigokensaku.mhlw.go.jp/02/index.php?action_kouhyou_detail_004_kani=true&JigyosyoCd=0272000449-00&ServiceCd=210&Type=search", "url2": "http://www.soujuen.com/" }, "geometry": { "type": "Point", "coordinates": [ 140.4791381, 41.1780853 ] } },
{ "type": "Feature", "properties": { "内容": "よもぎケアセンター【短期入所生活介護】青森県東津軽郡蓬田村大字郷沢字浜田３９７番地", "url": "https://www.kaigokensaku.mhlw.go.jp/02/index.php?action_kouhyou_detail_004_kani=true&JigyosyoCd=0272000225-00&ServiceCd=210&Type=search", "url2": "http://www.watona-ru.com/houseien" }, "geometry": { "type": "Point", "coordinates": [ 140.647715799999986, 40.9900592 ] } },
{ "type": "Feature", "properties": { "内容": "特別養護老人ホームあじさい【短期入所生活介護】青森県東津軽郡外ヶ浜町字三厩新町８番地", "url": "https://www.kaigokensaku.mhlw.go.jp/02/index.php?action_kouhyou_detail_004_kani=true&JigyosyoCd=0272000092-00&ServiceCd=210&Type=search", "url2": "http://www.ajisaikai.or.jp/" }, "geometry": { "type": "Point", "coordinates": [ 140.43474649999996, 41.195044 ] } },
{ "type": "Feature", "properties": { "内容": "ショートステイ　はまゆう【短期入所生活介護】青森県東津軽郡外ヶ浜町字蟹田川原添２番地３", "url": "https://www.kaigokensaku.mhlw.go.jp/02/index.php?action_kouhyou_detail_004_kani=true&JigyosyoCd=0272000480-00&ServiceCd=210&Type=search", "url2": "http://www.watona-ru.com/" }, "geometry": { "type": "Point", "coordinates": [ 140.636870199999947, 41.0444954 ] } },
{ "type": "Feature", "properties": { "内容": "特別養護老人ホームあんじんの郷ショートステイ【短期入所生活介護】青森県東津軽郡外ヶ浜町字平舘野田鳴川２２２－３", "url": "https://www.kaigokensaku.mhlw.go.jp/02/index.php?action_kouhyou_detail_004_kani=true&JigyosyoCd=0272000308-00&ServiceCd=210&Type=search", "url2": null }, "geometry": { "type": "Point", "coordinates": [ 140.631569300000024, 41.1415984 ] } },
{ "type": "Feature", "properties": { "内容": "ショートステイ桜良【短期入所生活介護】青森県東津軽郡外ヶ浜町字上蟹田６２番地２３特別養護老人ホーム桜良", "url": "https://www.kaigokensaku.mhlw.go.jp/02/index.php?action_kouhyou_detail_004_kani=true&JigyosyoCd=0272000514-00&ServiceCd=210&Type=search", "url2": "http://www.fuku-sakura.or.jp" }, "geometry": { "type": "Point", "coordinates": [ 140.640919972461035, 41.039327750080872 ] } },
{ "type": "Feature", "properties": { "内容": "ショートステイ　カノア【短期入所生活介護】青森県西津軽郡鯵ヶ沢町大字北浮田町字今須82-3", "url": "https://www.kaigokensaku.mhlw.go.jp/02/index.php?action_kouhyou_detail_004_kani=true&JigyosyoCd=0272100272-00&ServiceCd=210&Type=search", "url2": "http://www.aomoritsukushikai.com/" }, "geometry": { "type": "Point", "coordinates": [ 140.254377427122563, 40.789656155452562 ] } },
{ "type": "Feature", "properties": { "内容": "特別養護老人ホーム　ひばり野【短期入所生活介護】青森県西津軽郡鰺ヶ沢町大字建石町字雲雀野１２４－１８", "url": "https://www.kaigokensaku.mhlw.go.jp/02/index.php?action_kouhyou_detail_004_kani=true&JigyosyoCd=0272101130-00&ServiceCd=210&Type=search", "url2": null }, "geometry": { "type": "Point", "coordinates": [ 140.301106788734927, 40.769674032119774 ] } },
{ "type": "Feature", "properties": { "内容": "サンタ園ショートステイ【短期入所生活介護】青森県西津軽郡深浦町大字岩崎字松原57番地2特別養護老人ホームサンタ園", "url": "https://www.kaigokensaku.mhlw.go.jp/02/index.php?action_kouhyou_detail_004_kani=true&JigyosyoCd=0272100652-00&ServiceCd=210&Type=search", "url2": null }, "geometry": { "type": "Point", "coordinates": [ 139.925263699999959, 40.5828716 ] } },
{ "type": "Feature", "properties": { "内容": "はまなす荘短期入所生活介護事業所【短期入所生活介護】青森県西津軽郡深浦町大字驫木字津山118番地44", "url": "https://www.kaigokensaku.mhlw.go.jp/02/index.php?action_kouhyou_detail_004_kani=true&JigyosyoCd=0272100694-00&ServiceCd=210&Type=search", "url2": "ＵＲＬ：http://hamanasuso.com" }, "geometry": { "type": "Point", "coordinates": [ 139.981637200000023, 40.7024267 ] } },
{ "type": "Feature", "properties": { "内容": "特別養護老人ホーム　桃の木【短期入所生活介護】青森県西津軽郡深浦町大字深浦字吾妻沢146番地65", "url": "https://www.kaigokensaku.mhlw.go.jp/02/index.php?action_kouhyou_detail_004_kani=true&JigyosyoCd=0272101098-00&ServiceCd=210&Type=search", "url2": null }, "geometry": { "type": "Point", "coordinates": [ 139.940856899999972, 40.656822 ] } },
{ "type": "Feature", "properties": { "内容": "短期入所生活介護　華のさと【短期入所生活介護】青森県西津軽郡深浦町大字広戸字家野上148－2", "url": "https://www.kaigokensaku.mhlw.go.jp/02/index.php?action_kouhyou_detail_004_kani=true&JigyosyoCd=0272101148-00&ServiceCd=210&Type=search", "url2": "http:fc37821220180411.web2.blks.jp/" }, "geometry": { "type": "Point", "coordinates": [ 139.948956764418057, 40.655038957554318 ] } },
{ "type": "Feature", "properties": { "内容": "特別養護老人ホーム白神荘【短期入所生活介護】青森県中津軽郡西目屋村大字田代字稲元143番地2号", "url": "https://www.kaigokensaku.mhlw.go.jp/02/index.php?action_kouhyou_detail_004_kani=true&JigyosyoCd=0272200122-00&ServiceCd=210&Type=search", "url2": "http://sanwakai.info/" }, "geometry": { "type": "Point", "coordinates": [ 140.2947044, 40.5776334 ] } },
{ "type": "Feature", "properties": { "内容": "特別養護老人ホーム　さんふじ【短期入所生活介護】青森県南津軽郡藤崎町大字柏木堰字南亀田１番地１", "url": "https://www.kaigokensaku.mhlw.go.jp/02/index.php?action_kouhyou_detail_004_kani=true&JigyosyoCd=0272300203-00&ServiceCd=210&Type=search", "url2": null }, "geometry": { "type": "Point", "coordinates": [ 140.5130196, 40.6903766 ] } },
{ "type": "Feature", "properties": { "内容": "特別養護老人ホーム　大鰐ホーム【短期入所生活介護】青森県南津軽郡大鰐町大字大鰐字萢頭９－２", "url": "https://www.kaigokensaku.mhlw.go.jp/02/index.php?action_kouhyou_detail_004_kani=true&JigyosyoCd=0272300153-00&ServiceCd=210&Type=search", "url2": "http://www.owani.com/" }, "geometry": { "type": "Point", "coordinates": [ 140.5771466, 40.5123414 ] } },
{ "type": "Feature", "properties": { "内容": "特別養護老人ホームあじゃら【短期入所生活介護】青森県南津軽郡大鰐町大字虹貝字篠塚33-7", "url": "https://www.kaigokensaku.mhlw.go.jp/02/index.php?action_kouhyou_detail_004_kani=true&JigyosyoCd=0272301169-00&ServiceCd=210&Type=search", "url2": null }, "geometry": { "type": "Point", "coordinates": [ 140.562197400000088, 40.517668100000016 ] } },
{ "type": "Feature", "properties": { "内容": "ショートステイ鶴住【短期入所生活介護】青森県北津軽郡板柳町大字野中字鶴住102-2", "url": "https://www.kaigokensaku.mhlw.go.jp/02/index.php?action_kouhyou_detail_004_kani=true&JigyosyoCd=0272400300-00&ServiceCd=210&Type=search", "url2": "http://turuzumikai.jp" }, "geometry": { "type": "Point", "coordinates": [ 140.450818499999968, 40.7220886 ] } },
{ "type": "Feature", "properties": { "内容": "特別養護老人ホーム鶴松園【短期入所生活介護】青森県北津軽郡鶴田町大字廻堰上野尻146番地１", "url": "https://www.kaigokensaku.mhlw.go.jp/02/index.php?action_kouhyou_detail_004_kani=true&JigyosyoCd=0272400169-00&ServiceCd=210&Type=search", "url2": "http://kakusyou.sakura.ne.jp/" }, "geometry": { "type": "Point", "coordinates": [ 140.398163674621628, 40.765659308102002 ] } },
{ "type": "Feature", "properties": { "内容": "短期入所生活介護事業所　「鶴のまどい」【短期入所生活介護】青森県北津軽郡鶴田町大字鶴田字鷹ノ尾３４", "url": "https://www.kaigokensaku.mhlw.go.jp/02/index.php?action_kouhyou_detail_004_kani=true&JigyosyoCd=0272401100-00&ServiceCd=210&Type=search", "url2": "http://tsuruta-syakyo.or.jp/" }, "geometry": { "type": "Point", "coordinates": [ 140.428502547221342, 40.761579564797145 ] } },
{ "type": "Feature", "properties": { "内容": "特別養護老人ホーム　きりん館【短期入所生活介護】青森県北津軽郡中泊町大字田茂木字若宮１９３３", "url": "https://www.kaigokensaku.mhlw.go.jp/02/index.php?action_kouhyou_detail_004_kani=true&JigyosyoCd=0272401175-00&ServiceCd=210&Type=search", "url2": "http://uchigata.or.jp/" }, "geometry": { "type": "Point", "coordinates": [ 140.409491006745952, 41.003090329063113 ] } },
{ "type": "Feature", "properties": { "内容": "特別養護老人ホーム静和園【短期入所生活介護】青森県北津軽郡中泊町大字中里字宝森1-2", "url": "https://www.kaigokensaku.mhlw.go.jp/02/index.php?action_kouhyou_detail_004_kani=true&JigyosyoCd=0272401167-00&ServiceCd=210&Type=search", "url2": "seiwaen01@okutsugarukai.sub.jp" }, "geometry": { "type": "Point", "coordinates": [ 140.4319726, 40.9677494 ] } },
{ "type": "Feature", "properties": { "内容": "ショートステイのへじ【短期入所生活介護】青森県上北郡野辺地町字餅粟川原3-2", "url": "https://www.kaigokensaku.mhlw.go.jp/02/index.php?action_kouhyou_detail_004_kani=true&JigyosyoCd=0272500992-00&ServiceCd=210&Type=search", "url2": "http://www.fukushinosato.com" }, "geometry": { "type": "Point", "coordinates": [ 141.128218800000013, 40.8533453 ] } },
{ "type": "Feature", "properties": { "内容": "ショートステイ野辺地ホーム【短期入所生活介護】青森県上北郡野辺地町字枇杷野51番地26特別養護老人ホーム野辺地ホーム", "url": "https://www.kaigokensaku.mhlw.go.jp/02/index.php?action_kouhyou_detail_004_kani=true&JigyosyoCd=0272502253-00&ServiceCd=210&Type=search", "url2": "http://mirokuen.com/nohejihome/" }, "geometry": { "type": "Point", "coordinates": [ 141.100811836850056, 40.855492210333502 ] } },
{ "type": "Feature", "properties": { "内容": "天寿園ショートステイ【短期入所生活介護】青森県上北郡七戸町字舟場向川久保308番地", "url": "https://www.kaigokensaku.mhlw.go.jp/02/index.php?action_kouhyou_detail_004_kani=true&JigyosyoCd=0272500349-00&ServiceCd=210&Type=search", "url2": "https://tenjuen.net/" }, "geometry": { "type": "Point", "coordinates": [ 141.17940729999998, 40.7579735 ] } },
{ "type": "Feature", "properties": { "内容": "こだまショートステイ【短期入所生活介護】青森県上北郡七戸町字道ノ上５４番地７２", "url": "https://www.kaigokensaku.mhlw.go.jp/02/index.php?action_kouhyou_detail_004_kani=true&JigyosyoCd=0272501693-00&ServiceCd=210&Type=search", "url2": "aap51190@hkg.odn.ne.jp" }, "geometry": { "type": "Point", "coordinates": [ 141.15499079999995, 40.7453416 ] } },
{ "type": "Feature", "properties": { "内容": "天寿園ショートステイみちのかみ【短期入所生活介護】青森県上北郡七戸町字道ノ上５２番地４特別養護老人ホーム天寿園みちのかみ", "url": "https://www.kaigokensaku.mhlw.go.jp/02/index.php?action_kouhyou_detail_004_kani=true&JigyosyoCd=0272502303-00&ServiceCd=210&Type=search", "url2": "www.tenjuen.net/" }, "geometry": { "type": "Point", "coordinates": [ 141.1483426, 40.7504841 ] } },
{ "type": "Feature", "properties": { "内容": "社会福祉法人美土里会　特別養護老人ホーム美土里荘短期入所生活介護事業【短期入所生活介護】青森県上北郡七戸町字寒水７０－１７", "url": "https://www.kaigokensaku.mhlw.go.jp/02/index.php?action_kouhyou_detail_004_kani=true&JigyosyoCd=0272500398-00&ServiceCd=210&Type=search", "url2": "http://www.midorikai-gr.or.jp/index.php/business/midorisou" }, "geometry": { "type": "Point", "coordinates": [ 141.174846099999968, 40.7169923 ] } },
{ "type": "Feature", "properties": { "内容": "短期入所生活介護　なのはな苑【短期入所生活介護】青森県上北郡横浜町字三保野５４番地", "url": "https://www.kaigokensaku.mhlw.go.jp/02/index.php?action_kouhyou_detail_004_kani=true&JigyosyoCd=0272500430-00&ServiceCd=210&Type=search", "url2": "http://kiboukai.com/" }, "geometry": { "type": "Point", "coordinates": [ 141.2522348, 41.081033 ] } },
{ "type": "Feature", "properties": { "内容": "コレクティブハウス　彩香園アルテリーベ【短期入所生活介護】青森県上北郡東北町大字大浦字境ノ沢132", "url": "https://www.kaigokensaku.mhlw.go.jp/02/index.php?action_kouhyou_detail_004_kani=true&JigyosyoCd=0272502428-00&ServiceCd=210&Type=search", "url2": "https://akibakai.com" }, "geometry": { "type": "Point", "coordinates": [ 141.233652685180687, 40.71267779265856 ] } },
{ "type": "Feature", "properties": { "内容": "特別養護老人ホーム　彩香園アルテリーベ【短期入所生活介護】青森県上北郡東北町大字大浦字境ノ沢132", "url": "https://www.kaigokensaku.mhlw.go.jp/02/index.php?action_kouhyou_detail_004_kani=true&JigyosyoCd=0272500356-00&ServiceCd=210&Type=search", "url2": "https://akibakai.com" }, "geometry": { "type": "Point", "coordinates": [ 141.235248800000022, 40.7124687 ] } },
{ "type": "Feature", "properties": { "内容": "松風荘短期入所生活介護事業所【短期入所生活介護】青森県上北郡東北町字乙供１２３番地", "url": "https://www.kaigokensaku.mhlw.go.jp/02/index.php?action_kouhyou_detail_004_kani=true&JigyosyoCd=0272501958-00&ServiceCd=210&Type=search", "url2": "http://keitokukai-1992.com/shoufuso.html" }, "geometry": { "type": "Point", "coordinates": [ 141.194094594967623, 40.766519505672086 ] } },
{ "type": "Feature", "properties": { "内容": "地域密着型特別養護老人ホーム　森の郷【短期入所生活介護】青森県上北郡東北町大字大浦字井尻298-22", "url": "https://www.kaigokensaku.mhlw.go.jp/02/index.php?action_kouhyou_detail_004_kani=true&JigyosyoCd=0272502287-00&ServiceCd=210&Type=search", "url2": "http:/sinseikai.Jp/" }, "geometry": { "type": "Point", "coordinates": [ 141.258677299999988, 40.7032725 ] } },
{ "type": "Feature", "properties": { "内容": "特別養護老人ホ－ム　ぼんてん荘【短期入所生活介護】青森県上北郡六ヶ所村大字出戸字棚沢１３０番１６", "url": "https://www.kaigokensaku.mhlw.go.jp/02/index.php?action_kouhyou_detail_004_kani=true&JigyosyoCd=0272500612-00&ServiceCd=210&Type=search", "url2": "http://www.citydo.com/sp/0175-72-3886" }, "geometry": { "type": "Point", "coordinates": [ 141.369001499999968, 41.0061387 ] } },
{ "type": "Feature", "properties": { "内容": "ショートステイ　阿光坊の郷【短期入所生活介護】阿光坊105-110", "url": "https://www.kaigokensaku.mhlw.go.jp/02/index.php?action_kouhyou_detail_004_kani=true&JigyosyoCd=0272502436-00&ServiceCd=210&Type=search", "url2": "http://www.momoishiso.or.jp" }, "geometry": { "type": "Point", "coordinates": [ 141.371194300000013, 40.6074029 ] } },
{ "type": "Feature", "properties": { "内容": "ショートステイ百石荘【短期入所生活介護】青森県上北郡おいらせ町沼端３７０番地１", "url": "https://www.kaigokensaku.mhlw.go.jp/02/index.php?action_kouhyou_detail_004_kani=true&JigyosyoCd=0272500273-00&ServiceCd=210&Type=search", "url2": "http://www.momoishiso.or.jp" }, "geometry": { "type": "Point", "coordinates": [ 141.4460398, 40.6121647 ] } },
{ "type": "Feature", "properties": { "内容": "特別養護老人ホーム木崎野荘【短期入所生活介護】青森県上北郡おいらせ町向山東二丁目2-1263", "url": "https://www.kaigokensaku.mhlw.go.jp/02/index.php?action_kouhyou_detail_004_kani=true&JigyosyoCd=0272500539-00&ServiceCd=210&Type=search", "url2": "http://kizakinosou.jp/" }, "geometry": { "type": "Point", "coordinates": [ 141.392063, 40.6308337 ] } },
{ "type": "Feature", "properties": { "内容": "医療法人正恵会ショートステイいしだ【短期入所生活介護】青森県上北郡おいらせ町上前田２１－１石田温泉病院", "url": "https://www.kaigokensaku.mhlw.go.jp/02/index.php?action_kouhyou_detail_004_kani=true&JigyosyoCd=0272501339-00&ServiceCd=210&Type=search", "url2": null }, "geometry": { "type": "Point", "coordinates": [ 141.4312691, 40.6023484 ] } },
{ "type": "Feature", "properties": { "内容": "ショートステイ　阿光坊の郷【短期入所生活介護】阿光坊105-110", "url": "https://www.kaigokensaku.mhlw.go.jp/02/index.php?action_kouhyou_detail_004_kani=true&JigyosyoCd=0272501834-00&ServiceCd=210&Type=search", "url2": "http://www.momoishiso.or.jp" }, "geometry": { "type": "Point", "coordinates": [ 141.3742456, 40.6073777 ] } },
{ "type": "Feature", "properties": { "内容": "特別養護老人ホームくろまつ【短期入所生活介護】青森県下北郡大間町大字大間字大間平２０-７８", "url": "https://www.kaigokensaku.mhlw.go.jp/02/index.php?action_kouhyou_detail_004_kani=true&JigyosyoCd=0272600255-00&ServiceCd=210&Type=search", "url2": null }, "geometry": { "type": "Point", "coordinates": [ 140.92738410000004, 41.5263569 ] } },
{ "type": "Feature", "properties": { "内容": "ショートステイしおさい岬【短期入所生活介護】青森県下北郡大間町大字大間字大間平38番地511", "url": "https://www.kaigokensaku.mhlw.go.jp/02/index.php?action_kouhyou_detail_004_kani=true&JigyosyoCd=0272600578-00&ServiceCd=210&Type=search", "url2": "http://mirokuen.com/" }, "geometry": { "type": "Point", "coordinates": [ 140.916337399999946, 41.5378202 ] } },
{ "type": "Feature", "properties": { "内容": "社会福祉法人　吉幸会　特別養護老人ホーム　能舞の里【短期入所生活介護】青森県下北郡東通村大字砂子又字桑原山１番地１０７", "url": "https://www.kaigokensaku.mhlw.go.jp/02/index.php?action_kouhyou_detail_004_kani=true&JigyosyoCd=0272600511-00&ServiceCd=210&Type=search", "url2": "http://mirokuen.com/" }, "geometry": { "type": "Point", "coordinates": [ 141.3332911, 41.2839811 ] } },
{ "type": "Feature", "properties": { "内容": "ショートステイいちいの森【短期入所生活介護】青森県下北郡東通村大字砂子又字桑原山1番地106特別養護老人ホームいちいの森", "url": "https://www.kaigokensaku.mhlw.go.jp/02/index.php?action_kouhyou_detail_004_kani=true&JigyosyoCd=0272600594-00&ServiceCd=210&Type=search", "url2": "http://mirokuen.com" }, "geometry": { "type": "Point", "coordinates": [ 141.347805099999988, 41.2641892 ] } },
{ "type": "Feature", "properties": { "内容": "ショートステイ　ゆうなぎの里【短期入所生活介護】下北郡佐井村原田55-2", "url": "https://www.kaigokensaku.mhlw.go.jp/02/index.php?action_kouhyou_detail_004_kani=true&JigyosyoCd=0272600461-00&ServiceCd=210&Type=search", "url2": "http://mirokuen.com/yuunaginosato/" }, "geometry": { "type": "Point", "coordinates": [ 140.880836400000021, 41.4552205 ] } },
{ "type": "Feature", "properties": { "内容": "特別養護老人ホーム鶴亀荘【短期入所生活介護】青森県三戸郡三戸町大字斗内字和田60-1", "url": "https://www.kaigokensaku.mhlw.go.jp/02/index.php?action_kouhyou_detail_004_kani=true&JigyosyoCd=0272700337-00&ServiceCd=210&Type=search", "url2": "http://www.keisinkai.com/" }, "geometry": { "type": "Point", "coordinates": [ 141.2204878, 40.3625767 ] } },
{ "type": "Feature", "properties": { "内容": "ショートステイ桜【短期入所生活介護】青森県三戸郡三戸町大字川守田字大明地１８－４", "url": "https://www.kaigokensaku.mhlw.go.jp/02/index.php?action_kouhyou_detail_004_kani=true&JigyosyoCd=0272701392-00&ServiceCd=210&Type=search", "url2": null }, "geometry": { "type": "Point", "coordinates": [ 141.2603782, 40.3838503 ] } },
{ "type": "Feature", "properties": { "内容": "さくら荘短期入所生活介護【短期入所生活介護】青森県三戸郡五戸町大字倉石中市字新山平64-1", "url": "https://www.kaigokensaku.mhlw.go.jp/02/index.php?action_kouhyou_detail_004_kani=true&JigyosyoCd=0272700386-00&ServiceCd=210&Type=search", "url2": "https://www.sakurasou.or.jp/" }, "geometry": { "type": "Point", "coordinates": [ 141.2611125, 40.5111757 ] } },
{ "type": "Feature", "properties": { "内容": "ハピネス五戸【短期入所生活介護】青森県三戸郡五戸町字姥堤34番1", "url": "https://www.kaigokensaku.mhlw.go.jp/02/index.php?action_kouhyou_detail_004_kani=true&JigyosyoCd=0272700428-00&ServiceCd=210&Type=search", "url2": "http://family-wf.jp/happiness_gonohe/" }, "geometry": { "type": "Point", "coordinates": [ 141.2945638, 40.5314548 ] } },
{ "type": "Feature", "properties": { "内容": "特別養護老人ホーム素心苑【短期入所生活介護】青森県三戸郡五戸町字古舘向10番地1", "url": "https://www.kaigokensaku.mhlw.go.jp/02/index.php?action_kouhyou_detail_004_kani=true&JigyosyoCd=0272701855-00&ServiceCd=210&Type=search", "url2": "http://soshin-en.com/" }, "geometry": { "type": "Point", "coordinates": [ 141.310234600000058, 40.5299805 ] } },
{ "type": "Feature", "properties": { "内容": "ショートステイ　ひだまり【短期入所生活介護】青森県三戸郡五戸町字苗代沢3番660", "url": "https://www.kaigokensaku.mhlw.go.jp/02/index.php?action_kouhyou_detail_004_kani=true&JigyosyoCd=0272701772-00&ServiceCd=210&Type=search", "url2": "http://mirokuen.com/" }, "geometry": { "type": "Point", "coordinates": [ 141.329704316532911, 40.514282644449445 ] } },
{ "type": "Feature", "properties": { "内容": "ショートステイみろく苑【短期入所生活介護】青森県三戸郡田子町大字田子字七日市上ノ平60番地", "url": "https://www.kaigokensaku.mhlw.go.jp/02/index.php?action_kouhyou_detail_004_kani=true&JigyosyoCd=0272700824-00&ServiceCd=210&Type=search", "url2": "http://mirokuen.com/" }, "geometry": { "type": "Point", "coordinates": [ 141.151783499999965, 40.3351456 ] } },
{ "type": "Feature", "properties": { "内容": "特別養護老人ホーム　長老園【短期入所生活介護】青森県三戸郡南部町大字埖渡字東あかね５-１２５", "url": "https://www.kaigokensaku.mhlw.go.jp/02/index.php?action_kouhyou_detail_004_kani=true&JigyosyoCd=0272700543-00&ServiceCd=210&Type=search", "url2": "http://chorokai.or.jp/" }, "geometry": { "type": "Point", "coordinates": [ 141.388501600000041, 40.4582109 ] } },
{ "type": "Feature", "properties": { "内容": "短期入所生活介護　ハピネスながわ【短期入所生活介護】青森県三戸郡南部町大字下名久井字剣吉前川原1-1", "url": "https://www.kaigokensaku.mhlw.go.jp/02/index.php?action_kouhyou_detail_004_kani=true&JigyosyoCd=0272700782-00&ServiceCd=210&Type=search", "url2": "http//famiIy-wf.jp/happiness_nagawa" }, "geometry": { "type": "Point", "coordinates": [ 141.341844301991244, 40.44107124256395 ] } },
{ "type": "Feature", "properties": { "内容": "三老ショートステイ八幡のゆ【短期入所生活介護】三戸郡南部町大字小向字八幡19-1", "url": "https://www.kaigokensaku.mhlw.go.jp/02/index.php?action_kouhyou_detail_004_kani=true&JigyosyoCd=0272701715-00&ServiceCd=210&Type=search", "url2": "https://sanrou-hatiman.net/" }, "geometry": { "type": "Point", "coordinates": [ 141.269745100000023, 40.408317 ] } },
{ "type": "Feature", "properties": { "内容": "エスコートあかね【短期入所生活介護】青森県三戸郡南部町大字福田字あかね１２－１", "url": "https://www.kaigokensaku.mhlw.go.jp/02/index.php?action_kouhyou_detail_004_kani=true&JigyosyoCd=0272701913-00&ServiceCd=210&Type=search", "url2": "http://chorokai.or.jp/" }, "geometry": { "type": "Point", "coordinates": [ 141.381312592334012, 40.459038914184994 ] } },
{ "type": "Feature", "properties": { "内容": "特別養護老人ホーム三戸老人ホーム【短期入所生活介護】青森県三戸郡南部町大向字仙ノ木平31-1", "url": "https://www.kaigokensaku.mhlw.go.jp/02/index.php?action_kouhyou_detail_004_kani=true&JigyosyoCd=0272700584-00&ServiceCd=210&Type=search", "url2": "http://www.sanrou-hatiman.com" }, "geometry": { "type": "Point", "coordinates": [ 141.285318800000027, 40.3983327 ] } },
{ "type": "Feature", "properties": { "内容": "見心園居宅サービスセンター（ショート）【短期入所生活介護】青森県三戸郡階上町大字赤保内字道仏道添21-12", "url": "https://www.kaigokensaku.mhlw.go.jp/02/index.php?action_kouhyou_detail_004_kani=true&JigyosyoCd=0272700311-00&ServiceCd=210&Type=search", "url2": "https://www.kenshinen.jp" }, "geometry": { "type": "Point", "coordinates": [ 141.623057, 40.4463621 ] } }
]
}
