{
"type": "FeatureCollection",
"name": "geo_02_認知症対応型通所介護",
"crs": { "type": "name", "properties": { "name": "urn:ogc:def:crs:OGC:1.3:CRS84" } },
"features": [
{ "type": "Feature", "properties": { "内容": "共用型認知症対応型デイサービスえにしの家【認知症対応型通所介護】青森市浪岡大字浪岡字佐野１４－１", "url2": "https://www.kaigokensaku.mhlw.go.jp/02/index.php?action_kouhyou_detail_004_kani=true&JigyosyoCd=0290100130-00&ServiceCd=720&Type=search" }, "geometry": { "type": "Point", "coordinates": [ 140.600703399999929, 40.7212759 ] } },
{ "type": "Feature", "properties": { "内容": "元気町デイサービスセンター【認知症対応型通所介護】青森市大字羽白字沢田48番地2", "url2": "https://www.kaigokensaku.mhlw.go.jp/02/index.php?action_kouhyou_detail_004_kani=true&JigyosyoCd=0270101538-00&ServiceCd=720&Type=search" }, "geometry": { "type": "Point", "coordinates": [ 140.68992609999998, 40.8545413 ] } },
{ "type": "Feature", "properties": { "内容": "さいとうデイサービス【認知症対応型通所介護】青森県青森市青柳２丁目６番２３号", "url2": "https://www.kaigokensaku.mhlw.go.jp/02/index.php?action_kouhyou_detail_004_kani=true&JigyosyoCd=0290100155-00&ServiceCd=720&Type=search" }, "geometry": { "type": "Point", "coordinates": [ 140.757325, 40.8274496 ] } },
{ "type": "Feature", "properties": { "内容": "デイサービスセンター鷹匠町【認知症対応型通所介護】青森県弘前市鷹匠町16-1", "url2": "https://www.kaigokensaku.mhlw.go.jp/02/index.php?action_kouhyou_detail_004_kani=true&JigyosyoCd=0270200397-00&ServiceCd=720&Type=search" }, "geometry": { "type": "Point", "coordinates": [ 140.458075300000019, 40.6057794 ] } },
{ "type": "Feature", "properties": { "内容": "デイサービスセンターはるなの家【認知症対応型通所介護】青森県弘前市大字福村字新舘添５０番地２", "url2": "https://www.kaigokensaku.mhlw.go.jp/02/index.php?action_kouhyou_detail_004_kani=true&JigyosyoCd=0270200900-00&ServiceCd=720&Type=search" }, "geometry": { "type": "Point", "coordinates": [ 140.517336699999987, 40.6069116 ] } },
{ "type": "Feature", "properties": { "内容": "デイサービスセンター朝日温泉【認知症対応型通所介護】弘前市福田巻屋4-1", "url2": "https://www.kaigokensaku.mhlw.go.jp/02/index.php?action_kouhyou_detail_004_kani=true&JigyosyoCd=0270201957-00&ServiceCd=720&Type=search" }, "geometry": { "type": "Point", "coordinates": [ 140.511554700000033, 40.5941906 ] } },
{ "type": "Feature", "properties": { "内容": "通所介護事業　パインハウス岩木【認知症対応型通所介護】青森県弘前市大字賀田二丁目4番地2", "url2": "https://www.kaigokensaku.mhlw.go.jp/02/index.php?action_kouhyou_detail_004_kani=true&JigyosyoCd=0272200080-00&ServiceCd=720&Type=search" }, "geometry": { "type": "Point", "coordinates": [ 140.419132790190133, 40.615249332597166 ] } },
{ "type": "Feature", "properties": { "内容": "八戸医療生活協同組合　デイサービスセンターさるかどした【認知症対応型通所介護】青森県八戸市南類家1丁目13－7", "url2": "https://www.kaigokensaku.mhlw.go.jp/02/index.php?action_kouhyou_detail_004_kani=true&JigyosyoCd=0290300011-00&ServiceCd=720&Type=search" }, "geometry": { "type": "Point", "coordinates": [ 141.50387760000001, 40.5039407 ] } },
{ "type": "Feature", "properties": { "内容": "福寿草デイサービスセンター【認知症対応型通所介護】青森県八戸市大字妙字西平６番19", "url2": "https://www.kaigokensaku.mhlw.go.jp/02/index.php?action_kouhyou_detail_004_kani=true&JigyosyoCd=0270300478-00&ServiceCd=720&Type=search" }, "geometry": { "type": "Point", "coordinates": [ 141.5446906, 40.4887819 ] } },
{ "type": "Feature", "properties": { "内容": "介護老人保健施設　南山苑【認知症対応型通所介護】青森県八戸市大字田面木字赤坂24-1", "url2": "https://www.kaigokensaku.mhlw.go.jp/02/index.php?action_kouhyou_detail_004_kani=true&JigyosyoCd=0290300029-00&ServiceCd=720&Type=search" }, "geometry": { "type": "Point", "coordinates": [ 141.454729034294843, 40.500068519479832 ] } },
{ "type": "Feature", "properties": { "内容": "地域密着型通所介護きずな【認知症対応型通所介護】八戸市大字売市字観音下３番２", "url2": "https://www.kaigokensaku.mhlw.go.jp/02/index.php?action_kouhyou_detail_004_kani=true&JigyosyoCd=0290300052-00&ServiceCd=720&Type=search" }, "geometry": { "type": "Point", "coordinates": [ 141.486171099999979, 40.5147779 ] } },
{ "type": "Feature", "properties": { "内容": "石堂さくら通りしおん【認知症対応型通所介護】青森県八戸市石堂２丁目２９－７", "url2": "https://www.kaigokensaku.mhlw.go.jp/02/index.php?action_kouhyou_detail_004_kani=true&JigyosyoCd=0290300201-00&ServiceCd=720&Type=search" }, "geometry": { "type": "Point", "coordinates": [ 141.473027799999954, 40.5292396 ] } },
{ "type": "Feature", "properties": { "内容": "結び家【認知症対応型通所介護】青森県八戸市尻内町島田13-1結び家", "url2": "https://www.kaigokensaku.mhlw.go.jp/02/index.php?action_kouhyou_detail_004_kani=true&JigyosyoCd=0290300235-00&ServiceCd=720&Type=search" }, "geometry": { "type": "Point", "coordinates": [ 141.442462601049783, 40.510246253534795 ] } },
{ "type": "Feature", "properties": { "内容": "グループホーム南部山さきおりの家【認知症対応型通所介護】青森県八戸市河原木字平5-2", "url2": "https://www.kaigokensaku.mhlw.go.jp/02/index.php?action_kouhyou_detail_004_kani=true&JigyosyoCd=0290300391-00&ServiceCd=720&Type=search" }, "geometry": { "type": "Point", "coordinates": [ 141.4391135, 40.5343979 ] } },
{ "type": "Feature", "properties": { "内容": "共用デイ　グループホームかっこうの森ぬまだて【認知症対応型通所介護】青森県八戸市沼館１丁目１０－１３", "url2": "https://www.kaigokensaku.mhlw.go.jp/02/index.php?action_kouhyou_detail_004_kani=true&JigyosyoCd=0290300615-00&ServiceCd=720&Type=search" }, "geometry": { "type": "Point", "coordinates": [ 141.4942093, 40.525072800000011 ] } },
{ "type": "Feature", "properties": { "内容": "ここいいよ【認知症対応型通所介護】青森県八戸市石堂1丁目20-5", "url2": "https://www.kaigokensaku.mhlw.go.jp/02/index.php?action_kouhyou_detail_004_kani=true&JigyosyoCd=0290300623-00&ServiceCd=720&Type=search" }, "geometry": { "type": "Point", "coordinates": [ 141.4796178, 40.530559 ] } },
{ "type": "Feature", "properties": { "内容": "共用型デイサービスすみれ【認知症対応型通所介護】青森県八戸市江陽5丁目７－２４グループホーム舟見町", "url2": "https://www.kaigokensaku.mhlw.go.jp/02/index.php?action_kouhyou_detail_004_kani=true&JigyosyoCd=0290300375-00&ServiceCd=720&Type=search" }, "geometry": { "type": "Point", "coordinates": [ 141.508621, 40.52213 ] } },
{ "type": "Feature", "properties": { "内容": "デイサービスAKYまえだ希望【認知症対応型通所介護】青森県黒石市追子野木３丁目２１５番地１", "url2": "https://www.kaigokensaku.mhlw.go.jp/02/index.php?action_kouhyou_detail_004_kani=true&JigyosyoCd=0290400118-00&ServiceCd=720&Type=search" }, "geometry": { "type": "Point", "coordinates": [ 140.587634, 40.635079 ] } },
{ "type": "Feature", "properties": { "内容": "青山荘デイサービスセンター【認知症対応型通所介護】青森県五所川原市大字金山字盛山４２－８", "url2": "https://www.kaigokensaku.mhlw.go.jp/02/index.php?action_kouhyou_detail_004_kani=true&JigyosyoCd=0270500127-00&ServiceCd=720&Type=search" }, "geometry": { "type": "Point", "coordinates": [ 140.4992244, 40.8090506 ] } },
{ "type": "Feature", "properties": { "内容": "高齢者グループホーム憩いの家【認知症対応型通所介護】五所川原市字一ツ谷５５４番地１０", "url2": "https://www.kaigokensaku.mhlw.go.jp/02/index.php?action_kouhyou_detail_004_kani=true&JigyosyoCd=0270500341-00&ServiceCd=720&Type=search" }, "geometry": { "type": "Point", "coordinates": [ 140.455588600000027, 40.8095801 ] } },
{ "type": "Feature", "properties": { "内容": "デイサービスセンターみちのくの里【認知症対応型通所介護】青森県十和田市大字三本木字里ノ沢１番５６９号", "url2": "https://www.kaigokensaku.mhlw.go.jp/02/index.php?action_kouhyou_detail_004_kani=true&JigyosyoCd=0270600216-00&ServiceCd=720&Type=search" }, "geometry": { "type": "Point", "coordinates": [ 141.248247399999968, 40.6254002 ] } },
{ "type": "Feature", "properties": { "内容": "指定地域密着型サービス認知症対応型通所介護施設　ポプラの家【認知症対応型通所介護】青森県三沢市大字三沢字南山１１－２３", "url2": "https://www.kaigokensaku.mhlw.go.jp/02/index.php?action_kouhyou_detail_004_kani=true&JigyosyoCd=0290700111-00&ServiceCd=720&Type=search" }, "geometry": { "type": "Point", "coordinates": [ 141.396731899999963, 40.6831456 ] } },
{ "type": "Feature", "properties": { "内容": "みちのく金谷デイサービスセンターまるめろ【認知症対応型通所介護】青森県むつ市金谷二丁目20番1号", "url2": "https://www.kaigokensaku.mhlw.go.jp/02/index.php?action_kouhyou_detail_004_kani=true&JigyosyoCd=0290800051-00&ServiceCd=720&Type=search" }, "geometry": { "type": "Point", "coordinates": [ 141.1941524, 41.2958568 ] } },
{ "type": "Feature", "properties": { "内容": "グループホーム　よつば【認知症対応型通所介護】平舘根岸小川258-2", "url2": "https://www.kaigokensaku.mhlw.go.jp/02/index.php?action_kouhyou_detail_004_kani=true&JigyosyoCd=0292000049-00&ServiceCd=720&Type=search" }, "geometry": { "type": "Point", "coordinates": [ 140.631669, 41.1481895 ] } },
{ "type": "Feature", "properties": { "内容": "デイサービスセンター　はまゆう【認知症対応型通所介護】青森県東津軽郡外ヶ浜町字蟹田川原添２番地３", "url2": "https://www.kaigokensaku.mhlw.go.jp/02/index.php?action_kouhyou_detail_004_kani=true&JigyosyoCd=0292000064-00&ServiceCd=720&Type=search" }, "geometry": { "type": "Point", "coordinates": [ 140.636870199999947, 41.0444954 ] } },
{ "type": "Feature", "properties": { "内容": "テレサ苑【認知症対応型通所介護】青森県南津軽郡藤崎町大字林崎字宮本67番地1", "url2": "https://www.kaigokensaku.mhlw.go.jp/02/index.php?action_kouhyou_detail_004_kani=true&JigyosyoCd=0272300971-00&ServiceCd=720&Type=search" }, "geometry": { "type": "Point", "coordinates": [ 140.488739, 40.6706337 ] } },
{ "type": "Feature", "properties": { "内容": "認知症対応型通所介護　グループホームやすらぎの里【認知症対応型通所介護】青森県北津軽郡中泊町大字尾別字小谷２６番地１", "url2": "https://www.kaigokensaku.mhlw.go.jp/02/index.php?action_kouhyou_detail_004_kani=true&JigyosyoCd=0272400516-00&ServiceCd=720&Type=search" }, "geometry": { "type": "Point", "coordinates": [ 140.4315296, 40.9855506 ] } },
{ "type": "Feature", "properties": { "内容": "地域密着型通所介護にこにこ七百【認知症対応型通所介護】青森県上北郡六戸町大字犬落瀬字権現沢54番地455", "url2": "https://www.kaigokensaku.mhlw.go.jp/02/index.php?action_kouhyou_detail_004_kani=true&JigyosyoCd=0292500154-00&ServiceCd=720&Type=search" }, "geometry": { "type": "Point", "coordinates": [ 141.302885899999978, 40.6469497 ] } },
{ "type": "Feature", "properties": { "内容": "デイサービスセンター　リバティ中央【認知症対応型通所介護】青森県上北郡東北町上北北２丁目３３－３１５", "url2": "https://www.kaigokensaku.mhlw.go.jp/02/index.php?action_kouhyou_detail_004_kani=true&JigyosyoCd=0272500869-00&ServiceCd=720&Type=search" }, "geometry": { "type": "Point", "coordinates": [ 141.2544964, 40.7337119 ] } },
{ "type": "Feature", "properties": { "内容": "グループホームおおま荘【認知症対応型通所介護】青森県下北郡大間町大字大間字大間平38-519", "url2": "https://www.kaigokensaku.mhlw.go.jp/02/index.php?action_kouhyou_detail_004_kani=true&JigyosyoCd=0292600046-00&ServiceCd=720&Type=search" }, "geometry": { "type": "Point", "coordinates": [ 140.9163374, 41.5378202 ] } },
{ "type": "Feature", "properties": { "内容": "グループホーム　内山苑【認知症対応型通所介護】青森県下北郡大間町大字大間字大川目37-1", "url2": "https://www.kaigokensaku.mhlw.go.jp/02/index.php?action_kouhyou_detail_004_kani=true&JigyosyoCd=0272600404-00&ServiceCd=720&Type=search" }, "geometry": { "type": "Point", "coordinates": [ 140.916737600000033, 41.5242792 ] } },
{ "type": "Feature", "properties": { "内容": "認知症対応型デイサービスセンターあいのて【認知症対応型通所介護】青森県三戸郡南部町大字剣吉字中河原１番地２６", "url2": "https://www.kaigokensaku.mhlw.go.jp/02/index.php?action_kouhyou_detail_004_kani=true&JigyosyoCd=0292700119-00&ServiceCd=720&Type=search" }, "geometry": { "type": "Point", "coordinates": [ 141.339667449772293, 40.441562624033935 ] } },
{ "type": "Feature", "properties": { "内容": "見心園居宅サービスセンター（デイサービス）【認知症対応型通所介護】青森県三戸郡階上町大字赤保内字道仏道添21-12", "url2": "https://www.kaigokensaku.mhlw.go.jp/02/index.php?action_kouhyou_detail_004_kani=true&JigyosyoCd=0272700311-00&ServiceCd=720&Type=search" }, "geometry": { "type": "Point", "coordinates": [ 141.623057, 40.4463621 ] } }
]
}
