{
"type": "FeatureCollection",
"name": "geo_02_看護小規模多機能型居宅介護（複合型サービス）",
"crs": { "type": "name", "properties": { "name": "urn:ogc:def:crs:OGC:1.3:CRS84" } },
"features": [
{ "type": "Feature", "properties": { "内容": "看護小規模多機能型居宅介護事業所　ひまわり【看護小規模多機能型居宅介護（複合型サービス）】青森市問屋町1-15-10看護小規模多機能型居宅介護事業所ひまわり", "url2": "https://www.kaigokensaku.mhlw.go.jp/02/index.php?action_kouhyou_detail_004_kani=true&JigyosyoCd=0290100262-00&ServiceCd=&Type=search" }, "geometry": { "type": "Point", "coordinates": [ 140.75753540727078, 40.790920145457385 ] } },
{ "type": "Feature", "properties": { "内容": "社会福祉法人敬仁会　看護小規模多機能型居宅介護事業所まごころ【看護小規模多機能型居宅介護（複合型サービス）】青森県青森市大字久栗坂字山辺89-10", "url2": "https://www.kaigokensaku.mhlw.go.jp/02/index.php?action_kouhyou_detail_004_kani=true&JigyosyoCd=0290100684-00&ServiceCd=&Type=search" }, "geometry": { "type": "Point", "coordinates": [ 140.8526492, 40.8774141 ] } },
{ "type": "Feature", "properties": { "内容": "健生訪問看護ステーションたまち　ナーシングホームたまち【看護小規模多機能型居宅介護（複合型サービス）】青森県弘前市大字向外瀬字豊田292番1健生介護センター虹　1階", "url2": "https://www.kaigokensaku.mhlw.go.jp/02/index.php?action_kouhyou_detail_004_kani=true&JigyosyoCd=0290200229-00&ServiceCd=&Type=search" }, "geometry": { "type": "Point", "coordinates": [ 140.4822874, 40.6301037 ] } },
{ "type": "Feature", "properties": { "内容": "看護小規模多機能ホームラインヒルズ【看護小規模多機能型居宅介護（複合型サービス）】青森県八戸市新井田字木戸場20", "url2": "https://www.kaigokensaku.mhlw.go.jp/02/index.php?action_kouhyou_detail_004_kani=true&JigyosyoCd=0290300318-00&ServiceCd=&Type=search" }, "geometry": { "type": "Point", "coordinates": [ 141.526327319435126, 40.509124533175815 ] } },
{ "type": "Feature", "properties": { "内容": "生協看護小規模多機能ホーム虹の家【看護小規模多機能型居宅介護（複合型サービス）】青森県八戸市南類家1丁目13-10", "url2": "https://www.kaigokensaku.mhlw.go.jp/02/index.php?action_kouhyou_detail_004_kani=true&JigyosyoCd=0290300474-00&ServiceCd=&Type=search" }, "geometry": { "type": "Point", "coordinates": [ 141.5039046, 40.5042782 ] } },
{ "type": "Feature", "properties": { "内容": "看護多機能ホーム　まべちの風【看護小規模多機能型居宅介護（複合型サービス）】青森県八戸市大字尻内町字表河原３１－２", "url2": "https://www.kaigokensaku.mhlw.go.jp/02/index.php?action_kouhyou_detail_004_kani=true&JigyosyoCd=0290300276-00&ServiceCd=&Type=search" }, "geometry": { "type": "Point", "coordinates": [ 141.4400872, 40.5028616 ] } },
{ "type": "Feature", "properties": { "内容": "看護小規模多機能ケアパークこうよう【看護小規模多機能型居宅介護（複合型サービス）】青森県八戸市江陽二丁目１番３２号クローバーズ・ピアこうよう", "url2": "https://www.kaigokensaku.mhlw.go.jp/02/index.php?action_kouhyou_detail_004_kani=true&JigyosyoCd=0290300441-00&ServiceCd=&Type=search" }, "geometry": { "type": "Point", "coordinates": [ 141.498894, 40.5192332 ] } },
{ "type": "Feature", "properties": { "内容": "ナースケア２４【看護小規模多機能型居宅介護（複合型サービス）】青森県十和田市大字三本木字一本木沢93番地7", "url2": "https://www.kaigokensaku.mhlw.go.jp/02/index.php?action_kouhyou_detail_004_kani=true&JigyosyoCd=0290600204-00&ServiceCd=&Type=search" }, "geometry": { "type": "Point", "coordinates": [ 141.230679488360579, 40.637655259152673 ] } },
{ "type": "Feature", "properties": { "内容": "看護多機能サービス　如来苑【看護小規模多機能型居宅介護（複合型サービス）】青森県三戸郡南部町大字下名久井字青柳4番地1", "url2": "https://www.kaigokensaku.mhlw.go.jp/02/index.php?action_kouhyou_detail_004_kani=true&JigyosyoCd=0292700127-00&ServiceCd=&Type=search" }, "geometry": { "type": "Point", "coordinates": [ 141.33512, 40.4232648 ] } }
]
}
