{
"type": "FeatureCollection",
"name": "geo_02_介護老人保健施設",
"crs": { "type": "name", "properties": { "name": "urn:ogc:def:crs:OGC:1.3:CRS84" } },
"features": [
{ "type": "Feature", "properties": { "内容": "介護老人保健施設　青森ナーシングライフ【介護老人保健施設】青森県青森市大字矢田前字弥生田４７－２", "url2": "https://www.kaigokensaku.mhlw.go.jp/02/index.php?action_kouhyou_detail_004_kani=true&JigyosyoCd=0250180007-00&ServiceCd=520&Type=search" }, "geometry": { "type": "Point", "coordinates": [ 140.808478700000023, 40.8292307 ] } },
{ "type": "Feature", "properties": { "内容": "社会福祉法人諏訪ノ森会　介護老人保健施設いちい荘【介護老人保健施設】青森県青森市大字諏訪沢字丸山７２番地", "url2": "https://www.kaigokensaku.mhlw.go.jp/02/index.php?action_kouhyou_detail_004_kani=true&JigyosyoCd=0250180023-00&ServiceCd=520&Type=search" }, "geometry": { "type": "Point", "coordinates": [ 140.8330459, 40.8216379 ] } },
{ "type": "Feature", "properties": { "内容": "青森南老人保健施設甲田苑【介護老人保健施設】青森県青森市大字横内字亀井２５９－２", "url2": "https://www.kaigokensaku.mhlw.go.jp/02/index.php?action_kouhyou_detail_004_kani=true&JigyosyoCd=0250180049-00&ServiceCd=520&Type=search" }, "geometry": { "type": "Point", "coordinates": [ 140.770053400000052, 40.769083 ] } },
{ "type": "Feature", "properties": { "内容": "老人保健施設　すずかけの里【介護老人保健施設】青森県青森市里見2丁目13番１号", "url2": "https://www.kaigokensaku.mhlw.go.jp/02/index.php?action_kouhyou_detail_004_kani=true&JigyosyoCd=0250180056-00&ServiceCd=520&Type=search" }, "geometry": { "type": "Point", "coordinates": [ 140.713356, 40.8156162 ] } },
{ "type": "Feature", "properties": { "内容": "桐紫苑【介護老人保健施設】青森県青森市大字幸畑字谷脇214-1", "url2": "https://www.kaigokensaku.mhlw.go.jp/02/index.php?action_kouhyou_detail_004_kani=true&JigyosyoCd=0250180064-00&ServiceCd=520&Type=search" }, "geometry": { "type": "Point", "coordinates": [ 140.792728500000067, 40.7905596 ] } },
{ "type": "Feature", "properties": { "内容": "医療法人芙蓉会　介護老人保健施設ニューライフ芙蓉【介護老人保健施設】青森県青森市妙見3丁目11-14", "url2": "https://www.kaigokensaku.mhlw.go.jp/02/index.php?action_kouhyou_detail_004_kani=true&JigyosyoCd=0250180072-00&ServiceCd=520&Type=search" }, "geometry": { "type": "Point", "coordinates": [ 140.762824751451149, 40.788431276909378 ] } },
{ "type": "Feature", "properties": { "内容": "介護老人保健施設　みちのく青海荘【介護老人保健施設】青森県青森市港町三丁目6番3号", "url2": "https://www.kaigokensaku.mhlw.go.jp/02/index.php?action_kouhyou_detail_004_kani=true&JigyosyoCd=0250180080-00&ServiceCd=520&Type=search" }, "geometry": { "type": "Point", "coordinates": [ 140.768771976057451, 40.831049911400207 ] } },
{ "type": "Feature", "properties": { "内容": "介護老人保健施設ケア・ガーデン青森【介護老人保健施設】青森市古館1丁目2-1", "url2": "https://www.kaigokensaku.mhlw.go.jp/02/index.php?action_kouhyou_detail_004_kani=true&JigyosyoCd=0250180098-00&ServiceCd=520&Type=search" }, "geometry": { "type": "Point", "coordinates": [ 140.779295899999966, 40.8062743 ] } },
{ "type": "Feature", "properties": { "内容": "老人保健施設　すずかけの里【介護老人保健施設】青森県青森市里見2丁目13番1号", "url2": "https://www.kaigokensaku.mhlw.go.jp/02/index.php?action_kouhyou_detail_004_kani=true&JigyosyoCd=0250180122-00&ServiceCd=520&Type=search" }, "geometry": { "type": "Point", "coordinates": [ 140.713356, 40.8156162 ] } },
{ "type": "Feature", "properties": { "内容": "介護老人保健施設なみおか【介護老人保健施設】青森県青森市浪岡杉沢字山元454-238", "url2": "https://www.kaigokensaku.mhlw.go.jp/02/index.php?action_kouhyou_detail_004_kani=true&JigyosyoCd=0250180155-00&ServiceCd=520&Type=search" }, "geometry": { "type": "Point", "coordinates": [ 140.581377, 40.7260916 ] } },
{ "type": "Feature", "properties": { "内容": "ユニット型介護老人保健施設　青照苑【介護老人保健施設】青森市羽白字野木和４５", "url2": "https://www.kaigokensaku.mhlw.go.jp/02/index.php?action_kouhyou_detail_004_kani=true&JigyosyoCd=0250180015-00&ServiceCd=520&Type=search" }, "geometry": { "type": "Point", "coordinates": [ 140.678954699999963, 40.8473199 ] } },
{ "type": "Feature", "properties": { "内容": "老人保健施設ケアセンター弘前【介護老人保健施設】青森県弘前市山崎一丁目３番地７", "url2": "https://www.kaigokensaku.mhlw.go.jp/02/index.php?action_kouhyou_detail_004_kani=true&JigyosyoCd=0250280005-00&ServiceCd=520&Type=search" }, "geometry": { "type": "Point", "coordinates": [ 140.4719374, 40.5743637 ] } },
{ "type": "Feature", "properties": { "内容": "介護老人保健施設平成の家【介護老人保健施設】弘前市大字独狐字石田121番地１", "url2": "https://www.kaigokensaku.mhlw.go.jp/02/index.php?action_kouhyou_detail_004_kani=true&JigyosyoCd=0250280013-00&ServiceCd=520&Type=search" }, "geometry": { "type": "Point", "coordinates": [ 140.44573749999995, 40.6469407 ] } },
{ "type": "Feature", "properties": { "内容": "介護老人保健施設　弘前リカバリーセンター【介護老人保健施設】青森県弘前市高田1丁目１０－７", "url2": "https://www.kaigokensaku.mhlw.go.jp/02/index.php?action_kouhyou_detail_004_kani=true&JigyosyoCd=0250280021-00&ServiceCd=520&Type=search" }, "geometry": { "type": "Point", "coordinates": [ 140.499580899999955, 40.5981676 ] } },
{ "type": "Feature", "properties": { "内容": "介護老人保健施設　ヴィラ弘前【介護老人保健施設】青森県弘前市大字岩賀２丁目１２－１１", "url2": "https://www.kaigokensaku.mhlw.go.jp/02/index.php?action_kouhyou_detail_004_kani=true&JigyosyoCd=0250280039-00&ServiceCd=520&Type=search" }, "geometry": { "type": "Point", "coordinates": [ 140.474752500000022, 40.6445752 ] } },
{ "type": "Feature", "properties": { "内容": "介護老人保健施設　幸陽荘【介護老人保健施設】青森県弘前市清野袋字岡部433-1", "url2": "https://www.kaigokensaku.mhlw.go.jp/02/index.php?action_kouhyou_detail_004_kani=true&JigyosyoCd=0250280054-00&ServiceCd=520&Type=search" }, "geometry": { "type": "Point", "coordinates": [ 140.483210800000052, 40.6363459 ] } },
{ "type": "Feature", "properties": { "内容": "介護老人保健施設　ふじ苑【介護老人保健施設】青森県弘前市大字土堂字長瀬385－1", "url2": "https://www.kaigokensaku.mhlw.go.jp/02/index.php?action_kouhyou_detail_004_kani=true&JigyosyoCd=0250280070-00&ServiceCd=520&Type=search" }, "geometry": { "type": "Point", "coordinates": [ 140.450186, 40.6206412 ] } },
{ "type": "Feature", "properties": { "内容": "介護老人保健施設サンタハウス弘前【介護老人保健施設】青森県弘前市大字大川字中桜川１８番地１０４号館", "url2": "https://www.kaigokensaku.mhlw.go.jp/02/index.php?action_kouhyou_detail_004_kani=true&JigyosyoCd=0250280088-00&ServiceCd=520&Type=search" }, "geometry": { "type": "Point", "coordinates": [ 140.456022815344227, 40.676054188122798 ] } },
{ "type": "Feature", "properties": { "内容": "ユニット型介護老人保健施設　サンタハウス弘前【介護老人保健施設】青森県弘前市大字大川字中桜川１８番地１０４号館", "url2": "https://www.kaigokensaku.mhlw.go.jp/02/index.php?action_kouhyou_detail_004_kani=true&JigyosyoCd=0250280112-00&ServiceCd=520&Type=search" }, "geometry": { "type": "Point", "coordinates": [ 140.456012086508167, 40.676090803812883 ] } },
{ "type": "Feature", "properties": { "内容": "介護老人保健施設　鳥井野荘【介護老人保健施設】青森県弘前市大字鳥井野字長田265番地", "url2": "https://www.kaigokensaku.mhlw.go.jp/02/index.php?action_kouhyou_detail_004_kani=true&JigyosyoCd=0252280003-00&ServiceCd=520&Type=search" }, "geometry": { "type": "Point", "coordinates": [ 140.41378409999993, 40.5998758 ] } },
{ "type": "Feature", "properties": { "内容": "介護老人保健施設　希望ヶ丘ホーム【介護老人保健施設】青森県弘前市大字小沢字山崎４４－９", "url2": "https://www.kaigokensaku.mhlw.go.jp/02/index.php?action_kouhyou_detail_004_kani=true&JigyosyoCd=0250280062-00&ServiceCd=520&Type=search" }, "geometry": { "type": "Point", "coordinates": [ 140.451991799999973, 40.5662562 ] } },
{ "type": "Feature", "properties": { "内容": "介護老人保健施設はくじゅ【介護老人保健施設】青森県八戸市河原木字北沼２２－３９", "url2": "https://www.kaigokensaku.mhlw.go.jp/02/index.php?action_kouhyou_detail_004_kani=true&JigyosyoCd=0250380003-00&ServiceCd=520&Type=search" }, "geometry": { "type": "Point", "coordinates": [ 141.484859, 40.5523339 ] } },
{ "type": "Feature", "properties": { "内容": "介護老人保健施設　ひばりの里【介護老人保健施設】青森県八戸市大字是川字雲畑９－２", "url2": "https://www.kaigokensaku.mhlw.go.jp/02/index.php?action_kouhyou_detail_004_kani=true&JigyosyoCd=0250380011-00&ServiceCd=520&Type=search" }, "geometry": { "type": "Point", "coordinates": [ 141.471505500000035, 40.4598705 ] } },
{ "type": "Feature", "properties": { "内容": "サンライフ豊寿苑【介護老人保健施設】青森県八戸市石堂一丁目14-11", "url2": "https://www.kaigokensaku.mhlw.go.jp/02/index.php?action_kouhyou_detail_004_kani=true&JigyosyoCd=0250380029-00&ServiceCd=520&Type=search" }, "geometry": { "type": "Point", "coordinates": [ 141.480563, 40.5295923 ] } },
{ "type": "Feature", "properties": { "内容": "介護老人保健施設　リハビリパーク【介護老人保健施設】青森県八戸市小中野一丁目1-14", "url2": "https://www.kaigokensaku.mhlw.go.jp/02/index.php?action_kouhyou_detail_004_kani=true&JigyosyoCd=0250380037-00&ServiceCd=520&Type=search" }, "geometry": { "type": "Point", "coordinates": [ 141.506060199999979, 40.5185999 ] } },
{ "type": "Feature", "properties": { "内容": "介護老人保健施設　南山苑【介護老人保健施設】青森県八戸市大字田面木字赤坂24-1", "url2": "https://www.kaigokensaku.mhlw.go.jp/02/index.php?action_kouhyou_detail_004_kani=true&JigyosyoCd=0250380052-00&ServiceCd=520&Type=search" }, "geometry": { "type": "Point", "coordinates": [ 141.455097499999965, 40.5000069 ] } },
{ "type": "Feature", "properties": { "内容": "ナーシングホームオリーブ【介護老人保健施設】八戸市湊高台二丁目４－６", "url2": "https://www.kaigokensaku.mhlw.go.jp/02/index.php?action_kouhyou_detail_004_kani=true&JigyosyoCd=0250380060-00&ServiceCd=520&Type=search" }, "geometry": { "type": "Point", "coordinates": [ 141.538085475532512, 40.506736722167119 ] } },
{ "type": "Feature", "properties": { "内容": "介護老人保健施設南郷メディエルデプラザ【介護老人保健施設】青森県八戸市南郷大字島守字阿庄内15番地6", "url2": "https://www.kaigokensaku.mhlw.go.jp/02/index.php?action_kouhyou_detail_004_kani=true&JigyosyoCd=0252780002-00&ServiceCd=520&Type=search" }, "geometry": { "type": "Point", "coordinates": [ 141.456113671163962, 40.40712741137024 ] } },
{ "type": "Feature", "properties": { "内容": "介護老人保健施設「あしたばの里・黒石」【介護老人保健施設】青森県黒石市末広6番地1", "url2": "https://www.kaigokensaku.mhlw.go.jp/02/index.php?action_kouhyou_detail_004_kani=true&JigyosyoCd=0250480001-00&ServiceCd=520&Type=search" }, "geometry": { "type": "Point", "coordinates": [ 140.595772399999987, 40.6617796 ] } },
{ "type": "Feature", "properties": { "内容": "介護老人保健施設緑風苑【介護老人保健施設】青森県五所川原市金山字竹崎254", "url2": "https://www.kaigokensaku.mhlw.go.jp/02/index.php?action_kouhyou_detail_004_kani=true&JigyosyoCd=0250580008-00&ServiceCd=520&Type=search" }, "geometry": { "type": "Point", "coordinates": [ 140.475018, 40.8071143 ] } },
{ "type": "Feature", "properties": { "内容": "介護老人保健施設　サンライフかなぎ【介護老人保健施設】青森県五所川原市金木町芦野200番地301", "url2": "https://www.kaigokensaku.mhlw.go.jp/02/index.php?action_kouhyou_detail_004_kani=true&JigyosyoCd=0252480009-00&ServiceCd=520&Type=search" }, "geometry": { "type": "Point", "coordinates": [ 140.457670499999949, 40.9125937 ] } },
{ "type": "Feature", "properties": { "内容": "介護老人保健施設　みちのく苑【介護老人保健施設】青森県十和田市大字三本木字里ノ沢１－６２", "url2": "https://www.kaigokensaku.mhlw.go.jp/02/index.php?action_kouhyou_detail_004_kani=true&JigyosyoCd=0250680006-00&ServiceCd=520&Type=search" }, "geometry": { "type": "Point", "coordinates": [ 141.2483724, 40.6259085 ] } },
{ "type": "Feature", "properties": { "内容": "老人保健施設　みのり苑【介護老人保健施設】青森県十和田市大字切田字横道100-22", "url2": "https://www.kaigokensaku.mhlw.go.jp/02/index.php?action_kouhyou_detail_004_kani=true&JigyosyoCd=0250680014-00&ServiceCd=520&Type=search" }, "geometry": { "type": "Point", "coordinates": [ 141.192791100000022, 40.5693306 ] } },
{ "type": "Feature", "properties": { "内容": "介護老人保健施設とわだ【介護老人保健施設】青森県十和田市大字洞内字長田60-6", "url2": "https://www.kaigokensaku.mhlw.go.jp/02/index.php?action_kouhyou_detail_004_kani=true&JigyosyoCd=0250680048-00&ServiceCd=520&Type=search" }, "geometry": { "type": "Point", "coordinates": [ 141.181886500000019, 40.6659893 ] } },
{ "type": "Feature", "properties": { "内容": "介護老人保健施設ハートランド【介護老人保健施設】十和田市大字相坂字高清水78-450", "url2": "https://www.kaigokensaku.mhlw.go.jp/02/index.php?action_kouhyou_detail_004_kani=true&JigyosyoCd=0250680055-00&ServiceCd=520&Type=search" }, "geometry": { "type": "Point", "coordinates": [ 141.255791300000027, 40.6216813 ] } },
{ "type": "Feature", "properties": { "内容": "老人保健施設　やすらぎ苑【介護老人保健施設】青森県三沢市大字三沢字淋代平１１６－３０９７", "url2": "https://www.kaigokensaku.mhlw.go.jp/02/index.php?action_kouhyou_detail_004_kani=true&JigyosyoCd=0250780004-00&ServiceCd=520&Type=search" }, "geometry": { "type": "Point", "coordinates": [ 141.374562100000048, 40.7456334 ] } },
{ "type": "Feature", "properties": { "内容": "老人保健施設シルバーケアセンターむつ【介護老人保健施設】青森県むつ市中央一丁目18番1号", "url2": "https://www.kaigokensaku.mhlw.go.jp/02/index.php?action_kouhyou_detail_004_kani=true&JigyosyoCd=0250880002-00&ServiceCd=520&Type=search" }, "geometry": { "type": "Point", "coordinates": [ 141.183942099999967, 41.2940872 ] } },
{ "type": "Feature", "properties": { "内容": "介護老人保健施設　はまなす苑【介護老人保健施設】青森県むつ市大字奥内字金谷沢１－１６７", "url2": "https://www.kaigokensaku.mhlw.go.jp/02/index.php?action_kouhyou_detail_004_kani=true&JigyosyoCd=0250880010-00&ServiceCd=520&Type=search" }, "geometry": { "type": "Point", "coordinates": [ 141.247057400000017, 41.2323503 ] } },
{ "type": "Feature", "properties": { "内容": "むつ市介護老人保健施設やげん【介護老人保健施設】青森県むつ市大畑町観音堂２５－１国民健康保険大畑診療所内", "url2": "https://www.kaigokensaku.mhlw.go.jp/02/index.php?action_kouhyou_detail_004_kani=true&JigyosyoCd=0250880028-00&ServiceCd=520&Type=search" }, "geometry": { "type": "Point", "coordinates": [ 141.157319700000016, 41.399487 ] } },
{ "type": "Feature", "properties": { "内容": "老人保健施設シルバーケアセンターむつ【介護老人保健施設】青森県むつ市中央一丁目18番1号", "url2": "https://www.kaigokensaku.mhlw.go.jp/02/index.php?action_kouhyou_detail_004_kani=true&JigyosyoCd=0250880036-00&ServiceCd=520&Type=search" }, "geometry": { "type": "Point", "coordinates": [ 141.184058, 41.2940774 ] } },
{ "type": "Feature", "properties": { "内容": "介護老人保健施設　えんじゅの里【介護老人保健施設】青森県つがる市木造曙82", "url2": "https://www.kaigokensaku.mhlw.go.jp/02/index.php?action_kouhyou_detail_004_kani=true&JigyosyoCd=0252180005-00&ServiceCd=520&Type=search" }, "geometry": { "type": "Point", "coordinates": [ 140.392244299999987, 40.8078478 ] } },
{ "type": "Feature", "properties": { "内容": "介護老人保健施設のぞみ【介護老人保健施設】青森県平川市李平上山崎54-1", "url2": "https://www.kaigokensaku.mhlw.go.jp/02/index.php?action_kouhyou_detail_004_kani=true&JigyosyoCd=0252380027-00&ServiceCd=520&Type=search" }, "geometry": { "type": "Point", "coordinates": [ 140.5926938, 40.6210709 ] } },
{ "type": "Feature", "properties": { "内容": "一般財団法人　黎明郷　介護老人保健施設　つがる【介護老人保健施設】青森県平川市碇ヶ関湯向川添30番地", "url2": "https://www.kaigokensaku.mhlw.go.jp/02/index.php?action_kouhyou_detail_004_kani=true&JigyosyoCd=0252380043-00&ServiceCd=520&Type=search" }, "geometry": { "type": "Point", "coordinates": [ 140.62604280000005, 40.4785053 ] } },
{ "type": "Feature", "properties": { "内容": "介護老人保健施設三笠ケアセンター【介護老人保健施設】青森県平川市館田西和田195番地", "url2": "https://www.kaigokensaku.mhlw.go.jp/02/index.php?action_kouhyou_detail_004_kani=true&JigyosyoCd=0252380019-00&ServiceCd=520&Type=search" }, "geometry": { "type": "Point", "coordinates": [ 140.5394387, 40.5866316 ] } },
{ "type": "Feature", "properties": { "内容": "外ヶ浜町介護老人保健施設たんぽぽ【介護老人保健施設】青森県東津軽郡外ヶ浜町下蟹田４２番地１", "url2": "https://www.kaigokensaku.mhlw.go.jp/02/index.php?action_kouhyou_detail_004_kani=true&JigyosyoCd=0252080007-00&ServiceCd=520&Type=search" }, "geometry": { "type": "Point", "coordinates": [ 140.639959, 41.0421902 ] } },
{ "type": "Feature", "properties": { "内容": "老人保健施設ながだい荘【介護老人保健施設】青森県西津軽郡鯵ヶ沢町大字長平町字甲音羽山６５－４１２", "url2": "https://www.kaigokensaku.mhlw.go.jp/02/index.php?action_kouhyou_detail_004_kani=true&JigyosyoCd=0252180013-00&ServiceCd=520&Type=search" }, "geometry": { "type": "Point", "coordinates": [ 140.285931799999958, 40.7115014 ] } },
{ "type": "Feature", "properties": { "内容": "介護老人保健施設しらかみのさと【介護老人保健施設】青森県西津軽郡深浦町大字関字小島崎５３－１", "url2": "https://www.kaigokensaku.mhlw.go.jp/02/index.php?action_kouhyou_detail_004_kani=true&JigyosyoCd=0252180021-00&ServiceCd=520&Type=search" }, "geometry": { "type": "Point", "coordinates": [ 140.117617099999961, 40.7295644 ] } },
{ "type": "Feature", "properties": { "内容": "医療法人ときわ会　介護老人保健施設明生園【介護老人保健施設】青森県南津軽郡藤崎町大字榊字亀田2-1", "url2": "https://www.kaigokensaku.mhlw.go.jp/02/index.php?action_kouhyou_detail_004_kani=true&JigyosyoCd=0252380001-00&ServiceCd=520&Type=search" }, "geometry": { "type": "Point", "coordinates": [ 140.533038, 40.6728375 ] } },
{ "type": "Feature", "properties": { "内容": "介護老人保健施設　湖水荘【介護老人保健施設】青森県北津軽郡鶴田町大字廻堰字東下山９１番地２", "url2": "https://www.kaigokensaku.mhlw.go.jp/02/index.php?action_kouhyou_detail_004_kani=true&JigyosyoCd=0252480017-00&ServiceCd=520&Type=search" }, "geometry": { "type": "Point", "coordinates": [ 140.3874935, 40.7580808 ] } },
{ "type": "Feature", "properties": { "内容": "介護老人保健施設　えぼし【介護老人保健施設】青森県上北郡野辺地町字川目８８－１", "url2": "https://www.kaigokensaku.mhlw.go.jp/02/index.php?action_kouhyou_detail_004_kani=true&JigyosyoCd=0252580014-00&ServiceCd=520&Type=search" }, "geometry": { "type": "Point", "coordinates": [ 141.132013499999971, 40.8349221 ] } },
{ "type": "Feature", "properties": { "内容": "介護老人保健施設　のへじ【介護老人保健施設】青森県上北郡野辺地町字餅粟川原4", "url2": "https://www.kaigokensaku.mhlw.go.jp/02/index.php?action_kouhyou_detail_004_kani=true&JigyosyoCd=0252580030-00&ServiceCd=520&Type=search" }, "geometry": { "type": "Point", "coordinates": [ 141.1278522, 40.8542341 ] } },
{ "type": "Feature", "properties": { "内容": "介護老人保健施設　「ナーシングセンター柏葉」【介護老人保健施設】青森県上北郡七戸町字笊田川久保100-1", "url2": "https://www.kaigokensaku.mhlw.go.jp/02/index.php?action_kouhyou_detail_004_kani=true&JigyosyoCd=0252580006-00&ServiceCd=520&Type=search" }, "geometry": { "type": "Point", "coordinates": [ 141.159723, 40.6978522 ] } },
{ "type": "Feature", "properties": { "内容": "六ヶ所村介護老人保健施設ニッコウキスゲ【介護老人保健施設】青森県上北郡六ヶ所村大字尾駮字野附986-4", "url2": "https://www.kaigokensaku.mhlw.go.jp/02/index.php?action_kouhyou_detail_004_kani=true&JigyosyoCd=0252580055-00&ServiceCd=520&Type=search" }, "geometry": { "type": "Point", "coordinates": [ 141.374944, 40.9650053 ] } },
{ "type": "Feature", "properties": { "内容": "介護老人保健施設しもだ【介護老人保健施設】青森県上北郡おいらせ町山崎２５９２－７", "url2": "https://www.kaigokensaku.mhlw.go.jp/02/index.php?action_kouhyou_detail_004_kani=true&JigyosyoCd=0252580022-00&ServiceCd=520&Type=search" }, "geometry": { "type": "Point", "coordinates": [ 141.402263190511235, 40.614923613074296 ] } },
{ "type": "Feature", "properties": { "内容": "東通村介護老人保健施設「のはなしょうぶ」【介護老人保健施設】青森県下北郡東通村砂子又字里１７番地２", "url2": "https://www.kaigokensaku.mhlw.go.jp/02/index.php?action_kouhyou_detail_004_kani=true&JigyosyoCd=0252680004-00&ServiceCd=520&Type=search" }, "geometry": { "type": "Point", "coordinates": [ 141.337477400000012, 41.2766568 ] } },
{ "type": "Feature", "properties": { "内容": "老人保健施設ほほえみ三戸【介護老人保健施設】青森県三戸郡三戸町大字同心町字諏訪内１０番地", "url2": "https://www.kaigokensaku.mhlw.go.jp/02/index.php?action_kouhyou_detail_004_kani=true&JigyosyoCd=0252780044-00&ServiceCd=520&Type=search" }, "geometry": { "type": "Point", "coordinates": [ 141.2533489, 40.3759427 ] } },
{ "type": "Feature", "properties": { "内容": "田子町介護老人保健施設老健たっこ【介護老人保健施設】青森県三戸郡田子町大字田子字前田２－１７", "url2": "https://www.kaigokensaku.mhlw.go.jp/02/index.php?action_kouhyou_detail_004_kani=true&JigyosyoCd=0252780051-00&ServiceCd=520&Type=search" }, "geometry": { "type": "Point", "coordinates": [ 141.1545079, 40.3410531 ] } },
{ "type": "Feature", "properties": { "内容": "介護老人保健施設なんぶ【介護老人保健施設】青森県三戸郡南部町大字沖田面字千刈32-1", "url2": "https://www.kaigokensaku.mhlw.go.jp/02/index.php?action_kouhyou_detail_004_kani=true&JigyosyoCd=0252780077-00&ServiceCd=520&Type=search" }, "geometry": { "type": "Point", "coordinates": [ 141.281053301852438, 40.411663466643724 ] } },
{ "type": "Feature", "properties": { "内容": "介護老人保健施設　孔明荘【介護老人保健施設】青森県三戸郡南部町大字苫米地字蒼前11番1", "url2": "https://www.kaigokensaku.mhlw.go.jp/02/index.php?action_kouhyou_detail_004_kani=true&JigyosyoCd=0252780010-00&ServiceCd=520&Type=search" }, "geometry": { "type": "Point", "coordinates": [ 141.38813780000001, 40.466707100000029 ] } },
{ "type": "Feature", "properties": { "内容": "医療法人仁泉会　介護老人保健施設しんごう【介護老人保健施設】青森県三戸郡新郷村大字戸来字金ヶ沢森ノ下24", "url2": "https://www.kaigokensaku.mhlw.go.jp/02/index.php?action_kouhyou_detail_004_kani=true&JigyosyoCd=0252780028-00&ServiceCd=520&Type=search" }, "geometry": { "type": "Point", "coordinates": [ 141.178185399999961, 40.470056 ] } }
]
}
