{
"type": "FeatureCollection",
"name": "geo_02_高校",
"crs": { "type": "name", "properties": { "name": "urn:ogc:def:crs:EPSG::6668" } },
"features": [
{ "type": "Feature", "properties": { "P29_001": "02201", "P29_002": "D102210000013", "P29_003": "16004", "P29_004": "青森県立青森高等学校", "P29_005": "青森県青森市桜川8-1-2", "P29_006": "2", "P29_007": "0", "P29_008": "00", "P29_009": null }, "geometry": { "type": "Point", "coordinates": [ 140.767429686808782, 40.808936793853519 ] } },
{ "type": "Feature", "properties": { "P29_001": "02201", "P29_002": "D102210000022", "P29_003": "16004", "P29_004": "青森県立青森西高等学校", "P29_005": "青森県青森市新城字平岡266-20", "P29_006": "2", "P29_007": "0", "P29_008": "00", "P29_009": null }, "geometry": { "type": "Point", "coordinates": [ 140.684327318443707, 40.828890617981521 ] } },
{ "type": "Feature", "properties": { "P29_001": "02201", "P29_002": "D102210000031", "P29_003": "16004", "P29_004": "青森県立青森東高等学校", "P29_005": "青森県青森市原別3-1-1", "P29_006": "2", "P29_007": "0", "P29_008": "00", "P29_009": null }, "geometry": { "type": "Point", "coordinates": [ 140.805086425913686, 40.834697685474119 ] } },
{ "type": "Feature", "properties": { "P29_001": "02202", "P29_002": "D102210000040", "P29_003": "16004", "P29_004": "青森県立弘前高等学校", "P29_005": "青森県弘前市新寺町1-1", "P29_006": "2", "P29_007": "0", "P29_008": "00", "P29_009": null }, "geometry": { "type": "Point", "coordinates": [ 140.467602111968716, 40.59539530858784 ] } },
{ "type": "Feature", "properties": { "P29_001": "02202", "P29_002": "D102210000059", "P29_003": "16004", "P29_004": "青森県立弘前中央高等学校", "P29_005": "青森県弘前市蔵主町7-1", "P29_006": "2", "P29_007": "0", "P29_008": "00", "P29_009": null }, "geometry": { "type": "Point", "coordinates": [ 140.46903914661587, 40.609717122464701 ] } },
{ "type": "Feature", "properties": { "P29_001": "02202", "P29_002": "D102210000068", "P29_003": "16004", "P29_004": "青森県立弘前南高等学校", "P29_005": "青森県弘前市大開4-1-1", "P29_006": "2", "P29_007": "0", "P29_008": "00", "P29_009": null }, "geometry": { "type": "Point", "coordinates": [ 140.44499888128243, 40.580223468185459 ] } },
{ "type": "Feature", "properties": { "P29_001": "02203", "P29_002": "D102210000077", "P29_003": "16004", "P29_004": "青森県立八戸高等学校", "P29_005": "青森県八戸市長者4-4-1", "P29_006": "2", "P29_007": "0", "P29_008": "00", "P29_009": null }, "geometry": { "type": "Point", "coordinates": [ 141.483019181682181, 40.496800664095723 ] } },
{ "type": "Feature", "properties": { "P29_001": "02203", "P29_002": "D102210000086", "P29_003": "16004", "P29_004": "青森県立八戸東高等学校", "P29_005": "青森県八戸市類家1-4-47", "P29_006": "2", "P29_007": "0", "P29_008": "00", "P29_009": null }, "geometry": { "type": "Point", "coordinates": [ 141.498474115245955, 40.506967223957687 ] } },
{ "type": "Feature", "properties": { "P29_001": "02203", "P29_002": "D102210000095", "P29_003": "16004", "P29_004": "青森県立八戸北高等学校", "P29_005": "青森県八戸市大久保町道8-3", "P29_006": "2", "P29_007": "0", "P29_008": "00", "P29_009": null }, "geometry": { "type": "Point", "coordinates": [ 141.546528170343805, 40.511116653825077 ] } },
{ "type": "Feature", "properties": { "P29_001": "02209", "P29_002": "D102210000111", "P29_003": "16004", "P29_004": "青森県立木造高等学校", "P29_005": "青森県つがる市木造日向73-2", "P29_006": "2", "P29_007": "0", "P29_008": "00", "P29_009": null }, "geometry": { "type": "Point", "coordinates": [ 140.392645610346989, 40.810481306921311 ] } },
{ "type": "Feature", "properties": { "P29_001": "02321", "P29_002": "D102210000120", "P29_003": "16004", "P29_004": "青森県立鰺ヶ沢高等学校", "P29_005": "青森県西津軽郡鰺ヶ沢町舞戸町字小夜72", "P29_006": "2", "P29_007": "0", "P29_008": "00", "P29_009": null }, "geometry": { "type": "Point", "coordinates": [ 140.20388198499441, 40.776213865655208 ] } },
{ "type": "Feature", "properties": { "P29_001": "02205", "P29_002": "D102210000139", "P29_003": "16004", "P29_004": "青森県立五所川原高等学校", "P29_005": "青森県五所川原市中平井町3-3", "P29_006": "2", "P29_007": "0", "P29_008": "00", "P29_009": null }, "geometry": { "type": "Point", "coordinates": [ 140.442632772302289, 40.813657888309031 ] } },
{ "type": "Feature", "properties": { "P29_001": "02201", "P29_002": "D102210000175", "P29_003": "16004", "P29_004": "青森県立浪岡高等学校", "P29_005": "青森県青森市浪岡浪岡字稲村101-2", "P29_006": "2", "P29_007": "0", "P29_008": "00", "P29_009": null }, "geometry": { "type": "Point", "coordinates": [ 140.593807334771839, 40.709376458866323 ] } },
{ "type": "Feature", "properties": { "P29_001": "02401", "P29_002": "D102210000184", "P29_003": "16004", "P29_004": "青森県立野辺地高等学校", "P29_005": "青森県上北郡野辺地町松ノ木106-1", "P29_006": "2", "P29_007": "0", "P29_008": "00", "P29_009": null }, "geometry": { "type": "Point", "coordinates": [ 141.110094141859292, 40.854995350845115 ] } },
{ "type": "Feature", "properties": { "P29_001": "02402", "P29_002": "D102210000193", "P29_003": "16004", "P29_004": "青森県立七戸高等学校", "P29_005": "青森県上北郡七戸町字舘野47-31", "P29_006": "2", "P29_007": "0", "P29_008": "00", "P29_009": null }, "geometry": { "type": "Point", "coordinates": [ 141.15525847375082, 40.689381389649192 ] } },
{ "type": "Feature", "properties": { "P29_001": "02206", "P29_002": "D102210000200", "P29_003": "16004", "P29_004": "青森県立三本木高等学校", "P29_005": "青森県十和田市西五番町7-1", "P29_006": "2", "P29_007": "0", "P29_008": "00", "P29_009": null }, "geometry": { "type": "Point", "coordinates": [ 141.219171595201175, 40.603251759128646 ] } },
{ "type": "Feature", "properties": { "P29_001": "02207", "P29_002": "D102210000219", "P29_003": "16004", "P29_004": "青森県立三沢高等学校", "P29_005": "青森県三沢市松園町1-1", "P29_006": "2", "P29_007": "0", "P29_008": "00", "P29_009": null }, "geometry": { "type": "Point", "coordinates": [ 141.371429022082879, 40.678298143332192 ] } },
{ "type": "Feature", "properties": { "P29_001": "02208", "P29_002": "D102210000228", "P29_003": "16004", "P29_004": "青森県立田名部高等学校", "P29_005": "青森県むつ市海老川町6-18", "P29_006": "2", "P29_007": "0", "P29_008": "00", "P29_009": null }, "geometry": { "type": "Point", "coordinates": [ 141.202175824554473, 41.287170596974683 ] } },
{ "type": "Feature", "properties": { "P29_001": "02208", "P29_002": "D102210000237", "P29_003": "16004", "P29_004": "青森県立大湊高等学校", "P29_005": "青森県むつ市大湊字大近川44-84", "P29_006": "2", "P29_007": "0", "P29_008": "00", "P29_009": null }, "geometry": { "type": "Point", "coordinates": [ 141.128529112860122, 41.251603782775199 ] } },
{ "type": "Feature", "properties": { "P29_001": "02441", "P29_002": "D102210000255", "P29_003": "16004", "P29_004": "青森県立三戸高等学校", "P29_005": "青森県三戸郡三戸町川守田字白坂ノ上3-1", "P29_006": "2", "P29_007": "0", "P29_008": "00", "P29_009": null }, "geometry": { "type": "Point", "coordinates": [ 141.255561403984416, 40.384068515039544 ] } },
{ "type": "Feature", "properties": { "P29_001": "02210", "P29_002": "D102210000264", "P29_003": "16004", "P29_004": "青森県立柏木農業高等学校", "P29_005": "青森県平川市荒田上駒田130", "P29_006": "2", "P29_007": "0", "P29_008": "00", "P29_009": null }, "geometry": { "type": "Point", "coordinates": [ 140.571932721601968, 40.603116325861613 ] } },
{ "type": "Feature", "properties": { "P29_001": "02205", "P29_002": "D102210000273", "P29_003": "16004", "P29_004": "青森県立五所川原農林高等学校", "P29_005": "青森県五所川原市一野坪字朝日田12-37", "P29_006": "2", "P29_007": "0", "P29_008": "00", "P29_009": null }, "geometry": { "type": "Point", "coordinates": [ 140.485406393240737, 40.819079622258521 ] } },
{ "type": "Feature", "properties": { "P29_001": "02445", "P29_002": "D102210000291", "P29_003": "16004", "P29_004": "青森県立名久井農業高等学校", "P29_005": "青森県三戸郡南部町下名久井字下諏訪平1", "P29_006": "2", "P29_007": "0", "P29_008": "00", "P29_009": null }, "geometry": { "type": "Point", "coordinates": [ 141.34572707143073, 40.435534134287735 ] } },
{ "type": "Feature", "properties": { "P29_001": "02201", "P29_002": "D102210000308", "P29_003": "16004", "P29_004": "青森県立青森工業高等学校", "P29_005": "青森県青森市馬屋尻字清水流204-1", "P29_006": "2", "P29_007": "0", "P29_008": "00", "P29_009": null }, "geometry": { "type": "Point", "coordinates": [ 140.821177262259795, 40.843749501223776 ] } },
{ "type": "Feature", "properties": { "P29_001": "02202", "P29_002": "D102210000317", "P29_003": "16004", "P29_004": "青森県立弘前工業高等学校", "P29_005": "青森県弘前市馬屋町6-2", "P29_006": "2", "P29_007": "0", "P29_008": "00", "P29_009": null }, "geometry": { "type": "Point", "coordinates": [ 140.461354380703398, 40.60652210983266 ] } },
{ "type": "Feature", "properties": { "P29_001": "02203", "P29_002": "D102210000326", "P29_003": "16004", "P29_004": "青森県立八戸工業高等学校", "P29_005": "青森県八戸市江陽1-2-27", "P29_006": "2", "P29_007": "0", "P29_008": "00", "P29_009": null }, "geometry": { "type": "Point", "coordinates": [ 141.499690299334532, 40.518605830868644 ] } },
{ "type": "Feature", "properties": { "P29_001": "02206", "P29_002": "D102210000344", "P29_003": "16004", "P29_004": "青森県立十和田工業高等学校", "P29_005": "青森県十和田市三本木字下平215-1", "P29_006": "2", "P29_007": "0", "P29_008": "00", "P29_009": null }, "geometry": { "type": "Point", "coordinates": [ 141.229743002497798, 40.628835345154052 ] } },
{ "type": "Feature", "properties": { "P29_001": "02208", "P29_002": "D102210000353", "P29_003": "16004", "P29_004": "青森県立むつ工業高等学校", "P29_005": "青森県むつ市文京町22-7", "P29_006": "2", "P29_007": "0", "P29_008": "00", "P29_009": null }, "geometry": { "type": "Point", "coordinates": [ 141.167801988462912, 41.289103294854279 ] } },
{ "type": "Feature", "properties": { "P29_001": "02203", "P29_002": "D102210000362", "P29_003": "16004", "P29_004": "青森県立八戸水産高等学校", "P29_005": "青森県八戸市白銀町字人形沢6-1", "P29_006": "2", "P29_007": "0", "P29_008": "00", "P29_009": null }, "geometry": { "type": "Point", "coordinates": [ 141.552127676611207, 40.527196769388624 ] } },
{ "type": "Feature", "properties": { "P29_001": "02201", "P29_002": "D102210000371", "P29_003": "16004", "P29_004": "青森県立青森商業高等学校", "P29_005": "青森県青森市戸山字安原7-1", "P29_006": "2", "P29_007": "0", "P29_008": "00", "P29_009": null }, "geometry": { "type": "Point", "coordinates": [ 140.798210189867234, 40.8114542161222 ] } },
{ "type": "Feature", "properties": { "P29_001": "02207", "P29_002": "D102210000380", "P29_003": "16004", "P29_004": "青森県立三沢商業高等学校", "P29_005": "青森県三沢市春日台2-154", "P29_006": "2", "P29_007": "0", "P29_008": "00", "P29_009": null }, "geometry": { "type": "Point", "coordinates": [ 141.344300550493358, 40.668291314082033 ] } },
{ "type": "Feature", "properties": { "P29_001": "02203", "P29_002": "D102210000406", "P29_003": "16004", "P29_004": "青森県立八戸商業高等学校", "P29_005": "青森県八戸市十日市字塚ノ下3-1", "P29_006": "2", "P29_007": "0", "P29_008": "00", "P29_009": null }, "geometry": { "type": "Point", "coordinates": [ 141.511445621094111, 40.476059546536192 ] } },
{ "type": "Feature", "properties": { "P29_001": "02411", "P29_002": "D102210000424", "P29_003": "16004", "P29_004": "青森県立六ヶ所高等学校", "P29_005": "青森県上北郡六ヶ所村倉内字笹崎305", "P29_006": "2", "P29_007": "0", "P29_008": "00", "P29_009": null }, "geometry": { "type": "Point", "coordinates": [ 141.277493760295414, 40.888195054955872 ] } },
{ "type": "Feature", "properties": { "P29_001": "02201", "P29_002": "D102210000433", "P29_003": "16004", "P29_004": "青森県立青森南高等学校", "P29_005": "青森県青森市西大野2-12-40", "P29_006": "2", "P29_007": "0", "P29_008": "00", "P29_009": null }, "geometry": { "type": "Point", "coordinates": [ 140.722298270831743, 40.803359206134189 ] } },
{ "type": "Feature", "properties": { "P29_001": "02203", "P29_002": "D102210000442", "P29_003": "16004", "P29_004": "青森県立八戸西高等学校", "P29_005": "青森県八戸市尻内町字中根市14", "P29_006": "2", "P29_007": "0", "P29_008": "00", "P29_009": null }, "geometry": { "type": "Point", "coordinates": [ 141.423902665265416, 40.512123088688085 ] } },
{ "type": "Feature", "properties": { "P29_001": "02201", "P29_002": "D102210000451", "P29_003": "16004", "P29_004": "青森県立青森北高等学校", "P29_005": "青森県青森市羽白字富田80-7", "P29_006": "2", "P29_007": "0", "P29_008": "00", "P29_009": null }, "geometry": { "type": "Point", "coordinates": [ 140.688782911188582, 40.850188400830376 ] } },
{ "type": "Feature", "properties": { "P29_001": "02201", "P29_002": "D102210000460", "P29_003": "16004", "P29_004": "青森県立青森中央高等学校", "P29_005": "青森県青森市東大野1-22-1", "P29_006": "2", "P29_007": "0", "P29_008": "00", "P29_009": null }, "geometry": { "type": "Point", "coordinates": [ 140.74442425286216, 40.802082954941199 ] } },
{ "type": "Feature", "properties": { "P29_001": "02202", "P29_002": "D102210000479", "P29_003": "16004", "P29_004": "青森県立弘前実業高等学校", "P29_005": "青森県弘前市中野3-6-10", "P29_006": "2", "P29_007": "0", "P29_008": "00", "P29_009": null }, "geometry": { "type": "Point", "coordinates": [ 140.474688852737245, 40.578234201812876 ] } },
{ "type": "Feature", "properties": { "P29_001": "02201", "P29_002": "D102210000503", "P29_003": "16004", "P29_004": "青森県立北斗高等学校", "P29_005": "青森県青森市松原2-1-24", "P29_006": "2", "P29_007": "0", "P29_008": "00", "P29_009": null }, "geometry": { "type": "Point", "coordinates": [ 140.76050481837612, 40.819024327856511 ] } },
{ "type": "Feature", "properties": { "P29_001": "02203", "P29_002": "D102210000512", "P29_003": "16004", "P29_004": "青森県立八戸中央高等学校", "P29_005": "青森県八戸市諏訪1-2-17", "P29_006": "2", "P29_007": "0", "P29_008": "00", "P29_009": null }, "geometry": { "type": "Point", "coordinates": [ 141.517489554969188, 40.515276960348913 ] } },
{ "type": "Feature", "properties": { "P29_001": "02412", "P29_002": "D102210000521", "P29_003": "16004", "P29_004": "青森県立百石高等学校", "P29_005": "青森県上北郡おいらせ町苗平谷地46", "P29_006": "2", "P29_007": "0", "P29_008": "00", "P29_009": null }, "geometry": { "type": "Point", "coordinates": [ 141.431749450419403, 40.599559828997066 ] } },
{ "type": "Feature", "properties": { "P29_001": "02423", "P29_002": "D102210000549", "P29_003": "16004", "P29_004": "青森県立大間高等学校", "P29_005": "青森県下北郡大間町大間字大間平20-43", "P29_006": "2", "P29_007": "0", "P29_008": "00", "P29_009": null }, "geometry": { "type": "Point", "coordinates": [ 140.92778082262501, 41.527682782099461 ] } },
{ "type": "Feature", "properties": { "P29_001": "02210", "P29_002": "D102210000594", "P29_003": "16004", "P29_004": "青森県立尾上総合高等学校", "P29_005": "青森県平川市高木松元7-6", "P29_006": "2", "P29_007": "0", "P29_008": "00", "P29_009": null }, "geometry": { "type": "Point", "coordinates": [ 140.581974953569528, 40.623721126680692 ] } },
{ "type": "Feature", "properties": { "P29_001": "02204", "P29_002": "D102210000601", "P29_003": "16004", "P29_004": "青森県立黒石高等学校", "P29_005": "青森県黒石市西ヶ丘65", "P29_006": "2", "P29_007": "0", "P29_008": "00", "P29_009": null }, "geometry": { "type": "Point", "coordinates": [ 140.587188095196666, 40.647275131383594 ] } },
{ "type": "Feature", "properties": { "P29_001": "02206", "P29_002": "D102210000610", "P29_003": "16004", "P29_004": "青森県立三本木農業恵拓高等学校", "P29_005": "青森県十和田市相坂高清水78-92", "P29_006": "2", "P29_007": "0", "P29_008": "00", "P29_009": null }, "geometry": { "type": "Point", "coordinates": [ 141.266176483203878, 40.639954439937647 ] } },
{ "type": "Feature", "properties": { "P29_001": "02205", "P29_002": "D102210000629", "P29_003": "16004", "P29_004": "青森県立五所川原工科高等学校", "P29_005": "青森県五所川原市湊船越192", "P29_006": "2", "P29_007": "0", "P29_008": "00", "P29_009": null }, "geometry": { "type": "Point", "coordinates": [ 140.446854755456656, 40.791902960532525 ] } },
{ "type": "Feature", "properties": { "P29_001": "02202", "P29_002": "D102310000011", "P29_003": "16004", "P29_004": "弘前学院聖愛高等学校", "P29_005": "青森県弘前市原ヶ平字山元112-21", "P29_006": "4", "P29_007": "0", "P29_008": "00", "P29_009": null }, "geometry": { "type": "Point", "coordinates": [ 140.470441470343758, 40.571417534093548 ] } },
{ "type": "Feature", "properties": { "P29_001": "02202", "P29_002": "D102310000020", "P29_003": "16004", "P29_004": "柴田学園大学附属柴田学園高等学校", "P29_005": "青森県弘前市豊原1-2-1", "P29_006": "4", "P29_007": "0", "P29_008": "00", "P29_009": null }, "geometry": { "type": "Point", "coordinates": [ 140.478656267220344, 40.58365714355525 ] } },
{ "type": "Feature", "properties": { "P29_001": "02202", "P29_002": "D102310000039", "P29_003": "16004", "P29_004": "東奥義塾高等学校", "P29_005": "青森県弘前市石川字長者森61-1", "P29_006": "4", "P29_007": "0", "P29_008": "00", "P29_009": null }, "geometry": { "type": "Point", "coordinates": [ 140.524416788302887, 40.553583646285624 ] } },
{ "type": "Feature", "properties": { "P29_001": "02201", "P29_002": "D102310000048", "P29_003": "16004", "P29_004": "東奥学園高等学校", "P29_005": "青森県青森市勝田2-11-1", "P29_006": "4", "P29_007": "0", "P29_008": "00", "P29_009": null }, "geometry": { "type": "Point", "coordinates": [ 140.756506235222986, 40.818662606957282 ] } },
{ "type": "Feature", "properties": { "P29_001": "02201", "P29_002": "D102310000057", "P29_003": "16004", "P29_004": "青森山田高等学校", "P29_005": "青森県青森市青葉3-13-40", "P29_006": "4", "P29_007": "0", "P29_008": "00", "P29_009": null }, "geometry": { "type": "Point", "coordinates": [ 140.749225565238731, 40.803910368918785 ] } },
{ "type": "Feature", "properties": { "P29_001": "02201", "P29_002": "D102310000066", "P29_003": "16004", "P29_004": "青森明の星高等学校", "P29_005": "青森県青森市浪打2-6-32", "P29_006": "4", "P29_007": "0", "P29_008": "00", "P29_009": null }, "geometry": { "type": "Point", "coordinates": [ 140.781700829489324, 40.824266145560074 ] } },
{ "type": "Feature", "properties": { "P29_001": "02203", "P29_002": "D102310000075", "P29_003": "16004", "P29_004": "千葉学園高等学校", "P29_005": "青森県八戸市類家1-1-11", "P29_006": "4", "P29_007": "0", "P29_008": "00", "P29_009": null }, "geometry": { "type": "Point", "coordinates": [ 141.49760630392467, 40.509077707073239 ] } },
{ "type": "Feature", "properties": { "P29_001": "02203", "P29_002": "D102310000084", "P29_003": "16004", "P29_004": "八戸聖ウルスラ学院高等学校", "P29_005": "青森県八戸市田面木字上野平53-2", "P29_006": "4", "P29_007": "0", "P29_008": "00", "P29_009": null }, "geometry": { "type": "Point", "coordinates": [ 141.449096788274147, 40.490534831643863 ] } },
{ "type": "Feature", "properties": { "P29_001": "02203", "P29_002": "D102310000093", "P29_003": "16004", "P29_004": "八戸学院光星高等学校", "P29_005": "青森県八戸市湊高台6-14-5", "P29_006": "4", "P29_007": "0", "P29_008": "00", "P29_009": null }, "geometry": { "type": "Point", "coordinates": [ 141.535863695075847, 40.513115864551196 ] } },
{ "type": "Feature", "properties": { "P29_001": "02203", "P29_002": "D102310000100", "P29_003": "16004", "P29_004": "八戸工業大学第一高等学校", "P29_005": "青森県八戸市白銀町字右岩淵通7-10", "P29_006": "4", "P29_007": "0", "P29_008": "00", "P29_009": null }, "geometry": { "type": "Point", "coordinates": [ 141.535900071711609, 40.520169661631058 ] } },
{ "type": "Feature", "properties": { "P29_001": "02205", "P29_002": "D102310000119", "P29_003": "16004", "P29_004": "五所川原第一高等学校", "P29_005": "青森県五所川原市元町42", "P29_006": "4", "P29_007": "0", "P29_008": "01", "P29_009": null }, "geometry": { "type": "Point", "coordinates": [ 140.441756383673379, 40.804375176850314 ] } },
{ "type": "Feature", "properties": { "P29_001": "02384", "P29_002": "D102310000128", "P29_003": "16004", "P29_004": "五所川原商業高等学校", "P29_005": "青森県五所川原市唐笠柳字藤巻80", "P29_006": "4", "P29_007": "0", "P29_008": "00", "P29_009": null }, "geometry": { "type": "Point", "coordinates": [ 140.439476087160216, 40.754155442334543 ] } },
{ "type": "Feature", "properties": { "P29_001": "02202", "P29_002": "D102310000137", "P29_003": "16004", "P29_004": "弘前東高等学校", "P29_005": "青森県弘前市川先4-4-1", "P29_006": "4", "P29_007": "0", "P29_008": "00", "P29_009": null }, "geometry": { "type": "Point", "coordinates": [ 140.490293878292135, 40.589778633463531 ] } },
{ "type": "Feature", "properties": { "P29_001": "02401", "P29_002": "D102310000146", "P29_003": "16004", "P29_004": "八戸学院野辺地西高等学校", "P29_005": "青森県上北郡野辺地町字枇杷野51-6", "P29_006": "4", "P29_007": "0", "P29_008": "00", "P29_009": null }, "geometry": { "type": "Point", "coordinates": [ 141.096430131216835, 40.853578584430629 ] } },
{ "type": "Feature", "properties": { "P29_001": "02301", "P29_002": "D102310000155", "P29_003": "16004", "P29_004": "松風塾高等学校", "P29_005": "青森県東津軽郡平内町外童子字滝ノ沢37", "P29_006": "4", "P29_007": "0", "P29_008": "00", "P29_009": null }, "geometry": { "type": "Point", "coordinates": [ 140.985825958514198, 40.849421439175089 ] } },
{ "type": "Feature", "properties": { "P29_001": "02203", "P29_002": "D102310000164", "P29_003": "16004", "P29_004": "八戸工業大学第二高等学校", "P29_005": "青森県八戸市妙字大開67", "P29_006": "4", "P29_007": "0", "P29_008": "00", "P29_009": null }, "geometry": { "type": "Point", "coordinates": [ 141.564513171594712, 40.477532738330176 ] } },
{ "type": "Feature", "properties": { "P29_001": "02203", "P29_002": "D102310000173", "P29_003": "16004", "P29_004": "向陵高等学校", "P29_005": "青森県八戸市田向2-2-6", "P29_006": "4", "P29_007": "0", "P29_008": "00", "P29_009": null }, "geometry": { "type": "Point", "coordinates": [ 141.511388000700009, 40.495785997088007 ] } },
{ "type": "Feature", "properties": { "P29_001": "02205", "P29_002": "D102310000119", "P29_003": "16004", "P29_004": "五所川原第一高等学校", "P29_005": "青森県五所川原市元町6-1", "P29_006": "4", "P29_007": "0", "P29_008": "02", "P29_009": "通信制課程" }, "geometry": { "type": "Point", "coordinates": [ 140.440215522941287, 40.80398369898915 ] } }
]
}
