{
"type": "FeatureCollection",
"name": "geo_02_福祉用具貸与",
"crs": { "type": "name", "properties": { "name": "urn:ogc:def:crs:OGC:1.3:CRS84" } },
"features": [
{ "type": "Feature", "properties": { "内容": "合同会社企業活性化研究所　ケア介護事業部【福祉用具貸与】青柳１丁目７－１９　パレーシャル青柳１０３号", "url": "https://www.kaigokensaku.mhlw.go.jp/02/index.php?action_kouhyou_detail_004_kani=true&JigyosyoCd=0270103179-00&ServiceCd=170&Type=search", "url2": null }, "geometry": { "type": "Point", "coordinates": [ 140.75631723454984, 40.828572166423271 ] } },
{ "type": "Feature", "properties": { "内容": "福祉用具サービス・ラポール【福祉用具貸与】青森県青森市港町2丁目１３－７", "url": "https://www.kaigokensaku.mhlw.go.jp/02/index.php?action_kouhyou_detail_004_kani=true&JigyosyoCd=0270105752-00&ServiceCd=170&Type=search", "url2": null }, "geometry": { "type": "Point", "coordinates": [ 140.764599099999941, 40.8311372 ] } },
{ "type": "Feature", "properties": { "内容": "福祉用具　虹呼【福祉用具貸与】青森県十和田市東十三番町３３番１８－１０号向井宅２Ｆ", "url": "https://www.kaigokensaku.mhlw.go.jp/02/index.php?action_kouhyou_detail_004_kani=true&JigyosyoCd=0270601339-00&ServiceCd=170&Type=search", "url2": null }, "geometry": { "type": "Point", "coordinates": [ 141.228859146661762, 40.616107229682306 ] } },
{ "type": "Feature", "properties": { "内容": "有限会社　青森ウイールチェアー【福祉用具貸与】青森県青森市大字八ツ役字矢作74番地8", "url": "https://www.kaigokensaku.mhlw.go.jp/02/index.php?action_kouhyou_detail_004_kani=true&JigyosyoCd=0270100803-00&ServiceCd=170&Type=search", "url2": "http://www.smile-help.com" }, "geometry": { "type": "Point", "coordinates": [ 140.758312, 40.7955914 ] } },
{ "type": "Feature", "properties": { "内容": "有限会社　トータルケアサービス【福祉用具貸与】青森市浜田字豊田128-18", "url": "https://www.kaigokensaku.mhlw.go.jp/02/index.php?action_kouhyou_detail_004_kani=true&JigyosyoCd=0270100845-00&ServiceCd=170&Type=search", "url2": null }, "geometry": { "type": "Point", "coordinates": [ 140.754965, 40.7983161 ] } },
{ "type": "Feature", "properties": { "内容": "株式会社　青森メディカル【福祉用具貸与】青森県青森市はまなす２丁目５番１号", "url": "https://www.kaigokensaku.mhlw.go.jp/02/index.php?action_kouhyou_detail_004_kani=true&JigyosyoCd=0270100936-00&ServiceCd=170&Type=search", "url2": null }, "geometry": { "type": "Point", "coordinates": [ 140.796438200000011, 40.8264585 ] } },
{ "type": "Feature", "properties": { "内容": "株式会社ケアライフ青森　福祉用具事業部【福祉用具貸与】青森県青森市卸町3番5号", "url": "https://www.kaigokensaku.mhlw.go.jp/02/index.php?action_kouhyou_detail_004_kani=true&JigyosyoCd=0270100985-00&ServiceCd=170&Type=search", "url2": "http://www.carelife-net.co.jp" }, "geometry": { "type": "Point", "coordinates": [ 140.75562919999993, 40.7849978 ] } },
{ "type": "Feature", "properties": { "内容": "ヘルスケア薬局【福祉用具貸与】青森県青森市橋本一丁目8番7号", "url": "https://www.kaigokensaku.mhlw.go.jp/02/index.php?action_kouhyou_detail_004_kani=true&JigyosyoCd=0270101470-00&ServiceCd=170&Type=search", "url2": null }, "geometry": { "type": "Point", "coordinates": [ 140.754333699999961, 40.8254969 ] } },
{ "type": "Feature", "properties": { "内容": "株式会社　多田木工製作所　ウェルランド青森店【福祉用具貸与】青森県青森市浪館前田4丁目29-3浅井アパート1F", "url": "https://www.kaigokensaku.mhlw.go.jp/02/index.php?action_kouhyou_detail_004_kani=true&JigyosyoCd=0270102528-00&ServiceCd=170&Type=search", "url2": "http://www.wel-land.com/" }, "geometry": { "type": "Point", "coordinates": [ 140.7216416, 40.8099279 ] } },
{ "type": "Feature", "properties": { "内容": "さいとうレンタルサービス【福祉用具貸与】青柳1丁目16番5-3号青森第3シニアホーム内さいとうレンタルサービス", "url": "https://www.kaigokensaku.mhlw.go.jp/02/index.php?action_kouhyou_detail_004_kani=true&JigyosyoCd=0270103997-00&ServiceCd=170&Type=search", "url2": null }, "geometry": { "type": "Point", "coordinates": [ 140.759269272491451, 40.830694346247427 ] } },
{ "type": "Feature", "properties": { "内容": "トヨタカローラ青森介護福祉用具相談室ベイコート店【福祉用具貸与】青森市沖館３丁目１番１８号ベイコートおきだて内１階", "url": "https://www.kaigokensaku.mhlw.go.jp/02/index.php?action_kouhyou_detail_004_kani=true&JigyosyoCd=0270104128-00&ServiceCd=170&Type=search", "url2": "http://www.toyota-ca.co.jp" }, "geometry": { "type": "Point", "coordinates": [ 140.724628420901468, 40.835444136131279 ] } },
{ "type": "Feature", "properties": { "内容": "ケアプラス青森店【福祉用具貸与】篠田1丁目26番23", "url": "https://www.kaigokensaku.mhlw.go.jp/02/index.php?action_kouhyou_detail_004_kani=true&JigyosyoCd=0270104375-00&ServiceCd=170&Type=search", "url2": null }, "geometry": { "type": "Point", "coordinates": [ 140.728843300000023, 40.8269562 ] } },
{ "type": "Feature", "properties": { "内容": "福祉用具サービス　あかつき【福祉用具貸与】青森県青森市大字油川字千刈51番地2", "url": "https://www.kaigokensaku.mhlw.go.jp/02/index.php?action_kouhyou_detail_004_kani=true&JigyosyoCd=0270104433-00&ServiceCd=170&Type=search", "url2": null }, "geometry": { "type": "Point", "coordinates": [ 140.702986427199932, 40.844212987115569 ] } },
{ "type": "Feature", "properties": { "内容": "アピイライフエイド【福祉用具貸与】青森県青森市問屋町1丁目7-21", "url": "https://www.kaigokensaku.mhlw.go.jp/02/index.php?action_kouhyou_detail_004_kani=true&JigyosyoCd=0270105075-00&ServiceCd=170&Type=search", "url2": "http://ape-life.com/" }, "geometry": { "type": "Point", "coordinates": [ 140.750842604874123, 40.789742445102632 ] } },
{ "type": "Feature", "properties": { "内容": "いきいきライフ【福祉用具貸与】青森県青森市勝田1丁目20番1号ハッピータウン2F", "url": "https://www.kaigokensaku.mhlw.go.jp/02/index.php?action_kouhyou_detail_004_kani=true&JigyosyoCd=0270105224-00&ServiceCd=170&Type=search", "url2": null }, "geometry": { "type": "Point", "coordinates": [ 140.754399899999953, 40.8188113 ] } },
{ "type": "Feature", "properties": { "内容": "福祉用具貸与販売アミューズ【福祉用具貸与】浪岡大字浪岡字若松120番地3若松プラザC", "url": "https://www.kaigokensaku.mhlw.go.jp/02/index.php?action_kouhyou_detail_004_kani=true&JigyosyoCd=0270105778-00&ServiceCd=170&Type=search", "url2": null }, "geometry": { "type": "Point", "coordinates": [ 140.58919990000004, 40.708561 ] } },
{ "type": "Feature", "properties": { "内容": "あうら　福祉用具【福祉用具貸与】青森県青森市港町2丁目10番13号", "url": "https://www.kaigokensaku.mhlw.go.jp/02/index.php?action_kouhyou_detail_004_kani=true&JigyosyoCd=0270105836-00&ServiceCd=170&Type=search", "url2": "http://www.aura-group.jp/wp/" }, "geometry": { "type": "Point", "coordinates": [ 140.763588806745929, 40.830912271577539 ] } },
{ "type": "Feature", "properties": { "内容": "福祉用具サービス七ツ星【福祉用具貸与】青森県青森市東大野2丁目3-7", "url": "https://www.kaigokensaku.mhlw.go.jp/02/index.php?action_kouhyou_detail_004_kani=true&JigyosyoCd=0270106180-00&ServiceCd=170&Type=search", "url2": "http://www.nijiweb.net" }, "geometry": { "type": "Point", "coordinates": [ 140.742508189618661, 40.798139288606542 ] } },
{ "type": "Feature", "properties": { "内容": "株式会社　ケアネット【福祉用具貸与】青森市浪岡大字徳才子字早稲田1-1", "url": "https://www.kaigokensaku.mhlw.go.jp/02/index.php?action_kouhyou_detail_004_kani=true&JigyosyoCd=0270106198-00&ServiceCd=170&Type=search", "url2": null }, "geometry": { "type": "Point", "coordinates": [ 140.5873398, 40.7513042 ] } },
{ "type": "Feature", "properties": { "内容": "やさしい手　住環境事業部青森営業所【福祉用具貸与】青森県青森市大字安田字近野160-3やさしい手　住環境事業部青森営業所", "url": "https://www.kaigokensaku.mhlw.go.jp/02/index.php?action_kouhyou_detail_004_kani=true&JigyosyoCd=0270106222-00&ServiceCd=170&Type=search", "url2": "https://www.yasashiite.com/subdomains/section/618/" }, "geometry": { "type": "Point", "coordinates": [ 140.704884426458733, 40.803538830089046 ] } },
{ "type": "Feature", "properties": { "内容": "福祉用具サービス　リアン【福祉用具貸与】青森県青森市大字大野字前田66番地24五番館F105号", "url": "https://www.kaigokensaku.mhlw.go.jp/02/index.php?action_kouhyou_detail_004_kani=true&JigyosyoCd=0270106479-00&ServiceCd=170&Type=search", "url2": "https//www.rian-aomori.com" }, "geometry": { "type": "Point", "coordinates": [ 140.737154328836027, 40.799184726220695 ] } },
{ "type": "Feature", "properties": { "内容": "住まいる・ケアサポート【福祉用具貸与】青森県青森市浪岡大字浪岡字若松１７２－８", "url": "https://www.kaigokensaku.mhlw.go.jp/02/index.php?action_kouhyou_detail_004_kani=true&JigyosyoCd=0270106644-00&ServiceCd=170&Type=search", "url2": null }, "geometry": { "type": "Point", "coordinates": [ 140.588854199999986, 40.7069505 ] } },
{ "type": "Feature", "properties": { "内容": "さくらケアリース東青【福祉用具貸与】青森県青森市原別3丁目4番12-105号コーポ園", "url": "https://www.kaigokensaku.mhlw.go.jp/02/index.php?action_kouhyou_detail_004_kani=true&JigyosyoCd=0270106669-00&ServiceCd=170&Type=search", "url2": null }, "geometry": { "type": "Point", "coordinates": [ 140.807957, 40.8362558 ] } },
{ "type": "Feature", "properties": { "内容": "株式会社ケア・テック青森営業所【福祉用具貸与】青森県青森市大野前田68-12", "url": "https://www.kaigokensaku.mhlw.go.jp/02/index.php?action_kouhyou_detail_004_kani=true&JigyosyoCd=0270106248-00&ServiceCd=170&Type=search", "url2": "https://www.caretec.co.jp/" }, "geometry": { "type": "Point", "coordinates": [ 140.734742300000022, 40.800418 ] } },
{ "type": "Feature", "properties": { "内容": "株式会社　イリエ【福祉用具貸与】青森県青森市大字安田字近野366番地6", "url": "https://www.kaigokensaku.mhlw.go.jp/02/index.php?action_kouhyou_detail_004_kani=true&JigyosyoCd=0270100548-00&ServiceCd=170&Type=search", "url2": "http://irie-pro.com" }, "geometry": { "type": "Point", "coordinates": [ 140.711737299999982, 40.8012509 ] } },
{ "type": "Feature", "properties": { "内容": "有限会社ケアエナジー青森【福祉用具貸与】青森県青森市大字矢田前字本泉１８番地１８", "url": "https://www.kaigokensaku.mhlw.go.jp/02/index.php?action_kouhyou_detail_004_kani=true&JigyosyoCd=0270102056-00&ServiceCd=170&Type=search", "url2": "care.energie.aomori@ceres.ocn.ne.jp" }, "geometry": { "type": "Point", "coordinates": [ 140.806867236402667, 40.830215084689407 ] } },
{ "type": "Feature", "properties": { "内容": "まちだ福祉用具貸与　青森【福祉用具貸与】青森市大字羽白字沢田48-10", "url": "https://www.kaigokensaku.mhlw.go.jp/02/index.php?action_kouhyou_detail_004_kani=true&JigyosyoCd=0270102957-00&ServiceCd=170&Type=search", "url2": "kojin-renral@chic.ocn.ne.jp" }, "geometry": { "type": "Point", "coordinates": [ 140.6900233, 40.8544552 ] } },
{ "type": "Feature", "properties": { "内容": "なごやか介護サービスセンター【福祉用具貸与】青森県青森市前田字中野23-1", "url": "https://www.kaigokensaku.mhlw.go.jp/02/index.php?action_kouhyou_detail_004_kani=true&JigyosyoCd=0270103237-00&ServiceCd=170&Type=search", "url2": "info@nagoyaka09.com" }, "geometry": { "type": "Point", "coordinates": [ 140.673951200000033, 40.8974611 ] } },
{ "type": "Feature", "properties": { "内容": "福祉用具えんのした【福祉用具貸与】青森県青森市中央3丁目2番7号", "url": "https://www.kaigokensaku.mhlw.go.jp/02/index.php?action_kouhyou_detail_004_kani=true&JigyosyoCd=0270105968-00&ServiceCd=170&Type=search", "url2": null }, "geometry": { "type": "Point", "coordinates": [ 140.7441551, 40.8173384 ] } },
{ "type": "Feature", "properties": { "内容": "ダスキンヘルスレント青森ステーション【福祉用具貸与】青森県青森市はまなす１丁目17番地18号", "url": "https://www.kaigokensaku.mhlw.go.jp/02/index.php?action_kouhyou_detail_004_kani=true&JigyosyoCd=0270106032-00&ServiceCd=170&Type=search", "url2": "healthrent.duskin.jp" }, "geometry": { "type": "Point", "coordinates": [ 140.797408799999971, 40.822012 ] } },
{ "type": "Feature", "properties": { "内容": "有限会社　青森ケアサプライ【福祉用具貸与】青森市篠田１丁目２２番２３号", "url": "https://www.kaigokensaku.mhlw.go.jp/02/index.php?action_kouhyou_detail_004_kani=true&JigyosyoCd=0270101181-00&ServiceCd=170&Type=search", "url2": null }, "geometry": { "type": "Point", "coordinates": [ 140.730529400000023, 40.8287765 ] } },
{ "type": "Feature", "properties": { "内容": "株式会社　シバタ医理科【福祉用具貸与】青森県弘前市高田３丁目７－１", "url": "https://www.kaigokensaku.mhlw.go.jp/02/index.php?action_kouhyou_detail_004_kani=true&JigyosyoCd=0270200538-00&ServiceCd=170&Type=search", "url2": null }, "geometry": { "type": "Point", "coordinates": [ 140.505332800000019, 40.6011841 ] } },
{ "type": "Feature", "properties": { "内容": "介護用品販売・レンタル　きずな【福祉用具貸与】青森県弘前市大字高崎二丁目７－７", "url": "https://www.kaigokensaku.mhlw.go.jp/02/index.php?action_kouhyou_detail_004_kani=true&JigyosyoCd=0270201049-00&ServiceCd=170&Type=search", "url2": "http://www.kizuna-hirosaki.com/" }, "geometry": { "type": "Point", "coordinates": [ 140.494003199999952, 40.6088801 ] } },
{ "type": "Feature", "properties": { "内容": "ひなた宮川【福祉用具貸与】青森県弘前市青山２丁目1-2", "url": "https://www.kaigokensaku.mhlw.go.jp/02/index.php?action_kouhyou_detail_004_kani=true&JigyosyoCd=0270202187-00&ServiceCd=170&Type=search", "url2": "http://www.jhd.ne.jp/" }, "geometry": { "type": "Point", "coordinates": [ 140.48115689600067, 40.621567086800979 ] } },
{ "type": "Feature", "properties": { "内容": "株式会社フィット・ケアサービス【福祉用具貸与】青森県弘前市泉野四丁目２－１１", "url": "https://www.kaigokensaku.mhlw.go.jp/02/index.php?action_kouhyou_detail_004_kani=true&JigyosyoCd=0270202641-00&ServiceCd=170&Type=search", "url2": null }, "geometry": { "type": "Point", "coordinates": [ 140.495468699999947, 40.577005600000014 ] } },
{ "type": "Feature", "properties": { "内容": "高舘山福祉用具サービス【福祉用具貸与】青森県弘前市大字五代字沼田13番地5", "url": "https://www.kaigokensaku.mhlw.go.jp/02/index.php?action_kouhyou_detail_004_kani=true&JigyosyoCd=0270202724-00&ServiceCd=170&Type=search", "url2": "http://zenseikai.com/" }, "geometry": { "type": "Point", "coordinates": [ 140.408158899999989, 40.6127545 ] } },
{ "type": "Feature", "properties": { "内容": "サカエ福祉サービス弘前【福祉用具貸与】津賀野字浅田996", "url": "https://www.kaigokensaku.mhlw.go.jp/02/index.php?action_kouhyou_detail_004_kani=true&JigyosyoCd=0270203318-00&ServiceCd=170&Type=search", "url2": "http://www.machida2.co.jp/" }, "geometry": { "type": "Point", "coordinates": [ 140.497027600000024, 40.612913 ] } },
{ "type": "Feature", "properties": { "内容": "福祉用具貸与事業所くんぷうしゃ【福祉用具貸与】青森県弘前市代官町86番地", "url": "https://www.kaigokensaku.mhlw.go.jp/02/index.php?action_kouhyou_detail_004_kani=true&JigyosyoCd=0270203631-00&ServiceCd=170&Type=search", "url2": "http://www.mitsuwa-group.co.jp" }, "geometry": { "type": "Point", "coordinates": [ 140.477491200000031, 40.5992307 ] } },
{ "type": "Feature", "properties": { "内容": "株式会社サンメディカル弘前営業所【福祉用具貸与】青森県弘前市大字大町1丁目18-6", "url": "https://www.kaigokensaku.mhlw.go.jp/02/index.php?action_kouhyou_detail_004_kani=true&JigyosyoCd=0270203748-00&ServiceCd=170&Type=search", "url2": "https://sunme.co.jp/" }, "geometry": { "type": "Point", "coordinates": [ 140.484508135581962, 40.595246473338463 ] } },
{ "type": "Feature", "properties": { "内容": "株式会社ハピネスケア【福祉用具貸与】青森県弘前市清原３丁目３－１３", "url": "https://www.kaigokensaku.mhlw.go.jp/02/index.php?action_kouhyou_detail_004_kani=true&JigyosyoCd=0270203961-00&ServiceCd=170&Type=search", "url2": null }, "geometry": { "type": "Point", "coordinates": [ 140.490991099999974, 40.5813466 ] } },
{ "type": "Feature", "properties": { "内容": "東北化学薬品株式会社【福祉用具貸与】青森県弘前市大字神田１丁目２番地の１４東北化学薬品株式会社　本社別館", "url": "https://www.kaigokensaku.mhlw.go.jp/02/index.php?action_kouhyou_detail_004_kani=true&JigyosyoCd=0270204431-00&ServiceCd=170&Type=search", "url2": null }, "geometry": { "type": "Point", "coordinates": [ 140.4891877, 40.6201938 ] } },
{ "type": "Feature", "properties": { "内容": "医療法人　仙知会　福祉用具貸与事業所【福祉用具貸与】青森県弘前市大字高杉字五反田174番地3", "url": "https://www.kaigokensaku.mhlw.go.jp/02/index.php?action_kouhyou_detail_004_kani=true&JigyosyoCd=0272200270-00&ServiceCd=170&Type=search", "url2": "https://senchikai.jp/" }, "geometry": { "type": "Point", "coordinates": [ 140.4318323, 40.6628773 ] } },
{ "type": "Feature", "properties": { "内容": "株式会社ケア・テック弘前営業所【福祉用具貸与】青森県弘前市大字青山4-20-3", "url": "https://www.kaigokensaku.mhlw.go.jp/02/index.php?action_kouhyou_detail_004_kani=true&JigyosyoCd=0270203888-00&ServiceCd=170&Type=search", "url2": "http://www.caretec.co.jp" }, "geometry": { "type": "Point", "coordinates": [ 140.483116900000027, 40.6269193 ] } },
{ "type": "Feature", "properties": { "内容": "たんぽぽ【福祉用具貸与】青森県弘前市宮川3-17-13B号", "url": "https://www.kaigokensaku.mhlw.go.jp/02/index.php?action_kouhyou_detail_004_kani=true&JigyosyoCd=0270203433-00&ServiceCd=170&Type=search", "url2": null }, "geometry": { "type": "Point", "coordinates": [ 140.485896700000012, 40.6142344 ] } },
{ "type": "Feature", "properties": { "内容": "亀屋株式会社弘前店【福祉用具貸与】青森県弘前市田園1-12-5", "url": "https://www.kaigokensaku.mhlw.go.jp/02/index.php?action_kouhyou_detail_004_kani=true&JigyosyoCd=0270202245-00&ServiceCd=170&Type=search", "url2": "http://www" }, "geometry": { "type": "Point", "coordinates": [ 140.505357600000025, 40.604281 ] } },
{ "type": "Feature", "properties": { "内容": "ダスキンヘルスレント弘前ステーション【福祉用具貸与】青森県弘前市川先1-3-12", "url": "https://www.kaigokensaku.mhlw.go.jp/02/index.php?action_kouhyou_detail_004_kani=true&JigyosyoCd=0270203458-00&ServiceCd=170&Type=search", "url2": "http://healthrent.duskin.jp/" }, "geometry": { "type": "Point", "coordinates": [ 140.492647248491579, 40.588689742087681 ] } },
{ "type": "Feature", "properties": { "内容": "ハピネス福祉サービス【福祉用具貸与】青森県弘前市大字松原西三丁目7-20", "url": "https://www.kaigokensaku.mhlw.go.jp/02/index.php?action_kouhyou_detail_004_kani=true&JigyosyoCd=0270203474-00&ServiceCd=170&Type=search", "url2": null }, "geometry": { "type": "Point", "coordinates": [ 140.501608526523654, 40.578837934522689 ] } },
{ "type": "Feature", "properties": { "内容": "ニチイケアセンター八戸【福祉用具貸与】八戸市根城3丁目4-17", "url": "https://www.kaigokensaku.mhlw.go.jp/02/index.php?action_kouhyou_detail_004_kani=true&JigyosyoCd=0270300502-00&ServiceCd=170&Type=search", "url2": "http://www.nichiigakkan.co.jp" }, "geometry": { "type": "Point", "coordinates": [ 141.475696821426368, 40.502572436366975 ] } },
{ "type": "Feature", "properties": { "内容": "ライフサポートここら【福祉用具貸与】青森県八戸市桜ケ丘2-38-28", "url": "https://www.kaigokensaku.mhlw.go.jp/02/index.php?action_kouhyou_detail_004_kani=true&JigyosyoCd=0270304421-00&ServiceCd=170&Type=search", "url2": "https://lifesup-cocora.com/lifesupportcocora-mains" }, "geometry": { "type": "Point", "coordinates": [ 141.5501189, 40.4937185 ] } },
{ "type": "Feature", "properties": { "内容": "ダスキンヘルスレント八戸ステーション【福祉用具貸与】青森県八戸市長苗代４丁目１－２０", "url": "https://www.kaigokensaku.mhlw.go.jp/02/index.php?action_kouhyou_detail_004_kani=true&JigyosyoCd=0270303118-00&ServiceCd=170&Type=search", "url2": "http://healthrent.duskin.jp/" }, "geometry": { "type": "Point", "coordinates": [ 141.473875231213384, 40.520151567375727 ] } },
{ "type": "Feature", "properties": { "内容": "株式会社　ジェー・シー・アイ　八戸支店【福祉用具貸与】青森県八戸市売市三丁目2-5", "url": "https://www.kaigokensaku.mhlw.go.jp/02/index.php?action_kouhyou_detail_004_kani=true&JigyosyoCd=0270300346-00&ServiceCd=170&Type=search", "url2": "https://jci-1000nen.co.jp/" }, "geometry": { "type": "Point", "coordinates": [ 141.472472899999957, 40.5093451 ] } },
{ "type": "Feature", "properties": { "内容": "奥羽特装販売株式会社　アメニティ・ライフ【福祉用具貸与】青森県八戸市八太郎一丁目1番8号", "url": "https://www.kaigokensaku.mhlw.go.jp/02/index.php?action_kouhyou_detail_004_kani=true&JigyosyoCd=0270300494-00&ServiceCd=170&Type=search", "url2": "http://www.amenitylife.info" }, "geometry": { "type": "Point", "coordinates": [ 141.489728300000024, 40.5364775 ] } },
{ "type": "Feature", "properties": { "内容": "有限会社くろはん【福祉用具貸与】青森県八戸市城下一丁目７番９号", "url": "https://www.kaigokensaku.mhlw.go.jp/02/index.php?action_kouhyou_detail_004_kani=true&JigyosyoCd=0270300643-00&ServiceCd=170&Type=search", "url2": "http://www.kurohan.co.jp/" }, "geometry": { "type": "Point", "coordinates": [ 141.489495600000026, 40.5172915 ] } },
{ "type": "Feature", "properties": { "内容": "株式会社ケア・テック八戸営業所【福祉用具貸与】青森県八戸市根城三丁目１８番３号", "url": "https://www.kaigokensaku.mhlw.go.jp/02/index.php?action_kouhyou_detail_004_kani=true&JigyosyoCd=0270300742-00&ServiceCd=170&Type=search", "url2": "http://www.caretec.co.jp/" }, "geometry": { "type": "Point", "coordinates": [ 141.473520099999973, 40.5039708 ] } },
{ "type": "Feature", "properties": { "内容": "有限会社ケアショップノザワ【福祉用具貸与】青森県八戸市小中野５丁目２番５号　大町マンションテナントＤ", "url": "https://www.kaigokensaku.mhlw.go.jp/02/index.php?action_kouhyou_detail_004_kani=true&JigyosyoCd=0270300916-00&ServiceCd=170&Type=search", "url2": "http://nozawa.hp.gogo.jp/" }, "geometry": { "type": "Point", "coordinates": [ 141.51264771573031, 40.520215280042095 ] } },
{ "type": "Feature", "properties": { "内容": "ケアサプライアルック【福祉用具貸与】青森県八戸市大久保字大山７４番地４", "url": "https://www.kaigokensaku.mhlw.go.jp/02/index.php?action_kouhyou_detail_004_kani=true&JigyosyoCd=0270301179-00&ServiceCd=170&Type=search", "url2": null }, "geometry": { "type": "Point", "coordinates": [ 141.578565300000037, 40.4884221 ] } },
{ "type": "Feature", "properties": { "内容": "中村介護保険サービス【福祉用具貸与】八戸市内丸2丁目2番1号", "url": "https://www.kaigokensaku.mhlw.go.jp/02/index.php?action_kouhyou_detail_004_kani=true&JigyosyoCd=0270301369-00&ServiceCd=170&Type=search", "url2": null }, "geometry": { "type": "Point", "coordinates": [ 141.4897095, 40.5155195 ] } },
{ "type": "Feature", "properties": { "内容": "有限会社　くらし工房　大永【福祉用具貸与】青森県八戸市大字田向字向平24－8", "url": "https://www.kaigokensaku.mhlw.go.jp/02/index.php?action_kouhyou_detail_004_kani=true&JigyosyoCd=0270301922-00&ServiceCd=170&Type=search", "url2": null }, "geometry": { "type": "Point", "coordinates": [ 141.504630398174868, 40.490251990403024 ] } },
{ "type": "Feature", "properties": { "内容": "ケアステーション　ハピネスはちのへ【福祉用具貸与】青森県八戸市大字新荒町１２番１２", "url": "https://www.kaigokensaku.mhlw.go.jp/02/index.php?action_kouhyou_detail_004_kani=true&JigyosyoCd=0270301971-00&ServiceCd=170&Type=search", "url2": "http://family-wf.jp/" }, "geometry": { "type": "Point", "coordinates": [ 141.4830078, 40.5065096 ] } },
{ "type": "Feature", "properties": { "内容": "株式会社サンメディカル　八戸営業所【福祉用具貸与】青森県八戸市石堂3丁目9-4", "url": "https://www.kaigokensaku.mhlw.go.jp/02/index.php?action_kouhyou_detail_004_kani=true&JigyosyoCd=0270302466-00&ServiceCd=170&Type=search", "url2": "https://sunme.jp/" }, "geometry": { "type": "Point", "coordinates": [ 141.478727327347542, 40.525229709520723 ] } },
{ "type": "Feature", "properties": { "内容": "有限会社大平商事【福祉用具貸与】青森県八戸市類家2丁目7-46", "url": "https://www.kaigokensaku.mhlw.go.jp/02/index.php?action_kouhyou_detail_004_kani=true&JigyosyoCd=0270302540-00&ServiceCd=170&Type=search", "url2": "https://taihei-syoji.com/" }, "geometry": { "type": "Point", "coordinates": [ 141.5007727, 40.5038653 ] } },
{ "type": "Feature", "properties": { "内容": "ひので福祉用具相談センター【福祉用具貸与】長根２丁目１４－２", "url": "https://www.kaigokensaku.mhlw.go.jp/02/index.php?action_kouhyou_detail_004_kani=true&JigyosyoCd=0270302821-00&ServiceCd=170&Type=search", "url2": "https://sunrise-team.com/" }, "geometry": { "type": "Point", "coordinates": [ 141.475172400000019, 40.5155193 ] } },
{ "type": "Feature", "properties": { "内容": "クーラスケアサービス【福祉用具貸与】青森県八戸市西白山台５丁目３－１７", "url": "https://www.kaigokensaku.mhlw.go.jp/02/index.php?action_kouhyou_detail_004_kani=true&JigyosyoCd=0270303019-00&ServiceCd=170&Type=search", "url2": "https://www.cooras.com/" }, "geometry": { "type": "Point", "coordinates": [ 141.456893796889545, 40.474975511021917 ] } },
{ "type": "Feature", "properties": { "内容": "有限会社ケアサポートホソタ　八戸営業所【福祉用具貸与】青森県八戸市大字白銀町字大沢頭29-1", "url": "https://www.kaigokensaku.mhlw.go.jp/02/index.php?action_kouhyou_detail_004_kani=true&JigyosyoCd=0270304199-00&ServiceCd=170&Type=search", "url2": null }, "geometry": { "type": "Point", "coordinates": [ 141.538417653969105, 40.517807726256557 ] } },
{ "type": "Feature", "properties": { "内容": "株式会社サンメディックス　シルバーレンタルサービス【福祉用具貸与】青森県八戸市河原木八太郎山10-624", "url": "https://www.kaigokensaku.mhlw.go.jp/02/index.php?action_kouhyou_detail_004_kani=true&JigyosyoCd=0270301138-00&ServiceCd=170&Type=search", "url2": null }, "geometry": { "type": "Point", "coordinates": [ 141.482770399999907, 40.5519673 ] } },
{ "type": "Feature", "properties": { "内容": "パナソニックエイジフリーショップ青森【福祉用具貸与】青森県八戸市桔梗野工業団地三丁目1-43", "url": "https://www.kaigokensaku.mhlw.go.jp/02/index.php?action_kouhyou_detail_004_kani=true&JigyosyoCd=0270303779-00&ServiceCd=170&Type=search", "url2": "http://www.kaigoshop.net/aomori/" }, "geometry": { "type": "Point", "coordinates": [ 141.457375800000023, 40.5707039 ] } },
{ "type": "Feature", "properties": { "内容": "有限会社　ジャストサービス【福祉用具貸与】青森県黒石市大字市ノ町４８番地", "url": "https://www.kaigokensaku.mhlw.go.jp/02/index.php?action_kouhyou_detail_004_kani=true&JigyosyoCd=0270400146-00&ServiceCd=170&Type=search", "url2": "http://www.just-service.jp" }, "geometry": { "type": "Point", "coordinates": [ 140.5934648, 40.6436567 ] } },
{ "type": "Feature", "properties": { "内容": "株式会社　ビーエス【福祉用具貸与】青森県黒石市大字上町１５番地１", "url": "https://www.kaigokensaku.mhlw.go.jp/02/index.php?action_kouhyou_detail_004_kani=true&JigyosyoCd=0270400195-00&ServiceCd=170&Type=search", "url2": "http://www.upto-care.net/bs537057/" }, "geometry": { "type": "Point", "coordinates": [ 140.591884400000026, 40.6442954 ] } },
{ "type": "Feature", "properties": { "内容": "ライフサポート元気【福祉用具貸与】青森県黒石市柵ノ木4丁目19番地", "url": "https://www.kaigokensaku.mhlw.go.jp/02/index.php?action_kouhyou_detail_004_kani=true&JigyosyoCd=0270400476-00&ServiceCd=170&Type=search", "url2": "http://www.kuromitu.co.jp/genki" }, "geometry": { "type": "Point", "coordinates": [ 140.613052599999946, 40.6400133 ] } },
{ "type": "Feature", "properties": { "内容": "サカエ福祉サービス【福祉用具貸与】青森県五所川原市弥生町18-8", "url": "https://www.kaigokensaku.mhlw.go.jp/02/index.php?action_kouhyou_detail_004_kani=true&JigyosyoCd=0270500879-00&ServiceCd=170&Type=search", "url2": "http://www.machida2.co.jp/" }, "geometry": { "type": "Point", "coordinates": [ 140.4459534, 40.8064329 ] } },
{ "type": "Feature", "properties": { "内容": "まつしまレンタルサービス【福祉用具貸与】水野尾字懸樋217-6", "url": "https://www.kaigokensaku.mhlw.go.jp/02/index.php?action_kouhyou_detail_004_kani=true&JigyosyoCd=0270501158-00&ServiceCd=170&Type=search", "url2": null }, "geometry": { "type": "Point", "coordinates": [ 140.482967280265569, 40.790979338343554 ] } },
{ "type": "Feature", "properties": { "内容": "ニチイケアセンター十和田【福祉用具貸与】青森県十和田市稲生町4-23第一田中ﾋﾞﾙ4階", "url": "https://www.kaigokensaku.mhlw.go.jp/02/index.php?action_kouhyou_detail_004_kani=true&JigyosyoCd=0270600083-00&ServiceCd=170&Type=search", "url2": "http://www.nichiigakkan.co.jp" }, "geometry": { "type": "Point", "coordinates": [ 141.210648499999934, 40.6201636 ] } },
{ "type": "Feature", "properties": { "内容": "株式会社　相坂屋【福祉用具貸与】青森県十和田市稲生町１５－１２", "url": "https://www.kaigokensaku.mhlw.go.jp/02/index.php?action_kouhyou_detail_004_kani=true&JigyosyoCd=0270600166-00&ServiceCd=170&Type=search", "url2": "http://oosakaya.info/index.html" }, "geometry": { "type": "Point", "coordinates": [ 141.213460717860471, 40.614290887311689 ] } },
{ "type": "Feature", "properties": { "内容": "株式会社　サンメディックス　シルバーレンタルサービスとわだ【福祉用具貸与】青森県十和田市相坂字高清水78-189", "url": "https://www.kaigokensaku.mhlw.go.jp/02/index.php?action_kouhyou_detail_004_kani=true&JigyosyoCd=0270600273-00&ServiceCd=170&Type=search", "url2": null }, "geometry": { "type": "Point", "coordinates": [ 141.268467500000042, 40.6383135 ] } },
{ "type": "Feature", "properties": { "内容": "有限会社　サクラメディック【福祉用具貸与】青森県十和田市大字三本木字西金崎371番地6", "url": "https://www.kaigokensaku.mhlw.go.jp/02/index.php?action_kouhyou_detail_004_kani=true&JigyosyoCd=0270600430-00&ServiceCd=170&Type=search", "url2": "info@sakuramedic.com" }, "geometry": { "type": "Point", "coordinates": [ 141.192123779940403, 40.60588616115551 ] } },
{ "type": "Feature", "properties": { "内容": "十和田テクノエイドサービス【福祉用具貸与】青森県十和田市元町西一丁目13-36", "url": "https://www.kaigokensaku.mhlw.go.jp/02/index.php?action_kouhyou_detail_004_kani=true&JigyosyoCd=0270600505-00&ServiceCd=170&Type=search", "url2": "http://www.fukushinosato.com" }, "geometry": { "type": "Point", "coordinates": [ 141.202774399999896, 40.6207912 ] } },
{ "type": "Feature", "properties": { "内容": "ＪＡ十和田おいらせ福祉用具センター「きずな」【福祉用具貸与】十和田市東一番町6-51JA十和田おいらせ三本木事業所1階", "url": "https://www.kaigokensaku.mhlw.go.jp/02/index.php?action_kouhyou_detail_004_kani=true&JigyosyoCd=0270600778-00&ServiceCd=170&Type=search", "url2": "https://echo-aomori.jp/welfare/" }, "geometry": { "type": "Point", "coordinates": [ 141.214019183992008, 40.619841701229795 ] } },
{ "type": "Feature", "properties": { "内容": "十和田第一病院　福祉用具貸与事業所【福祉用具貸与】青森県十和田市西四番町２番７号", "url": "https://www.kaigokensaku.mhlw.go.jp/02/index.php?action_kouhyou_detail_004_kani=true&JigyosyoCd=0270600885-00&ServiceCd=170&Type=search", "url2": null }, "geometry": { "type": "Point", "coordinates": [ 141.216820399999961, 40.6079842 ] } },
{ "type": "Feature", "properties": { "内容": "有限会社　ア・ジェント【福祉用具貸与】西二十三番町15-4", "url": "https://www.kaigokensaku.mhlw.go.jp/02/index.php?action_kouhyou_detail_004_kani=true&JigyosyoCd=0270601206-00&ServiceCd=170&Type=search", "url2": "https://a-jent.wixsite.com" }, "geometry": { "type": "Point", "coordinates": [ 141.2036349, 40.6053001 ] } },
{ "type": "Feature", "properties": { "内容": "有限会社ノガワ家具センター【福祉用具貸与】三沢市日の出1-94-496", "url": "https://www.kaigokensaku.mhlw.go.jp/02/index.php?action_kouhyou_detail_004_kani=true&JigyosyoCd=0270700362-00&ServiceCd=170&Type=search", "url2": "i-nogawa.com" }, "geometry": { "type": "Point", "coordinates": [ 141.37968950000004, 40.674907 ] } },
{ "type": "Feature", "properties": { "内容": "ニチイケアセンターむつ中央【福祉用具貸与】青森県むつ市旭町7-47", "url": "https://www.kaigokensaku.mhlw.go.jp/02/index.php?action_kouhyou_detail_004_kani=true&JigyosyoCd=0270800345-00&ServiceCd=170&Type=search", "url2": "http://www.nichiigakkan.co.jp" }, "geometry": { "type": "Point", "coordinates": [ 141.1818508, 41.2891182 ] } },
{ "type": "Feature", "properties": { "内容": "株式会社　シルバーサービス【福祉用具貸与】青森県むつ市横迎町２丁目９番１３号", "url": "https://www.kaigokensaku.mhlw.go.jp/02/index.php?action_kouhyou_detail_004_kani=true&JigyosyoCd=0270800139-00&ServiceCd=170&Type=search", "url2": null }, "geometry": { "type": "Point", "coordinates": [ 141.219836799999939, 41.2971297 ] } },
{ "type": "Feature", "properties": { "内容": "有限会社関商店【福祉用具貸与】青森県むつ市横迎町二丁目２番８号", "url": "https://www.kaigokensaku.mhlw.go.jp/02/index.php?action_kouhyou_detail_004_kani=true&JigyosyoCd=0270800188-00&ServiceCd=170&Type=search", "url2": "http://www.seki-syouten.com/" }, "geometry": { "type": "Point", "coordinates": [ 141.217495500000041, 41.2935438 ] } },
{ "type": "Feature", "properties": { "内容": "有限会社アトムスプランニング　ケア・サポートマデニィ【福祉用具貸与】むつ市柳町一丁目9-7", "url": "https://www.kaigokensaku.mhlw.go.jp/02/index.php?action_kouhyou_detail_004_kani=true&JigyosyoCd=0270800634-00&ServiceCd=170&Type=search", "url2": null }, "geometry": { "type": "Point", "coordinates": [ 141.2151371, 41.2982211 ] } },
{ "type": "Feature", "properties": { "内容": "トヨタカローラ青森株式会社介護福祉用具相談室柏店【福祉用具貸与】青森県つがる市柏鷺坂清留25番地", "url": "https://www.kaigokensaku.mhlw.go.jp/02/index.php?action_kouhyou_detail_004_kani=true&JigyosyoCd=0270900152-00&ServiceCd=170&Type=search", "url2": "http://www.toyota-ca.co.jp" }, "geometry": { "type": "Point", "coordinates": [ 140.4269716, 40.8081877 ] } },
{ "type": "Feature", "properties": { "内容": "トヨタカローラ青森(株)介護福祉用具相談室【福祉用具貸与】平川市日沼富岳29-2", "url": "https://www.kaigokensaku.mhlw.go.jp/02/index.php?action_kouhyou_detail_004_kani=true&JigyosyoCd=0271000010-00&ServiceCd=170&Type=search", "url2": "http://www.toyota-ca.co.jp" }, "geometry": { "type": "Point", "coordinates": [ 140.527332800000067, 40.6142056 ] } },
{ "type": "Feature", "properties": { "内容": "株式会社北便【福祉用具貸与】青森県平川市日沼富岳29-5", "url": "https://www.kaigokensaku.mhlw.go.jp/02/index.php?action_kouhyou_detail_004_kani=true&JigyosyoCd=0271000044-00&ServiceCd=170&Type=search", "url2": "http://www" }, "geometry": { "type": "Point", "coordinates": [ 140.52758, 40.6144056 ] } },
{ "type": "Feature", "properties": { "内容": "株式会社寿サービス【福祉用具貸与】青森県東津軽郡平内町大字山口字山口75-1", "url": "https://www.kaigokensaku.mhlw.go.jp/02/index.php?action_kouhyou_detail_004_kani=true&JigyosyoCd=0272000522-00&ServiceCd=170&Type=search", "url2": "https://kotobuki-service.jp/" }, "geometry": { "type": "Point", "coordinates": [ 140.913754599999947, 40.9134084 ] } },
{ "type": "Feature", "properties": { "内容": "鯵ヶ沢町社会福祉協議会指定福祉用具貸与事業所【福祉用具貸与】青森県西津軽郡鯵ヶ沢町大字舞戸町字後家屋敷９番地の４", "url": "https://www.kaigokensaku.mhlw.go.jp/02/index.php?action_kouhyou_detail_004_kani=true&JigyosyoCd=0272101049-00&ServiceCd=170&Type=search", "url2": "ajisya@chic.ocn.ne.jp" }, "geometry": { "type": "Point", "coordinates": [ 140.228900100000033, 40.7706613 ] } },
{ "type": "Feature", "properties": { "内容": "介護用品販売・レンタル　フキタ【福祉用具貸与】青森県南津軽郡大鰐町大字蔵館村岡41-1", "url": "https://www.kaigokensaku.mhlw.go.jp/02/index.php?action_kouhyou_detail_004_kani=true&JigyosyoCd=0272300625-00&ServiceCd=170&Type=search", "url2": null }, "geometry": { "type": "Point", "coordinates": [ 140.575174, 40.521372500000012 ] } },
{ "type": "Feature", "properties": { "内容": "ペアレント福祉用具サービス【福祉用具貸与】青森県北津軽郡板柳町大字横沢字宮元146-6", "url": "https://www.kaigokensaku.mhlw.go.jp/02/index.php?action_kouhyou_detail_004_kani=true&JigyosyoCd=0272401282-00&ServiceCd=170&Type=search", "url2": null }, "geometry": { "type": "Point", "coordinates": [ 140.4727488, 40.6862476 ] } },
{ "type": "Feature", "properties": { "内容": "まちだ福祉用具貸与【福祉用具貸与】青森県北津軽郡板柳町大字福野田字実田48番地1", "url": "https://www.kaigokensaku.mhlw.go.jp/02/index.php?action_kouhyou_detail_004_kani=true&JigyosyoCd=0272401134-00&ServiceCd=170&Type=search", "url2": "http://www.koujin-kaigo.com/index.html" }, "geometry": { "type": "Point", "coordinates": [ 140.460520484516877, 40.698048667052518 ] } },
{ "type": "Feature", "properties": { "内容": "社会福祉法人鶴田町社会福祉協議会福祉用具貸与事業所【福祉用具貸与】青森県北津軽郡鶴田町大字鶴田字沖津193鶴田町保健福祉センター　鶴遊館", "url": "https://www.kaigokensaku.mhlw.go.jp/02/index.php?action_kouhyou_detail_004_kani=true&JigyosyoCd=0272401118-00&ServiceCd=170&Type=search", "url2": "http://turuta-syakyo.or.jp/" }, "geometry": { "type": "Point", "coordinates": [ 140.427953383976387, 40.749134435182974 ] } },
{ "type": "Feature", "properties": { "内容": "エイジーケアサービス【福祉用具貸与】青森県上北郡野辺地町字大月平６７番地－２３", "url": "https://www.kaigokensaku.mhlw.go.jp/02/index.php?action_kouhyou_detail_004_kani=true&JigyosyoCd=0272501610-00&ServiceCd=170&Type=search", "url2": "https://www.a-z-care.com/" }, "geometry": { "type": "Point", "coordinates": [ 141.145319972352581, 40.877147862164307 ] } },
{ "type": "Feature", "properties": { "内容": "ウェルネス21【福祉用具貸与】青森県上北郡七戸町字道の上118-1", "url": "https://www.kaigokensaku.mhlw.go.jp/02/index.php?action_kouhyou_detail_004_kani=true&JigyosyoCd=0272501305-00&ServiceCd=170&Type=search", "url2": "https://yuukaigo.sakura.ne.jp/" }, "geometry": { "type": "Point", "coordinates": [ 141.151674100000037, 40.7513962 ] } },
{ "type": "Feature", "properties": { "内容": "有限会社掛端呉服店【福祉用具貸与】青森県三戸郡南部町大字平字広場25番地17", "url": "https://www.kaigokensaku.mhlw.go.jp/02/index.php?action_kouhyou_detail_004_kani=true&JigyosyoCd=0272700915-00&ServiceCd=170&Type=search", "url2": null }, "geometry": { "type": "Point", "coordinates": [ 141.33222939999996, 40.4205447 ] } }
]
}
