{
"type": "FeatureCollection",
"name": "geo_02_各種学校",
"crs": { "type": "name", "properties": { "name": "urn:ogc:def:crs:EPSG::6668" } },
"features": [
{ "type": "Feature", "properties": { "P29_001": "02201", "P29_002": "H202310000011", "P29_003": "16015", "P29_004": "青森市医師会立青森准看護学院", "P29_005": "青森県青森市勝田1-16-16", "P29_006": "4", "P29_007": "0", "P29_008": "00", "P29_009": null }, "geometry": { "type": "Point", "coordinates": [ 140.755942891125585, 40.815158320609903 ] } },
{ "type": "Feature", "properties": { "P29_001": "02201", "P29_002": "H202310000020", "P29_003": "16015", "P29_004": "青森タイピスト養成所", "P29_005": "青森県青森市中央2-1-18", "P29_006": "4", "P29_007": "0", "P29_008": "00", "P29_009": null }, "geometry": { "type": "Point", "coordinates": [ 140.744260192828136, 40.818703856465824 ] } },
{ "type": "Feature", "properties": { "P29_001": "02205", "P29_002": "H202310000039", "P29_003": "16015", "P29_004": "木村簿記経理学校", "P29_005": "青森県五所川原市字下平井町21", "P29_006": "4", "P29_007": "0", "P29_008": "00", "P29_009": null }, "geometry": { "type": "Point", "coordinates": [ 140.448530726988423, 40.817240332025335 ] } },
{ "type": "Feature", "properties": { "P29_001": "02202", "P29_002": "H202310000057", "P29_003": "16015", "P29_004": "鷹揚ゼミナール", "P29_005": "青森県弘前市富野町17-9", "P29_006": "4", "P29_007": "0", "P29_008": "00", "P29_009": null }, "geometry": { "type": "Point", "coordinates": [ 140.476656807769473, 40.587944705881633 ] } },
{ "type": "Feature", "properties": { "P29_001": "02202", "P29_002": "H202310000066", "P29_003": "16015", "P29_004": "Ｓ．Ｋ．Ｋ．リカレントスクール", "P29_005": "青森県弘前市徳田町29-3", "P29_006": "4", "P29_007": "0", "P29_008": "00", "P29_009": null }, "geometry": { "type": "Point", "coordinates": [ 140.475724793575154, 40.605010063561316 ] } },
{ "type": "Feature", "properties": { "P29_001": "02203", "P29_002": "H202310000075", "P29_003": "16015", "P29_004": "八戸市医師会立八戸准看護学院", "P29_005": "青森県八戸市青葉2-17-4", "P29_006": "4", "P29_007": "0", "P29_008": "00", "P29_009": null }, "geometry": { "type": "Point", "coordinates": [ 141.513246248221435, 40.512913053729697 ] } },
{ "type": "Feature", "properties": { "P29_001": "02205", "P29_002": "H202310000084", "P29_003": "16015", "P29_004": "五所川原予備校", "P29_005": "青森県五所川原市本町39-8", "P29_006": "4", "P29_007": "0", "P29_008": "00", "P29_009": null }, "geometry": { "type": "Point", "coordinates": [ 140.447057374457614, 40.809128702222118 ] } },
{ "type": "Feature", "properties": { "P29_001": "02206", "P29_002": "H202310000093", "P29_003": "16015", "P29_004": "済誠会附属十和田准看護学院", "P29_005": "青森県十和田市西二十三番町1-2", "P29_006": "4", "P29_007": "0", "P29_008": "00", "P29_009": null }, "geometry": { "type": "Point", "coordinates": [ 141.201094472319539, 40.609539224936981 ] } },
{ "type": "Feature", "properties": { "P29_001": "02207", "P29_002": "H202310000100", "P29_003": "16015", "P29_004": "仁和会三沢中央病院附属准看護学院", "P29_005": "青森県三沢市中央町3-11-2", "P29_006": "4", "P29_007": "0", "P29_008": "00", "P29_009": null }, "geometry": { "type": "Point", "coordinates": [ 141.361432046115027, 40.680658842904094 ] } },
{ "type": "Feature", "properties": { "P29_001": "02207", "P29_002": "H202310000119", "P29_003": "16015", "P29_004": "東北外語学院", "P29_005": "青森県三沢市松園町3-7-11", "P29_006": "4", "P29_007": "0", "P29_008": "00", "P29_009": null }, "geometry": { "type": "Point", "coordinates": [ 141.363868439305037, 40.67664758818384 ] } }
]
}
