{
"type": "FeatureCollection",
"name": "geo_02_地域密着型介護老人福祉施設入所者生活介護",
"crs": { "type": "name", "properties": { "name": "urn:ogc:def:crs:OGC:1.3:CRS84" } },
"features": [
{ "type": "Feature", "properties": { "内容": "特別養護老人ﾎｰﾑ　大野和幸園【地域密着型介護老人福祉施設入所者生活介護】青森県青森市西大野5丁目16番10号", "url": "https://www.kaigokensaku.mhlw.go.jp/02/index.php?action_kouhyou_detail_004_kani=true&JigyosyoCd=0290100239-00&ServiceCd=540&Type=search", "url2": "http://www.wakouen.or.jp/" }, "geometry": { "type": "Point", "coordinates": [ 140.724650200000042, 40.7990485 ] } },
{ "type": "Feature", "properties": { "内容": "特別養護老人ホームおきだて苑【地域密着型介護老人福祉施設入所者生活介護】青森市新田1丁目11番3号", "url": "https://www.kaigokensaku.mhlw.go.jp/02/index.php?action_kouhyou_detail_004_kani=true&JigyosyoCd=0290100254-00&ServiceCd=540&Type=search", "url2": "https://okidateengroup.jp/" }, "geometry": { "type": "Point", "coordinates": [ 140.714986917860386, 40.84186364243736 ] } },
{ "type": "Feature", "properties": { "内容": "特別養護老人ホームすこやか苑【地域密着型介護老人福祉施設入所者生活介護】青森県青森市大字浜館字間瀬85番地6", "url": "https://www.kaigokensaku.mhlw.go.jp/02/index.php?action_kouhyou_detail_004_kani=true&JigyosyoCd=0290100296-00&ServiceCd=540&Type=search", "url2": "http://sukoyakaen.com/" }, "geometry": { "type": "Point", "coordinates": [ 140.792272472491504, 40.812781272703091 ] } },
{ "type": "Feature", "properties": { "内容": "特別養護老人ホ－ム勝田三思園【地域密着型介護老人福祉施設入所者生活介護】青森県青森市勝田2丁目20-12", "url": "https://www.kaigokensaku.mhlw.go.jp/02/index.php?action_kouhyou_detail_004_kani=true&JigyosyoCd=0290100304-00&ServiceCd=540&Type=search", "url2": "https://k-sanshien.site" }, "geometry": { "type": "Point", "coordinates": [ 140.758980271976867, 40.818932699242389 ] } },
{ "type": "Feature", "properties": { "内容": "特別養護老人ホームささえ【地域密着型介護老人福祉施設入所者生活介護】青森県青森市港町3丁目10-36", "url": "https://www.kaigokensaku.mhlw.go.jp/02/index.php?action_kouhyou_detail_004_kani=true&JigyosyoCd=0290100403-00&ServiceCd=540&Type=search", "url2": "sasae@air.ocn.ne.jp" }, "geometry": { "type": "Point", "coordinates": [ 140.771918, 40.8306327 ] } },
{ "type": "Feature", "properties": { "内容": "特別養護老人ホームつるがさか【地域密着型介護老人福祉施設入所者生活介護】青森県青森市大字鶴ヶ坂字田川１８７－９４", "url": "https://www.kaigokensaku.mhlw.go.jp/02/index.php?action_kouhyou_detail_004_kani=true&JigyosyoCd=0290100221-00&ServiceCd=540&Type=search", "url2": "http://care-net.biz/02/tsurugasaka/" }, "geometry": { "type": "Point", "coordinates": [ 140.6283373, 40.7873948 ] } },
{ "type": "Feature", "properties": { "内容": "特別養護老人ホーム　サンタハウス弘前【地域密着型介護老人福祉施設入所者生活介護】青森県弘前市大字大川字中桜川１８番地１０１０号館", "url": "https://www.kaigokensaku.mhlw.go.jp/02/index.php?action_kouhyou_detail_004_kani=true&JigyosyoCd=0290200336-00&ServiceCd=540&Type=search", "url2": "https://houtokukai.org" }, "geometry": { "type": "Point", "coordinates": [ 140.455990899999989, 40.6765567 ] } },
{ "type": "Feature", "properties": { "内容": "特別養護老人ホーム　山崎【地域密着型介護老人福祉施設入所者生活介護】山崎3丁目6-6", "url": "https://www.kaigokensaku.mhlw.go.jp/02/index.php?action_kouhyou_detail_004_kani=true&JigyosyoCd=0290200351-00&ServiceCd=540&Type=search", "url2": "http://www.oyoen.com/" }, "geometry": { "type": "Point", "coordinates": [ 135.5092852, 34.6010473 ] } },
{ "type": "Feature", "properties": { "内容": "修光園サテライト【地域密着型介護老人福祉施設入所者生活介護】八戸市田向５丁目７－１", "url": "https://www.kaigokensaku.mhlw.go.jp/02/index.php?action_kouhyou_detail_004_kani=true&JigyosyoCd=0290300144-00&ServiceCd=540&Type=search", "url2": "shukouen.or.jp" }, "geometry": { "type": "Point", "coordinates": [ 141.514443799999981, 40.4898677 ] } },
{ "type": "Feature", "properties": { "内容": "特別養護老人ホーム　修光園サテライト【地域密着型介護老人福祉施設入所者生活介護】青森県八戸市田向５丁目７－１", "url": "https://www.kaigokensaku.mhlw.go.jp/02/index.php?action_kouhyou_detail_004_kani=true&JigyosyoCd=0290300151-00&ServiceCd=540&Type=search", "url2": "shukouen.or.jp" }, "geometry": { "type": "Point", "coordinates": [ 141.514443799999981, 40.4898677 ] } },
{ "type": "Feature", "properties": { "内容": "特別養護老人ホーム　ハピネスやくら【地域密着型介護老人福祉施設入所者生活介護】青森県八戸市大字八幡字下樋田1番1", "url": "https://www.kaigokensaku.mhlw.go.jp/02/index.php?action_kouhyou_detail_004_kani=true&JigyosyoCd=0290300169-00&ServiceCd=540&Type=search", "url2": "https://www.family-wf.jp/happiness-yakura" }, "geometry": { "type": "Point", "coordinates": [ 141.436436319049079, 40.495160937799803 ] } },
{ "type": "Feature", "properties": { "内容": "瑞光園ハイツ白銀台【地域密着型介護老人福祉施設入所者生活介護】青森県八戸市大字白銀町字姥久保２５番地１", "url": "https://www.kaigokensaku.mhlw.go.jp/02/index.php?action_kouhyou_detail_004_kani=true&JigyosyoCd=0290300300-00&ServiceCd=540&Type=search", "url2": "http://www.zuikoen.or.jp" }, "geometry": { "type": "Point", "coordinates": [ 141.555370312200665, 40.517388582381649 ] } },
{ "type": "Feature", "properties": { "内容": "特別養護老人ホーム八戸素心苑【地域密着型介護老人福祉施設入所者生活介護】青森県八戸市大字尻内町字矢沢６２番地１", "url": "https://www.kaigokensaku.mhlw.go.jp/02/index.php?action_kouhyou_detail_004_kani=true&JigyosyoCd=0290300417-00&ServiceCd=540&Type=search", "url2": "http://soshin-en.com/" }, "geometry": { "type": "Point", "coordinates": [ 141.424569402884629, 40.507286775683667 ] } },
{ "type": "Feature", "properties": { "内容": "特別養護老人ホーム　ラ・メール白山台【地域密着型介護老人福祉施設入所者生活介護】青森県八戸市北白山台五丁目2番15号", "url": "https://www.kaigokensaku.mhlw.go.jp/02/index.php?action_kouhyou_detail_004_kani=true&JigyosyoCd=0290300482-00&ServiceCd=540&Type=search", "url2": "http://mirokuen.com/lamer-hakusandai/" }, "geometry": { "type": "Point", "coordinates": [ 141.46299950859833, 40.485020738104559 ] } },
{ "type": "Feature", "properties": { "内容": "特別養護老人ホーム　ラ・メール小中野【地域密着型介護老人福祉施設入所者生活介護】青森県八戸市小中野5丁目10番1号", "url": "https://www.kaigokensaku.mhlw.go.jp/02/index.php?action_kouhyou_detail_004_kani=true&JigyosyoCd=0290300524-00&ServiceCd=540&Type=search", "url2": "https://mirokuen.com/" }, "geometry": { "type": "Point", "coordinates": [ 141.5156577, 40.5228105 ] } },
{ "type": "Feature", "properties": { "内容": "特別養護老人ホームクローバーズ・ピア【地域密着型介護老人福祉施設入所者生活介護】青森県八戸市南郷大字市野沢字山陣屋３６－５０", "url": "https://www.kaigokensaku.mhlw.go.jp/02/index.php?action_kouhyou_detail_004_kani=true&JigyosyoCd=0272700642-00&ServiceCd=540&Type=search", "url2": "https://www.net-pier.org" }, "geometry": { "type": "Point", "coordinates": [ 141.452150599999982, 40.4057793 ] } },
{ "type": "Feature", "properties": { "内容": "地域密着型介護老人福祉施設　ことぶき苑【地域密着型介護老人福祉施設入所者生活介護】青森県五所川原市金木町喜良市桔梗野20-9", "url": "https://www.kaigokensaku.mhlw.go.jp/02/index.php?action_kouhyou_detail_004_kani=true&JigyosyoCd=0290500081-00&ServiceCd=540&Type=search", "url2": "http:/kanou-fukusikai.jp/" }, "geometry": { "type": "Point", "coordinates": [ 140.4886249, 40.8903297 ] } },
{ "type": "Feature", "properties": { "内容": "地域密着型特別養護老人ホーム　さくらの里【地域密着型介護老人福祉施設入所者生活介護】青森県五所川原市大字姥萢字桜木424-1", "url": "https://www.kaigokensaku.mhlw.go.jp/02/index.php?action_kouhyou_detail_004_kani=true&JigyosyoCd=0290500099-00&ServiceCd=540&Type=search", "url2": "https://hv37p.hp.peraichi.com" }, "geometry": { "type": "Point", "coordinates": [ 140.444997605132357, 40.788373414564525 ] } },
{ "type": "Feature", "properties": { "内容": "特別養護老人ホーム　雙葉苑【地域密着型介護老人福祉施設入所者生活介護】青森県十和田市大字三本木字上平２００番地１", "url": "https://www.kaigokensaku.mhlw.go.jp/02/index.php?action_kouhyou_detail_004_kani=true&JigyosyoCd=0290600063-00&ServiceCd=540&Type=search", "url2": "http://shiseikai-1960.or.jp/" }, "geometry": { "type": "Point", "coordinates": [ 141.192427104615717, 40.621519352411184 ] } },
{ "type": "Feature", "properties": { "内容": "栄町ぬくもりの家【地域密着型介護老人福祉施設入所者生活介護】青森県三沢市栄町三丁目１２５－１", "url": "https://www.kaigokensaku.mhlw.go.jp/02/index.php?action_kouhyou_detail_004_kani=true&JigyosyoCd=0290700061-00&ServiceCd=540&Type=search", "url2": "http://www.rakuseikai.or.jp/" }, "geometry": { "type": "Point", "coordinates": [ 141.361213600000042, 40.6707513 ] } },
{ "type": "Feature", "properties": { "内容": "松原ぬくもりの家【地域密着型介護老人福祉施設入所者生活介護】青森県三沢市松原町1丁目31番3704号", "url": "https://www.kaigokensaku.mhlw.go.jp/02/index.php?action_kouhyou_detail_004_kani=true&JigyosyoCd=0290700095-00&ServiceCd=540&Type=search", "url2": "http://www.rakuseikai.or.jp/" }, "geometry": { "type": "Point", "coordinates": [ 141.374090099999989, 40.6734181 ] } },
{ "type": "Feature", "properties": { "内容": "特別養護老人ホーム　南山ひばり苑【地域密着型介護老人福祉施設入所者生活介護】三沢市大字三沢字南山６０－１", "url": "https://www.kaigokensaku.mhlw.go.jp/02/index.php?action_kouhyou_detail_004_kani=true&JigyosyoCd=0290700152-00&ServiceCd=540&Type=search", "url2": "joukoukai.or.jp" }, "geometry": { "type": "Point", "coordinates": [ 141.391438, 40.6830871 ] } },
{ "type": "Feature", "properties": { "内容": "岡三沢ぬくもりの家【地域密着型介護老人福祉施設入所者生活介護】青森県三沢市岡三沢一丁目1番97", "url": "https://www.kaigokensaku.mhlw.go.jp/02/index.php?action_kouhyou_detail_004_kani=true&JigyosyoCd=0290700020-00&ServiceCd=540&Type=search", "url2": "http://www.rakuseikai.or.jp/" }, "geometry": { "type": "Point", "coordinates": [ 141.376202799999987, 40.6902583 ] } },
{ "type": "Feature", "properties": { "内容": "おおみなと園【地域密着型介護老人福祉施設入所者生活介護】青森県むつ市大湊新町30番10号", "url": "https://www.kaigokensaku.mhlw.go.jp/02/index.php?action_kouhyou_detail_004_kani=true&JigyosyoCd=0290800044-00&ServiceCd=540&Type=search", "url2": "https://oominatoen.sakuragikai.net" }, "geometry": { "type": "Point", "coordinates": [ 141.1601111, 41.2827963 ] } },
{ "type": "Feature", "properties": { "内容": "特別養護老人ホーム金谷みちのく荘【地域密着型介護老人福祉施設入所者生活介護】青森県むつ市金谷２丁目２０－２特別養護老人ホーム金谷みちのく荘", "url": "https://www.kaigokensaku.mhlw.go.jp/02/index.php?action_kouhyou_detail_004_kani=true&JigyosyoCd=0290800069-00&ServiceCd=540&Type=search", "url2": "http://www.michinokuso.jp" }, "geometry": { "type": "Point", "coordinates": [ 141.194460170114098, 41.296300584571135 ] } },
{ "type": "Feature", "properties": { "内容": "特別養護老人ホームみちのく荘【地域密着型介護老人福祉施設入所者生活介護】青森県むつ市十二林11-13", "url": "https://www.kaigokensaku.mhlw.go.jp/02/index.php?action_kouhyou_detail_004_kani=true&JigyosyoCd=0290800077-00&ServiceCd=540&Type=search", "url2": "http://www.michinokuso.or.jp" }, "geometry": { "type": "Point", "coordinates": [ 141.186419399999977, 41.2981536 ] } },
{ "type": "Feature", "properties": { "内容": "特別養護老人ホームゆうあいの里【地域密着型介護老人福祉施設入所者生活介護】青森県つがる市豊富町屏風山1番地377", "url": "https://www.kaigokensaku.mhlw.go.jp/02/index.php?action_kouhyou_detail_004_kani=true&JigyosyoCd=0272100678-00&ServiceCd=540&Type=search", "url2": null }, "geometry": { "type": "Point", "coordinates": [ 140.362479200000053, 40.9677537 ] } },
{ "type": "Feature", "properties": { "内容": "つがる市社会福祉協議会　特別養護老人ホーム安住の里【地域密着型介護老人福祉施設入所者生活介護】青森県つがる市稲垣町豊川宮川143番地1", "url": "https://www.kaigokensaku.mhlw.go.jp/02/index.php?action_kouhyou_detail_004_kani=true&JigyosyoCd=0272100710-00&ServiceCd=540&Type=search", "url2": null }, "geometry": { "type": "Point", "coordinates": [ 140.397782799999959, 40.8797536 ] } },
{ "type": "Feature", "properties": { "内容": "特別養護老人ホーム　慶游荘【地域密着型介護老人福祉施設入所者生活介護】青森県平川市町居山元304-1", "url": "https://www.kaigokensaku.mhlw.go.jp/02/index.php?action_kouhyou_detail_004_kani=true&JigyosyoCd=0291000024-00&ServiceCd=540&Type=search", "url2": "http://www.tsugaru-yawaragi.jp" }, "geometry": { "type": "Point", "coordinates": [ 140.589259500000026, 40.5873389 ] } },
{ "type": "Feature", "properties": { "内容": "特別養護老人ホームおのえ荘【地域密着型介護老人福祉施設入所者生活介護】青森県平川市猿賀池上１００-１", "url": "https://www.kaigokensaku.mhlw.go.jp/02/index.php?action_kouhyou_detail_004_kani=true&JigyosyoCd=0291000032-00&ServiceCd=540&Type=search", "url2": "http://www.hakuyuukai.com" }, "geometry": { "type": "Point", "coordinates": [ 140.566443400000026, 40.6188541 ] } },
{ "type": "Feature", "properties": { "内容": "特別養護老人ホーム慶游荘【地域密着型介護老人福祉施設入所者生活介護】青森県平川市町居山元３０４番地１", "url": "https://www.kaigokensaku.mhlw.go.jp/02/index.php?action_kouhyou_detail_004_kani=true&JigyosyoCd=0291000081-00&ServiceCd=540&Type=search", "url2": "https://www.hakuyuukai.com" }, "geometry": { "type": "Point", "coordinates": [ 140.5893159, 40.5873489 ] } },
{ "type": "Feature", "properties": { "内容": "特別養護老人ホーム　はまゆう【地域密着型介護老人福祉施設入所者生活介護】青森県東津軽郡外ヶ浜町字蟹田川原添２番地３", "url": "https://www.kaigokensaku.mhlw.go.jp/02/index.php?action_kouhyou_detail_004_kani=true&JigyosyoCd=0292000072-00&ServiceCd=540&Type=search", "url2": "http://www.watona-ru.com/" }, "geometry": { "type": "Point", "coordinates": [ 140.636870199999947, 41.0444954 ] } },
{ "type": "Feature", "properties": { "内容": "特別養護老人ホーム桜良(ユニット型)【地域密着型介護老人福祉施設入所者生活介護】青森県東津軽郡外ヶ浜町字上蟹田62番地23特別養護老人ホーム桜良", "url": "https://www.kaigokensaku.mhlw.go.jp/02/index.php?action_kouhyou_detail_004_kani=true&JigyosyoCd=0292000130-00&ServiceCd=540&Type=search", "url2": "http://www.fuku-sakura.or.jp" }, "geometry": { "type": "Point", "coordinates": [ 140.639239699999962, 41.0399655 ] } },
{ "type": "Feature", "properties": { "内容": "特別養護老人ホーム桜良(従来型)【地域密着型介護老人福祉施設入所者生活介護】青森県東津軽郡外ヶ浜町字上蟹田６２番地２３特別養護老人ホーム桜良", "url": "https://www.kaigokensaku.mhlw.go.jp/02/index.php?action_kouhyou_detail_004_kani=true&JigyosyoCd=0292000148-00&ServiceCd=540&Type=search", "url2": "http://www.fuku-sakura.or.jp" }, "geometry": { "type": "Point", "coordinates": [ 140.639239699999962, 41.0399655 ] } },
{ "type": "Feature", "properties": { "内容": "特別養護老人ホーム　ひばり野【地域密着型介護老人福祉施設入所者生活介護】青森県西津軽郡鯵ヶ沢町大字建石町字雲雀野１２４－１８", "url": "https://www.kaigokensaku.mhlw.go.jp/02/index.php?action_kouhyou_detail_004_kani=true&JigyosyoCd=0272101130-00&ServiceCd=540&Type=search", "url2": null }, "geometry": { "type": "Point", "coordinates": [ 140.301126327668243, 40.769594330835375 ] } },
{ "type": "Feature", "properties": { "内容": "特別養護老人ホーム　桃の木【地域密着型介護老人福祉施設入所者生活介護】青森県西津軽郡深浦町大字深浦字吾妻沢146番地65", "url": "https://www.kaigokensaku.mhlw.go.jp/02/index.php?action_kouhyou_detail_004_kani=true&JigyosyoCd=0292100021-00&ServiceCd=540&Type=search", "url2": null }, "geometry": { "type": "Point", "coordinates": [ 139.940856899999972, 40.656822 ] } },
{ "type": "Feature", "properties": { "内容": "特別養護老人ホーム華のさと【地域密着型介護老人福祉施設入所者生活介護】青森県西津軽郡深浦町大字広戸字家野上148-2", "url": "https://www.kaigokensaku.mhlw.go.jp/02/index.php?action_kouhyou_detail_004_kani=true&JigyosyoCd=0292100070-00&ServiceCd=540&Type=search", "url2": "http://fc09690220192001.web2.blks.jp/hananosato/" }, "geometry": { "type": "Point", "coordinates": [ 139.948950057672164, 40.65506553631792 ] } },
{ "type": "Feature", "properties": { "内容": "特別養護老人ホームあじゃら【地域密着型介護老人福祉施設入所者生活介護】青森県南津軽郡大鰐町大字虹貝字篠塚33-7", "url": "https://www.kaigokensaku.mhlw.go.jp/02/index.php?action_kouhyou_detail_004_kani=true&JigyosyoCd=0292300027-00&ServiceCd=540&Type=search", "url2": null }, "geometry": { "type": "Point", "coordinates": [ 140.562197400000088, 40.517668100000016 ] } },
{ "type": "Feature", "properties": { "内容": "特別養護老人ホームやすらぎの郷【地域密着型介護老人福祉施設入所者生活介護】青森県南津軽郡田舎館村大字畑中字藤巻180番地3号", "url": "https://www.kaigokensaku.mhlw.go.jp/02/index.php?action_kouhyou_detail_004_kani=true&JigyosyoCd=0292300035-00&ServiceCd=540&Type=search", "url2": "inakadateshakyo@vega.ocn.ne.jp" }, "geometry": { "type": "Point", "coordinates": [ 140.555130578573653, 40.634346465814851 ] } },
{ "type": "Feature", "properties": { "内容": "地域密着型特別養護老人ホーム「鶴のまどい」【地域密着型介護老人福祉施設入所者生活介護】青森県北津軽郡鶴田町大字鶴田字鷹ノ尾３４", "url": "https://www.kaigokensaku.mhlw.go.jp/02/index.php?action_kouhyou_detail_004_kani=true&JigyosyoCd=0292400066-00&ServiceCd=540&Type=search", "url2": "http://tsuruta-syakyo.or.jp/" }, "geometry": { "type": "Point", "coordinates": [ 140.428420700000061, 40.7615153 ] } },
{ "type": "Feature", "properties": { "内容": "特別養護老人ホーム　きりん館【地域密着型介護老人福祉施設入所者生活介護】青森県北津軽郡中泊町大字田茂木字若宮１９３３", "url": "https://www.kaigokensaku.mhlw.go.jp/02/index.php?action_kouhyou_detail_004_kani=true&JigyosyoCd=0292400074-00&ServiceCd=540&Type=search", "url2": "http://uchigata.or.jp/" }, "geometry": { "type": "Point", "coordinates": [ 140.409355099999971, 41.0035652 ] } },
{ "type": "Feature", "properties": { "内容": "地域密着型特別養護老人ホーム　森の郷【地域密着型介護老人福祉施設入所者生活介護】青森県上北郡東北町大字大浦字井尻298-22", "url": "https://www.kaigokensaku.mhlw.go.jp/02/index.php?action_kouhyou_detail_004_kani=true&JigyosyoCd=0292500170-00&ServiceCd=540&Type=search", "url2": "http://sinseikai.jp/facilities/morinosato/" }, "geometry": { "type": "Point", "coordinates": [ 141.258703821751197, 40.702832977574793 ] } },
{ "type": "Feature", "properties": { "内容": "社会福祉法人　延寿福祉会【地域密着型介護老人福祉施設入所者生活介護】青森県上北郡六ヶ所村大字泊字川原75‐97", "url": "https://www.kaigokensaku.mhlw.go.jp/02/index.php?action_kouhyou_detail_004_kani=true&JigyosyoCd=0292500097-00&ServiceCd=540&Type=search", "url2": "https://www.pref.aomori.lg.jp" }, "geometry": { "type": "Point", "coordinates": [ 141.386129399999987, 41.0785867 ] } },
{ "type": "Feature", "properties": { "内容": "特別養護老人ホーム阿光坊の郷【地域密着型介護老人福祉施設入所者生活介護】青森県上北郡おいらせ町阿光坊105-110", "url": "https://www.kaigokensaku.mhlw.go.jp/02/index.php?action_kouhyou_detail_004_kani=true&JigyosyoCd=0292500105-00&ServiceCd=540&Type=search", "url2": "http://www.momoishiso.or.jp" }, "geometry": { "type": "Point", "coordinates": [ 141.3742456, 40.6073777 ] } },
{ "type": "Feature", "properties": { "内容": "特別養護老人ホームしおさい岬【地域密着型介護老人福祉施設入所者生活介護】青森県下北郡大間町大字大間字大間平38番地511", "url": "https://www.kaigokensaku.mhlw.go.jp/02/index.php?action_kouhyou_detail_004_kani=true&JigyosyoCd=0292600053-00&ServiceCd=540&Type=search", "url2": "http://mirokuen.com/" }, "geometry": { "type": "Point", "coordinates": [ 140.915759100000059, 41.5385275 ] } },
{ "type": "Feature", "properties": { "内容": "社会福祉法人　吉幸会　　特別養護老人ホーム　能舞の里【地域密着型介護老人福祉施設入所者生活介護】青森県下北郡東通村大字砂子又字桑原山1番地１０７", "url": "https://www.kaigokensaku.mhlw.go.jp/02/index.php?action_kouhyou_detail_004_kani=true&JigyosyoCd=0292600038-00&ServiceCd=540&Type=search", "url2": "http://mirokuen.com/" }, "geometry": { "type": "Point", "coordinates": [ 141.3332911, 41.2839811 ] } },
{ "type": "Feature", "properties": { "内容": "特別養護老人ホームいちいの森【地域密着型介護老人福祉施設入所者生活介護】青森県下北郡東通村大字砂子又字桑原山1番地106特別養護老人ホームいちいの森", "url": "https://www.kaigokensaku.mhlw.go.jp/02/index.php?action_kouhyou_detail_004_kani=true&JigyosyoCd=0292600061-00&ServiceCd=540&Type=search", "url2": "http://mirokuen.com" }, "geometry": { "type": "Point", "coordinates": [ 141.33344270824486, 41.284388414608095 ] } },
{ "type": "Feature", "properties": { "内容": "特別養護老人ホーム素心苑【地域密着型介護老人福祉施設入所者生活介護】青森県三戸郡五戸町字古舘向10番地1", "url": "https://www.kaigokensaku.mhlw.go.jp/02/index.php?action_kouhyou_detail_004_kani=true&JigyosyoCd=0292700168-00&ServiceCd=540&Type=search", "url2": "http://soshin-en.com/" }, "geometry": { "type": "Point", "coordinates": [ 141.3115345, 40.5299278 ] } },
{ "type": "Feature", "properties": { "内容": "特別養護老人ホーム　ひだまり【地域密着型介護老人福祉施設入所者生活介護】青森県三戸郡五戸町字苗代沢3番660", "url": "https://www.kaigokensaku.mhlw.go.jp/02/index.php?action_kouhyou_detail_004_kani=true&JigyosyoCd=0292700143-00&ServiceCd=540&Type=search", "url2": "http://mirokuen.com/" }, "geometry": { "type": "Point", "coordinates": [ 141.329763325131239, 40.514298957515599 ] } }
]
}
