{
"type": "FeatureCollection",
"name": "geo_02_専修学校",
"crs": { "type": "name", "properties": { "name": "urn:ogc:def:crs:EPSG::6668" } },
"features": [
{ "type": "Feature", "properties": { "P29_001": "02201", "P29_002": "H102210000014", "P29_003": "16016", "P29_004": "青森市立高等看護学院", "P29_005": "青森県青森市勝田1-16-16", "P29_006": "3", "P29_007": "0", "P29_008": "00", "P29_009": null }, "geometry": { "type": "Point", "coordinates": [ 140.755853386562563, 40.815362184308299 ] } },
{ "type": "Feature", "properties": { "P29_001": "02203", "P29_002": "H102210000023", "P29_003": "16016", "P29_004": "八戸市立高等看護学院", "P29_005": "青森県八戸市青葉2-17-4", "P29_006": "3", "P29_007": "0", "P29_008": "00", "P29_009": null }, "geometry": { "type": "Point", "coordinates": [ 141.513194570360952, 40.512945961690818 ] } },
{ "type": "Feature", "properties": { "P29_001": "02402", "P29_002": "H102210000032", "P29_003": "16016", "P29_004": "青森県営農大学校", "P29_005": "青森県上北郡七戸町大沢48-8", "P29_006": "2", "P29_007": "0", "P29_008": "00", "P29_009": null }, "geometry": { "type": "Point", "coordinates": [ 141.160068159292564, 40.721486186723794 ] } },
{ "type": "Feature", "properties": { "P29_001": "02205", "P29_002": "H102210000041", "P29_003": "16016", "P29_004": "五所川原市立高等看護学院", "P29_005": "青森県五所川原市字新町58-2", "P29_006": "3", "P29_007": "0", "P29_008": "00", "P29_009": null }, "geometry": { "type": "Point", "coordinates": [ 140.444550666649633, 40.806693502968407 ] } },
{ "type": "Feature", "properties": { "P29_001": "02201", "P29_002": "H102310000012", "P29_003": "16016", "P29_004": "青森中央文化専門学校", "P29_005": "青森県青森市横内字神田12-1", "P29_006": "4", "P29_007": "0", "P29_008": "00", "P29_009": null }, "geometry": { "type": "Point", "coordinates": [ 140.761874597405068, 40.784932399920073 ] } },
{ "type": "Feature", "properties": { "P29_001": "02201", "P29_002": "H102310000021", "P29_003": "16016", "P29_004": "青森歯科医療専門学校", "P29_005": "青森県青森市三内稲元122-2", "P29_006": "4", "P29_007": "0", "P29_008": "00", "P29_009": null }, "geometry": { "type": "Point", "coordinates": [ 140.707868127820063, 40.820953072611204 ] } },
{ "type": "Feature", "properties": { "P29_001": "02201", "P29_002": "H102310000030", "P29_003": "16016", "P29_004": "青森ビジネス専門学校", "P29_005": "青森県青森市篠田3-1-14", "P29_006": "4", "P29_007": "0", "P29_008": "00", "P29_009": null }, "geometry": { "type": "Point", "coordinates": [ 140.72588519776744, 40.830202318646833 ] } },
{ "type": "Feature", "properties": { "P29_001": "02201", "P29_002": "H102310000049", "P29_003": "16016", "P29_004": "青森中央経理専門学校", "P29_005": "青森県青森市横内字神田12-1", "P29_006": "4", "P29_007": "0", "P29_008": "00", "P29_009": null }, "geometry": { "type": "Point", "coordinates": [ 140.761841729552316, 40.784991878216701 ] } },
{ "type": "Feature", "properties": { "P29_001": "02201", "P29_002": "H102310000058", "P29_003": "16016", "P29_004": "青森県ビューティー＆メディカル専門学校", "P29_005": "青森県青森市久須志1-45-2", "P29_006": "4", "P29_007": "0", "P29_008": "00", "P29_009": null }, "geometry": { "type": "Point", "coordinates": [ 140.731741494377104, 40.822636578091611 ] } },
{ "type": "Feature", "properties": { "P29_001": "02201", "P29_002": "H102310000067", "P29_003": "16016", "P29_004": "東奥保育・福祉専門学院", "P29_005": "青森県青森市勝田2-13", "P29_006": "4", "P29_007": "0", "P29_008": "00", "P29_009": null }, "geometry": { "type": "Point", "coordinates": [ 140.756164738895649, 40.819184404971516 ] } },
{ "type": "Feature", "properties": { "P29_001": "02202", "P29_002": "H102310000076", "P29_003": "16016", "P29_004": "弘前厚生学院", "P29_005": "青森県弘前市御幸町8-10", "P29_006": "4", "P29_007": "0", "P29_008": "00", "P29_009": null }, "geometry": { "type": "Point", "coordinates": [ 140.477813109170427, 40.591216414047899 ] } },
{ "type": "Feature", "properties": { "P29_001": "02202", "P29_002": "H102310000094", "P29_003": "16016", "P29_004": "サンモードスクールオブデザイン", "P29_005": "青森県弘前市下白銀町12", "P29_006": "4", "P29_007": "0", "P29_008": "00", "P29_009": null }, "geometry": { "type": "Point", "coordinates": [ 140.468430579727368, 40.603774367137547 ] } },
{ "type": "Feature", "properties": { "P29_001": "02202", "P29_002": "H102310000101", "P29_003": "16016", "P29_004": "Ｓ．Ｋ．Ｋ．情報ビジネス専門学校", "P29_005": "青森県弘前市徳田町1-3", "P29_006": "4", "P29_007": "0", "P29_008": "00", "P29_009": null }, "geometry": { "type": "Point", "coordinates": [ 140.474031138461015, 40.602647562857541 ] } },
{ "type": "Feature", "properties": { "P29_001": "02202", "P29_002": "H102310000110", "P29_003": "16016", "P29_004": "青森県ヘアアーチスト専門学校", "P29_005": "青森県弘前市表町6-4", "P29_006": "4", "P29_007": "0", "P29_008": "00", "P29_009": null }, "geometry": { "type": "Point", "coordinates": [ 140.486251602687645, 40.595206126315567 ] } },
{ "type": "Feature", "properties": { "P29_001": "02202", "P29_002": "H102310000129", "P29_003": "16016", "P29_004": "独立行政法人国立病院機構弘前総合医療センター附属看護学校", "P29_005": "青森県弘前市富野町1", "P29_006": "0", "P29_007": "0", "P29_008": "00", "P29_009": null }, "geometry": { "type": "Point", "coordinates": [ 140.476654543463582, 40.590257216515312 ] } },
{ "type": "Feature", "properties": { "P29_001": "02202", "P29_002": "H102310000138", "P29_003": "16016", "P29_004": "弘前市医師会看護専門学校", "P29_005": "青森県弘前市野田2-7-1", "P29_006": "4", "P29_007": "0", "P29_008": "00", "P29_009": null }, "geometry": { "type": "Point", "coordinates": [ 140.480637383625407, 40.609958547411352 ] } },
{ "type": "Feature", "properties": { "P29_001": "02203", "P29_002": "H102310000147", "P29_003": "16016", "P29_004": "八戸ドレメ専門学校", "P29_005": "青森県八戸市内丸1-1-14", "P29_006": "4", "P29_007": "0", "P29_008": "00", "P29_009": null }, "geometry": { "type": "Point", "coordinates": [ 141.48747268524437, 40.512858311788932 ] } },
{ "type": "Feature", "properties": { "P29_001": "02203", "P29_002": "H102310000165", "P29_003": "16016", "P29_004": "八戸理容美容専門学校", "P29_005": "青森県八戸市小中野3-5-1", "P29_006": "4", "P29_007": "0", "P29_008": "00", "P29_009": null }, "geometry": { "type": "Point", "coordinates": [ 141.511599828617335, 40.517371163687997 ] } },
{ "type": "Feature", "properties": { "P29_001": "02203", "P29_002": "H102310000174", "P29_003": "16016", "P29_004": "専門学校アレック情報ビジネス学院", "P29_005": "青森県八戸市廿三日町11", "P29_006": "4", "P29_007": "0", "P29_008": "00", "P29_009": null }, "geometry": { "type": "Point", "coordinates": [ 141.486631219545586, 40.507661090821216 ] } },
{ "type": "Feature", "properties": { "P29_001": "02203", "P29_002": "H102310000183", "P29_003": "16016", "P29_004": "八戸看護専門学校", "P29_005": "青森県八戸市河原木北沼22-41", "P29_006": "4", "P29_007": "0", "P29_008": "00", "P29_009": null }, "geometry": { "type": "Point", "coordinates": [ 141.484629891546092, 40.553148577926798 ] } },
{ "type": "Feature", "properties": { "P29_001": "02203", "P29_002": "H102310000192", "P29_003": "16016", "P29_004": "八戸社会福祉専門学校", "P29_005": "青森県八戸市常海町14-1", "P29_006": "4", "P29_007": "0", "P29_008": "00", "P29_009": null }, "geometry": { "type": "Point", "coordinates": [ 141.493781885190458, 40.512999927290053 ] } },
{ "type": "Feature", "properties": { "P29_001": "02203", "P29_002": "H102310000209", "P29_003": "16016", "P29_004": "八戸保健医療専門学校", "P29_005": "青森県八戸市田向2-11-15", "P29_006": "4", "P29_007": "0", "P29_008": "00", "P29_009": null }, "geometry": { "type": "Point", "coordinates": [ 141.512226005219503, 40.494989997432732 ] } },
{ "type": "Feature", "properties": { "P29_001": "02204", "P29_002": "H102310000218", "P29_003": "16016", "P29_004": "モーリ技芸専門学校", "P29_005": "青森県黒石市赤坂字野崎14-1", "P29_006": "4", "P29_007": "0", "P29_008": "00", "P29_009": null }, "geometry": { "type": "Point", "coordinates": [ 140.622134157168887, 40.668249527540155 ] } },
{ "type": "Feature", "properties": { "P29_001": "02442", "P29_002": "H102310000227", "P29_003": "16016", "P29_004": "東北メディカル学院", "P29_005": "青森県三戸郡五戸町苗代沢3-638", "P29_006": "4", "P29_007": "0", "P29_008": "00", "P29_009": null }, "geometry": { "type": "Point", "coordinates": [ 141.330592296398692, 40.515327798387929 ] } },
{ "type": "Feature", "properties": { "P29_001": "02204", "P29_002": "H102310000236", "P29_003": "16016", "P29_004": "一般財団法人双仁会厚生看護専門学校", "P29_005": "青森県黒石市建石9-1", "P29_006": "4", "P29_007": "0", "P29_008": "00", "P29_009": null }, "geometry": { "type": "Point", "coordinates": [ 140.578086297587532, 40.654559993512215 ] } }
]
}
