{
"type": "FeatureCollection",
"name": "geo_02_幼保連携型認定こども園",
"crs": { "type": "name", "properties": { "name": "urn:ogc:def:crs:EPSG::6668" } },
"features": [
{ "type": "Feature", "properties": { "P29_001": "02411", "P29_002": "A202210000027", "P29_003": "16013", "P29_004": "六ヶ所村立おぶちこども園", "P29_005": "青森県上北郡六ヶ所村尾駮字野附1305", "P29_006": "3", "P29_007": "0", "P29_008": "00", "P29_009": null }, "geometry": { "type": "Point", "coordinates": [ 141.36454799967845, 40.969347997274213 ] } },
{ "type": "Feature", "properties": { "P29_001": "02201", "P29_002": "A202310000025", "P29_003": "16013", "P29_004": "幼保連携型認定こども園ときわ保育園", "P29_005": "青森県青森市旭町2-11-1", "P29_006": "4", "P29_007": "0", "P29_008": "00", "P29_009": null }, "geometry": { "type": "Point", "coordinates": [ 140.737700904185374, 40.814898486438864 ] } },
{ "type": "Feature", "properties": { "P29_001": "02201", "P29_002": "A202310000034", "P29_003": "16013", "P29_004": "こども園あおもりよつば", "P29_005": "青森県青森市三内字丸山69-4", "P29_006": "4", "P29_007": "0", "P29_008": "00", "P29_009": null }, "geometry": { "type": "Point", "coordinates": [ 140.707105297703549, 40.817281218566045 ] } },
{ "type": "Feature", "properties": { "P29_001": "02201", "P29_002": "A202310000043", "P29_003": "16013", "P29_004": "こどものくに", "P29_005": "青森県青森市千刈4-4-8", "P29_006": "4", "P29_007": "0", "P29_008": "00", "P29_009": null }, "geometry": { "type": "Point", "coordinates": [ 140.722779360673371, 40.821745757009289 ] } },
{ "type": "Feature", "properties": { "P29_001": "02201", "P29_002": "A202310000052", "P29_003": "16013", "P29_004": "幼保連携型認定こども園滝内保育園", "P29_005": "青森県青森市西滝3-5-7", "P29_006": "4", "P29_007": "0", "P29_008": "00", "P29_009": null }, "geometry": { "type": "Point", "coordinates": [ 140.713086414202479, 40.823664876897681 ] } },
{ "type": "Feature", "properties": { "P29_001": "02201", "P29_002": "A202310000061", "P29_003": "16013", "P29_004": "認定こども園あらかわ", "P29_005": "青森県青森市荒川字柴田10-2", "P29_006": "4", "P29_007": "0", "P29_008": "00", "P29_009": null }, "geometry": { "type": "Point", "coordinates": [ 140.737018481675307, 40.784000666751204 ] } },
{ "type": "Feature", "properties": { "P29_001": "02201", "P29_002": "A202310000070", "P29_003": "16013", "P29_004": "幼保連携型認定こども園浦町保育園", "P29_005": "青森県青森市中央3-21-4", "P29_006": "4", "P29_007": "0", "P29_008": "00", "P29_009": null }, "geometry": { "type": "Point", "coordinates": [ 140.74824109704312, 40.816199810366676 ] } },
{ "type": "Feature", "properties": { "P29_001": "02201", "P29_002": "A202310000089", "P29_003": "16013", "P29_004": "幼保連携型認定こども園中央文化保育園", "P29_005": "青森県青森市幸畑1-27-1", "P29_006": "4", "P29_007": "0", "P29_008": "00", "P29_009": null }, "geometry": { "type": "Point", "coordinates": [ 140.779318331438816, 40.782289688881455 ] } },
{ "type": "Feature", "properties": { "P29_001": "02201", "P29_002": "A202310000098", "P29_003": "16013", "P29_004": "認定こども園ひのき", "P29_005": "青森県青森市金浜字伊吹128-20", "P29_006": "4", "P29_007": "0", "P29_008": "00", "P29_009": null }, "geometry": { "type": "Point", "coordinates": [ 140.731366591199247, 40.768334909531362 ] } },
{ "type": "Feature", "properties": { "P29_001": "02201", "P29_002": "A202310000105", "P29_003": "16013", "P29_004": "幼保連携型認定こども園こども園青い鳥", "P29_005": "青森県青森市油川字岡田20-2", "P29_006": "4", "P29_007": "0", "P29_008": "00", "P29_009": null }, "geometry": { "type": "Point", "coordinates": [ 140.708451994604786, 40.845214997845119 ] } },
{ "type": "Feature", "properties": { "P29_001": "02201", "P29_002": "A202310000114", "P29_003": "16013", "P29_004": "のざわ子ども園", "P29_005": "青森県青森市浪岡樽沢字村元353-3", "P29_006": "4", "P29_007": "0", "P29_008": "00", "P29_009": null }, "geometry": { "type": "Point", "coordinates": [ 140.561608994986898, 40.712142000440132 ] } },
{ "type": "Feature", "properties": { "P29_001": "02201", "P29_002": "A202310000123", "P29_003": "16013", "P29_004": "幼保連携型認定こども園つぼみ保育園", "P29_005": "青森県青森市旭町3-7-8", "P29_006": "4", "P29_007": "0", "P29_008": "00", "P29_009": null }, "geometry": { "type": "Point", "coordinates": [ 140.739264959109789, 40.811357256754142 ] } },
{ "type": "Feature", "properties": { "P29_001": "02201", "P29_002": "A202310000132", "P29_003": "16013", "P29_004": "こども園瑞穂", "P29_005": "青森県青森市浪岡女鹿沢字稲本85", "P29_006": "4", "P29_007": "0", "P29_008": "00", "P29_009": null }, "geometry": { "type": "Point", "coordinates": [ 140.586593997607253, 40.706807002032413 ] } },
{ "type": "Feature", "properties": { "P29_001": "02201", "P29_002": "A202310000141", "P29_003": "16013", "P29_004": "認定こども園青森ひかり", "P29_005": "青森県青森市奥野4-11-18", "P29_006": "4", "P29_007": "0", "P29_008": "00", "P29_009": null }, "geometry": { "type": "Point", "coordinates": [ 140.760978875085527, 40.810098192449537 ] } },
{ "type": "Feature", "properties": { "P29_001": "02201", "P29_002": "A202310000150", "P29_003": "16013", "P29_004": "青森甲田こども園", "P29_005": "青森県青森市北金沢2-1-6", "P29_006": "4", "P29_007": "0", "P29_008": "00", "P29_009": null }, "geometry": { "type": "Point", "coordinates": [ 140.731573697875973, 40.818986640899325 ] } },
{ "type": "Feature", "properties": { "P29_001": "02201", "P29_002": "A202310000169", "P29_003": "16013", "P29_004": "あおもりみなみこども園", "P29_005": "青森県青森市北金沢2-19-6", "P29_006": "4", "P29_007": "0", "P29_008": "00", "P29_009": null }, "geometry": { "type": "Point", "coordinates": [ 140.731367596436456, 40.818056853039963 ] } },
{ "type": "Feature", "properties": { "P29_001": "02201", "P29_002": "A202310000178", "P29_003": "16013", "P29_004": "認定こども園あかしや保育園", "P29_005": "青森県青森市原別8-11-15", "P29_006": "4", "P29_007": "0", "P29_008": "00", "P29_009": null }, "geometry": { "type": "Point", "coordinates": [ 140.814145111508935, 40.844686311639151 ] } },
{ "type": "Feature", "properties": { "P29_001": "02201", "P29_002": "A202310000187", "P29_003": "16013", "P29_004": "認定こども園やすた", "P29_005": "青森県青森市安田字稲森170-1", "P29_006": "4", "P29_007": "0", "P29_008": "00", "P29_009": null }, "geometry": { "type": "Point", "coordinates": [ 140.714058248814354, 40.804873524320683 ] } },
{ "type": "Feature", "properties": { "P29_001": "02201", "P29_002": "A202310000196", "P29_003": "16013", "P29_004": "幼保連携型認定こども園いしえこども園", "P29_005": "青森県青森市石江字高間138-3", "P29_006": "4", "P29_007": "0", "P29_008": "00", "P29_009": null }, "geometry": { "type": "Point", "coordinates": [ 140.69258599800142, 40.826910998823259 ] } },
{ "type": "Feature", "properties": { "P29_001": "02201", "P29_002": "A202310000203", "P29_003": "16013", "P29_004": "幼保連携型認定こども園青森藤こども園", "P29_005": "青森県青森市奥野3-7-2", "P29_006": "4", "P29_007": "0", "P29_008": "00", "P29_009": null }, "geometry": { "type": "Point", "coordinates": [ 140.764584426393981, 40.813968593448088 ] } },
{ "type": "Feature", "properties": { "P29_001": "02201", "P29_002": "A202310000212", "P29_003": "16013", "P29_004": "幼保連携型認定こども園青森東こども園", "P29_005": "青森県青森市平新田字森越18-5", "P29_006": "4", "P29_007": "0", "P29_008": "00", "P29_009": null }, "geometry": { "type": "Point", "coordinates": [ 140.811715211127648, 40.831756371005248 ] } },
{ "type": "Feature", "properties": { "P29_001": "02201", "P29_002": "A202310000221", "P29_003": "16013", "P29_004": "青森山田こども園", "P29_005": "青森県青森市四ツ石字下川原24-1", "P29_006": "4", "P29_007": "0", "P29_008": "00", "P29_009": null }, "geometry": { "type": "Point", "coordinates": [ 140.768865160208833, 40.778248194511889 ] } },
{ "type": "Feature", "properties": { "P29_001": "02201", "P29_002": "A202310000230", "P29_003": "16013", "P29_004": "認定こども園しらゆり保育園", "P29_005": "青森県青森市浪岡福田1-9-6", "P29_006": "4", "P29_007": "0", "P29_008": "00", "P29_009": null }, "geometry": { "type": "Point", "coordinates": [ 140.584700943323639, 40.717230999000051 ] } },
{ "type": "Feature", "properties": { "P29_001": "02201", "P29_002": "A202310000249", "P29_003": "16013", "P29_004": "浪岡若葉こども園", "P29_005": "青森県青森市浪岡下十川字扇田191-1", "P29_006": "4", "P29_007": "0", "P29_008": "00", "P29_009": null }, "geometry": { "type": "Point", "coordinates": [ 140.558560763276887, 40.689816563999486 ] } },
{ "type": "Feature", "properties": { "P29_001": "02202", "P29_002": "A202310000258", "P29_003": "16013", "P29_004": "幼保連携型認定こども園弘前保育園", "P29_005": "青森県弘前市田町3-4-39", "P29_006": "4", "P29_007": "0", "P29_008": "00", "P29_009": null }, "geometry": { "type": "Point", "coordinates": [ 140.477912601601702, 40.613107063811519 ] } },
{ "type": "Feature", "properties": { "P29_001": "02202", "P29_002": "A202310000267", "P29_003": "16013", "P29_004": "幼保連携型認定こども園やまぶき保育園", "P29_005": "青森県弘前市常盤坂4-1-3", "P29_006": "4", "P29_007": "0", "P29_008": "00", "P29_009": null }, "geometry": { "type": "Point", "coordinates": [ 140.442392811000559, 40.593246123487276 ] } },
{ "type": "Feature", "properties": { "P29_001": "02202", "P29_002": "A202310000276", "P29_003": "16013", "P29_004": "幼保連携型認定こども園岳暘保育園", "P29_005": "青森県弘前市宮地字川添108-4", "P29_006": "4", "P29_007": "0", "P29_008": "00", "P29_009": null }, "geometry": { "type": "Point", "coordinates": [ 140.393632816686164, 40.617618405627915 ] } },
{ "type": "Feature", "properties": { "P29_001": "02202", "P29_002": "A202310000285", "P29_003": "16013", "P29_004": "幼保連携型認定こども園ちとせ幼保園", "P29_005": "青森県弘前市狼森字天王33-1", "P29_006": "4", "P29_007": "0", "P29_008": "00", "P29_009": null }, "geometry": { "type": "Point", "coordinates": [ 140.47415275277865, 40.562017084171771 ] } },
{ "type": "Feature", "properties": { "P29_001": "02202", "P29_002": "A202310000294", "P29_003": "16013", "P29_004": "幼保連携型認定こども園石川こども園", "P29_005": "青森県弘前市石川字西舘下12-5", "P29_006": "4", "P29_007": "0", "P29_008": "00", "P29_009": null }, "geometry": { "type": "Point", "coordinates": [ 140.541142996394399, 40.551646001533278 ] } },
{ "type": "Feature", "properties": { "P29_001": "02202", "P29_002": "A202310000301", "P29_003": "16013", "P29_004": "幼保連携型認定こども園花園保育園", "P29_005": "青森県弘前市豊原1-1-3", "P29_006": "4", "P29_007": "0", "P29_008": "00", "P29_009": null }, "geometry": { "type": "Point", "coordinates": [ 140.476622081965388, 40.584667819917463 ] } },
{ "type": "Feature", "properties": { "P29_001": "02202", "P29_002": "A202310000310", "P29_003": "16013", "P29_004": "船沢こども園", "P29_005": "青森県弘前市細越字早稲田49-4", "P29_006": "4", "P29_007": "0", "P29_008": "00", "P29_009": null }, "geometry": { "type": "Point", "coordinates": [ 140.413376771322987, 40.641122701712625 ] } },
{ "type": "Feature", "properties": { "P29_001": "02202", "P29_002": "A202310000329", "P29_003": "16013", "P29_004": "幼保連携型認定こども園堀越こども園", "P29_005": "青森県弘前市堀越字柳元293-2", "P29_006": "4", "P29_007": "0", "P29_008": "00", "P29_009": null }, "geometry": { "type": "Point", "coordinates": [ 140.525456400768661, 40.566034301516176 ] } },
{ "type": "Feature", "properties": { "P29_001": "02202", "P29_002": "A202310000338", "P29_003": "16013", "P29_004": "弘前すみれ保育園", "P29_005": "青森県弘前市野田2-1-6", "P29_006": "4", "P29_007": "0", "P29_008": "00", "P29_009": null }, "geometry": { "type": "Point", "coordinates": [ 140.478288154456038, 40.60667313922508 ] } },
{ "type": "Feature", "properties": { "P29_001": "02202", "P29_002": "A202310000347", "P29_003": "16013", "P29_004": "幼保連携型認定こども園富士見保育所", "P29_005": "青森県弘前市紺屋町187-2", "P29_006": "4", "P29_007": "0", "P29_008": "00", "P29_009": null }, "geometry": { "type": "Point", "coordinates": [ 140.460940866353383, 40.612674386527942 ] } },
{ "type": "Feature", "properties": { "P29_001": "02202", "P29_002": "A202310000356", "P29_003": "16013", "P29_004": "幼保連携型認定こども園真土保育園", "P29_005": "青森県弘前市真土字苅田125-1", "P29_006": "4", "P29_007": "0", "P29_008": "00", "P29_009": null }, "geometry": { "type": "Point", "coordinates": [ 140.433309995728507, 40.604028002733898 ] } },
{ "type": "Feature", "properties": { "P29_001": "02202", "P29_002": "A202310000365", "P29_003": "16013", "P29_004": "幼保連携型認定こども園木の実こども園", "P29_005": "青森県弘前市新寺町55-41", "P29_006": "4", "P29_007": "0", "P29_008": "00", "P29_009": null }, "geometry": { "type": "Point", "coordinates": [ 140.464245269595722, 40.595984177817542 ] } },
{ "type": "Feature", "properties": { "P29_001": "02202", "P29_002": "A202310000374", "P29_003": "16013", "P29_004": "幼保連携型認定こども園たまちこども園", "P29_005": "青森県弘前市田町5-2-3", "P29_006": "4", "P29_007": "0", "P29_008": "00", "P29_009": null }, "geometry": { "type": "Point", "coordinates": [ 140.482239881257073, 40.612565621383283 ] } },
{ "type": "Feature", "properties": { "P29_001": "02202", "P29_002": "A202310000383", "P29_003": "16013", "P29_004": "幼保連携型認定新里こども園", "P29_005": "青森県弘前市新里字中樋田63-1", "P29_006": "4", "P29_007": "0", "P29_008": "00", "P29_009": null }, "geometry": { "type": "Point", "coordinates": [ 140.52394843310384, 40.594674485761836 ] } },
{ "type": "Feature", "properties": { "P29_001": "02202", "P29_002": "A202310000392", "P29_003": "16013", "P29_004": "幼保連携型認定こども園ふじこども園", "P29_005": "青森県弘前市藤代1-12-5", "P29_006": "4", "P29_007": "0", "P29_008": "00", "P29_009": null }, "geometry": { "type": "Point", "coordinates": [ 140.451169389751072, 40.61391120585315 ] } },
{ "type": "Feature", "properties": { "P29_001": "02202", "P29_002": "A202310000409", "P29_003": "16013", "P29_004": "幼保連携型認定泉野こども園", "P29_005": "青森県弘前市泉野4-7-1", "P29_006": "4", "P29_007": "0", "P29_008": "00", "P29_009": null }, "geometry": { "type": "Point", "coordinates": [ 140.495867149832236, 40.576691508648672 ] } },
{ "type": "Feature", "properties": { "P29_001": "02202", "P29_002": "A202310000418", "P29_003": "16013", "P29_004": "幼保連携型認定こども園サンこども園", "P29_005": "青森県弘前市浜の町西1-4-2", "P29_006": "4", "P29_007": "0", "P29_008": "00", "P29_009": null }, "geometry": { "type": "Point", "coordinates": [ 140.460426240424738, 40.616756721318772 ] } },
{ "type": "Feature", "properties": { "P29_001": "02202", "P29_002": "A202310000427", "P29_003": "16013", "P29_004": "幼保連携型認定こども園ひかりこども園", "P29_005": "青森県弘前市松ヶ枝2-1-15", "P29_006": "4", "P29_007": "0", "P29_008": "00", "P29_009": null }, "geometry": { "type": "Point", "coordinates": [ 140.48419212760345, 40.603937048878173 ] } },
{ "type": "Feature", "properties": { "P29_001": "02202", "P29_002": "A202310000436", "P29_003": "16013", "P29_004": "幼保連携型認定こども園駅前こども園分園", "P29_005": "青森県弘前市大町3-5-6", "P29_006": "4", "P29_007": "0", "P29_008": "00", "P29_009": null }, "geometry": { "type": "Point", "coordinates": [ 140.479720651942955, 40.596790808140923 ] } },
{ "type": "Feature", "properties": { "P29_001": "02202", "P29_002": "A202310000454", "P29_003": "16013", "P29_004": "城西こども園", "P29_005": "青森県弘前市西大工町38-1", "P29_006": "4", "P29_007": "0", "P29_008": "00", "P29_009": null }, "geometry": { "type": "Point", "coordinates": [ 140.45567587888317, 40.608467280311459 ] } },
{ "type": "Feature", "properties": { "P29_001": "02202", "P29_002": "A202310000463", "P29_003": "16013", "P29_004": "幼保連携型認定こども園寒沢保育園", "P29_005": "青森県弘前市寒沢町18-2", "P29_006": "4", "P29_007": "0", "P29_008": "00", "P29_009": null }, "geometry": { "type": "Point", "coordinates": [ 140.467544914017083, 40.588700625868135 ] } },
{ "type": "Feature", "properties": { "P29_001": "02202", "P29_002": "A202310000472", "P29_003": "16013", "P29_004": "幼保連携型認定こども園ようせい保育園", "P29_005": "青森県弘前市清野袋1-1-11", "P29_006": "4", "P29_007": "0", "P29_008": "00", "P29_009": null }, "geometry": { "type": "Point", "coordinates": [ 140.477333783798088, 40.628337267408483 ] } },
{ "type": "Feature", "properties": { "P29_001": "02202", "P29_002": "A202310000481", "P29_003": "16013", "P29_004": "幼保連携型認定末広こども園", "P29_005": "青森県弘前市末広4-1-6", "P29_006": "4", "P29_007": "0", "P29_008": "00", "P29_009": null }, "geometry": { "type": "Point", "coordinates": [ 140.502317679207664, 40.607773217307951 ] } },
{ "type": "Feature", "properties": { "P29_001": "02203", "P29_002": "A202310000490", "P29_003": "16013", "P29_004": "幼保連携型認定こども園青葉保育園", "P29_005": "青森県八戸市城下3-3-35", "P29_006": "4", "P29_007": "0", "P29_008": "00", "P29_009": null }, "geometry": { "type": "Point", "coordinates": [ 141.48557870732725, 40.520167139440439 ] } },
{ "type": "Feature", "properties": { "P29_001": "02203", "P29_002": "A202310000506", "P29_003": "16013", "P29_004": "類家保育園", "P29_005": "青森県八戸市諏訪3-9-19", "P29_006": "4", "P29_007": "0", "P29_008": "00", "P29_009": null }, "geometry": { "type": "Point", "coordinates": [ 141.515730166719266, 40.510076417504941 ] } },
{ "type": "Feature", "properties": { "P29_001": "02203", "P29_002": "A202310000515", "P29_003": "16013", "P29_004": "幼保連携型認定こども園中居林こども園", "P29_005": "青森県八戸市石手洗字油久保4-3", "P29_006": "4", "P29_007": "0", "P29_008": "00", "P29_009": null }, "geometry": { "type": "Point", "coordinates": [ 141.502676004477593, 40.488023002129253 ] } },
{ "type": "Feature", "properties": { "P29_001": "02203", "P29_002": "A202310000524", "P29_003": "16013", "P29_004": "幼保連携型認定こども園長坂保育園", "P29_005": "青森県八戸市根城8-8-34", "P29_006": "4", "P29_007": "0", "P29_008": "00", "P29_009": null }, "geometry": { "type": "Point", "coordinates": [ 141.464265740756787, 40.503958480104849 ] } },
{ "type": "Feature", "properties": { "P29_001": "02203", "P29_002": "A202310000533", "P29_003": "16013", "P29_004": "小久保保育園", "P29_005": "青森県八戸市桜ヶ丘2-35-46", "P29_006": "4", "P29_007": "0", "P29_008": "00", "P29_009": null }, "geometry": { "type": "Point", "coordinates": [ 141.546602873649732, 40.494260109724863 ] } },
{ "type": "Feature", "properties": { "P29_001": "02203", "P29_002": "A202310000542", "P29_003": "16013", "P29_004": "幼保連携型認定こども園小中野保育園", "P29_005": "青森県八戸市小中野3-3-53", "P29_006": "4", "P29_007": "0", "P29_008": "00", "P29_009": null }, "geometry": { "type": "Point", "coordinates": [ 141.511015588811659, 40.516890452243452 ] } },
{ "type": "Feature", "properties": { "P29_001": "02203", "P29_002": "A202310000551", "P29_003": "16013", "P29_004": "湊高台こども園", "P29_005": "青森県八戸市湊高台6-17-16", "P29_006": "4", "P29_007": "0", "P29_008": "00", "P29_009": null }, "geometry": { "type": "Point", "coordinates": [ 141.537788858018786, 40.511977744504854 ] } },
{ "type": "Feature", "properties": { "P29_001": "02203", "P29_002": "A202310000560", "P29_003": "16013", "P29_004": "白山台保育園", "P29_005": "青森県八戸市東白山台2-27-1", "P29_006": "4", "P29_007": "0", "P29_008": "00", "P29_009": null }, "geometry": { "type": "Point", "coordinates": [ 141.467197938203924, 40.481840719817633 ] } },
{ "type": "Feature", "properties": { "P29_001": "02203", "P29_002": "A202310000579", "P29_003": "16013", "P29_004": "認定こども園エンゼル子どもの家", "P29_005": "青森県八戸市根城7-3-8", "P29_006": "4", "P29_007": "0", "P29_008": "00", "P29_009": null }, "geometry": { "type": "Point", "coordinates": [ 141.470592559778595, 40.50166024934169 ] } },
{ "type": "Feature", "properties": { "P29_001": "02203", "P29_002": "A202310000588", "P29_003": "16013", "P29_004": "認定こども園さえずりの森", "P29_005": "青森県八戸市根城字西ノ沢30-35", "P29_006": "4", "P29_007": "0", "P29_008": "00", "P29_009": null }, "geometry": { "type": "Point", "coordinates": [ 141.456737996522037, 40.504695004287697 ] } },
{ "type": "Feature", "properties": { "P29_001": "02203", "P29_002": "A202310000597", "P29_003": "16013", "P29_004": "城下保育園", "P29_005": "青森県八戸市城下4-16-40", "P29_006": "4", "P29_007": "0", "P29_008": "00", "P29_009": null }, "geometry": { "type": "Point", "coordinates": [ 141.4933478722497, 40.52097008941243 ] } },
{ "type": "Feature", "properties": { "P29_001": "02203", "P29_002": "A202310000604", "P29_003": "16013", "P29_004": "日計こども園", "P29_005": "青森県八戸市河原木字日計上6-1", "P29_006": "4", "P29_007": "0", "P29_008": "00", "P29_009": null }, "geometry": { "type": "Point", "coordinates": [ 141.478469617116531, 40.545688541649248 ] } },
{ "type": "Feature", "properties": { "P29_001": "02203", "P29_002": "A202310000613", "P29_003": "16013", "P29_004": "認定こども園南売市保育園", "P29_005": "青森県八戸市売市1-8-10", "P29_006": "4", "P29_007": "0", "P29_008": "00", "P29_009": null }, "geometry": { "type": "Point", "coordinates": [ 141.47864222163787, 40.509959476969378 ] } },
{ "type": "Feature", "properties": { "P29_001": "02203", "P29_002": "A202310000622", "P29_003": "16013", "P29_004": "認定こども園根岸保育園", "P29_005": "青森県八戸市八太郎4-2-19", "P29_006": "4", "P29_007": "0", "P29_008": "00", "P29_009": null }, "geometry": { "type": "Point", "coordinates": [ 141.485636129838696, 40.541197256582997 ] } },
{ "type": "Feature", "properties": { "P29_001": "02203", "P29_002": "A202310000631", "P29_003": "16013", "P29_004": "おおくきこども園", "P29_005": "青森県八戸市鮫町字安川目8-1", "P29_006": "4", "P29_007": "0", "P29_008": "00", "P29_009": null }, "geometry": { "type": "Point", "coordinates": [ 141.623207125858244, 40.493587655059372 ] } },
{ "type": "Feature", "properties": { "P29_001": "02203", "P29_002": "A202310000640", "P29_003": "16013", "P29_004": "こばとこども園", "P29_005": "青森県八戸市沼館1-2-35", "P29_006": "4", "P29_007": "0", "P29_008": "00", "P29_009": null }, "geometry": { "type": "Point", "coordinates": [ 141.490977003465815, 40.524929997854493 ] } },
{ "type": "Feature", "properties": { "P29_001": "02203", "P29_002": "A202310000659", "P29_003": "16013", "P29_004": "松葉こども園", "P29_005": "青森県八戸市八幡字上ミ沢26-6", "P29_006": "4", "P29_007": "0", "P29_008": "00", "P29_009": null }, "geometry": { "type": "Point", "coordinates": [ 141.434418306877348, 40.48502039784691 ] } },
{ "type": "Feature", "properties": { "P29_001": "02203", "P29_002": "A202310000668", "P29_003": "16013", "P29_004": "認定こども園尻内保育園", "P29_005": "青森県八戸市尻内町字尻内8-5", "P29_006": "4", "P29_007": "0", "P29_008": "00", "P29_009": null }, "geometry": { "type": "Point", "coordinates": [ 141.440873414509412, 40.505648763489951 ] } },
{ "type": "Feature", "properties": { "P29_001": "02203", "P29_002": "A202310000677", "P29_003": "16013", "P29_004": "上田面木こども園", "P29_005": "青森県八戸市田面木字上田面木55-3", "P29_006": "4", "P29_007": "0", "P29_008": "00", "P29_009": null }, "geometry": { "type": "Point", "coordinates": [ 141.44414449724934, 40.498348520280508 ] } },
{ "type": "Feature", "properties": { "P29_001": "02203", "P29_002": "A202310000686", "P29_003": "16013", "P29_004": "こどもの城保育園", "P29_005": "青森県八戸市是川5-6-2", "P29_006": "4", "P29_007": "0", "P29_008": "00", "P29_009": null }, "geometry": { "type": "Point", "coordinates": [ 141.502088813746951, 40.467472119598845 ] } },
{ "type": "Feature", "properties": { "P29_001": "02203", "P29_002": "A202310000695", "P29_003": "16013", "P29_004": "認定こども園すぎのこ保育園", "P29_005": "青森県八戸市下長6-14-26", "P29_006": "4", "P29_007": "0", "P29_008": "00", "P29_009": null }, "geometry": { "type": "Point", "coordinates": [ 141.482453999591371, 40.535832999075431 ] } },
{ "type": "Feature", "properties": { "P29_001": "02203", "P29_002": "A202310000702", "P29_003": "16013", "P29_004": "幼保連携型認定こども園芽生保育園", "P29_005": "青森県八戸市田向5-17-13", "P29_006": "4", "P29_007": "0", "P29_008": "00", "P29_009": null }, "geometry": { "type": "Point", "coordinates": [ 141.513827002732086, 40.489351002888966 ] } },
{ "type": "Feature", "properties": { "P29_001": "02203", "P29_002": "A202310000711", "P29_003": "16013", "P29_004": "幼保連携型認定こども園江陽こども園", "P29_005": "青森県八戸市江陽2-19-10", "P29_006": "4", "P29_007": "0", "P29_008": "00", "P29_009": null }, "geometry": { "type": "Point", "coordinates": [ 141.50403678396529, 40.525199357621538 ] } },
{ "type": "Feature", "properties": { "P29_001": "02203", "P29_002": "A202310000720", "P29_003": "16013", "P29_004": "幼保連携型認定こども園ひまわり保育園", "P29_005": "青森県八戸市湊町ホロキ長根8-5", "P29_006": "4", "P29_007": "0", "P29_008": "00", "P29_009": null }, "geometry": { "type": "Point", "coordinates": [ 141.525592567380158, 40.519465403487452 ] } },
{ "type": "Feature", "properties": { "P29_001": "02203", "P29_002": "A202310000739", "P29_003": "16013", "P29_004": "認定こども園木の実園", "P29_005": "青森県八戸市新井田西1-16-8", "P29_006": "4", "P29_007": "0", "P29_008": "00", "P29_009": null }, "geometry": { "type": "Point", "coordinates": [ 141.520606092772852, 40.504301240974094 ] } },
{ "type": "Feature", "properties": { "P29_001": "02203", "P29_002": "A202310000748", "P29_003": "16013", "P29_004": "幼保連携型認定こども園むつみ保育園", "P29_005": "青森県八戸市十一日町57-3", "P29_006": "4", "P29_007": "0", "P29_008": "00", "P29_009": null }, "geometry": { "type": "Point", "coordinates": [ 141.495453004426309, 40.510398002312712 ] } },
{ "type": "Feature", "properties": { "P29_001": "02203", "P29_002": "A202310000757", "P29_003": "16013", "P29_004": "幼保連携型認定こども園河原木中央こども園", "P29_005": "青森県八戸市下長2-8-3", "P29_006": "4", "P29_007": "0", "P29_008": "00", "P29_009": null }, "geometry": { "type": "Point", "coordinates": [ 141.472408005363775, 40.531488996662638 ] } },
{ "type": "Feature", "properties": { "P29_001": "02203", "P29_002": "A202310000766", "P29_003": "16013", "P29_004": "明星こども園", "P29_005": "青森県八戸市白銀町字浜崖13-2", "P29_006": "4", "P29_007": "0", "P29_008": "00", "P29_009": null }, "geometry": { "type": "Point", "coordinates": [ 141.533731999484104, 40.522555001979015 ] } },
{ "type": "Feature", "properties": { "P29_001": "02203", "P29_002": "A202310000775", "P29_003": "16013", "P29_004": "根城こども園", "P29_005": "青森県八戸市根城3-5-21", "P29_006": "4", "P29_007": "0", "P29_008": "00", "P29_009": null }, "geometry": { "type": "Point", "coordinates": [ 141.476850004445964, 40.504067999928978 ] } },
{ "type": "Feature", "properties": { "P29_001": "02203", "P29_002": "A202310000784", "P29_003": "16013", "P29_004": "認定こども園さめ保育園", "P29_005": "青森県八戸市鮫町字上盲久保7-1", "P29_006": "4", "P29_007": "0", "P29_008": "00", "P29_009": null }, "geometry": { "type": "Point", "coordinates": [ 141.565340102477307, 40.536352470155116 ] } },
{ "type": "Feature", "properties": { "P29_001": "02203", "P29_002": "A202310000793", "P29_003": "16013", "P29_004": "認定こども園一日市保育園", "P29_005": "青森県八戸市櫛引字前田45-1", "P29_006": "4", "P29_007": "0", "P29_008": "00", "P29_009": null }, "geometry": { "type": "Point", "coordinates": [ 141.423892004007882, 40.493700998151617 ] } },
{ "type": "Feature", "properties": { "P29_001": "02203", "P29_002": "A202310000800", "P29_003": "16013", "P29_004": "認定こども園白銀台保育園", "P29_005": "青森県八戸市白銀台2-9-12", "P29_006": "4", "P29_007": "0", "P29_008": "00", "P29_009": null }, "geometry": { "type": "Point", "coordinates": [ 141.55870199858478, 40.515929003900403 ] } },
{ "type": "Feature", "properties": { "P29_001": "02203", "P29_002": "A202310000819", "P29_003": "16013", "P29_004": "認定こども園みどりのかぜエデュカーレ", "P29_005": "青森県八戸市西白山台4-3-5", "P29_006": "4", "P29_007": "0", "P29_008": "00", "P29_009": null }, "geometry": { "type": "Point", "coordinates": [ 141.454092000795839, 40.47913699812851 ] } },
{ "type": "Feature", "properties": { "P29_001": "02203", "P29_002": "A202310000828", "P29_003": "16013", "P29_004": "認定こども園みどりのかぜ北ウィング", "P29_005": "青森県八戸市西白山台4-1-16", "P29_006": "4", "P29_007": "0", "P29_008": "00", "P29_009": null }, "geometry": { "type": "Point", "coordinates": [ 141.454113559482579, 40.479565391710558 ] } },
{ "type": "Feature", "properties": { "P29_001": "02203", "P29_002": "A202310000837", "P29_003": "16013", "P29_004": "田面木こども園", "P29_005": "青森県八戸市田面木字赤坂17-1", "P29_006": "4", "P29_007": "0", "P29_008": "00", "P29_009": null }, "geometry": { "type": "Point", "coordinates": [ 141.45304399640483, 40.499676002875454 ] } },
{ "type": "Feature", "properties": { "P29_001": "02203", "P29_002": "A202310000846", "P29_003": "16013", "P29_004": "認定こども園千草保育園", "P29_005": "青森県八戸市小中野6-23-52", "P29_006": "4", "P29_007": "0", "P29_008": "00", "P29_009": null }, "geometry": { "type": "Point", "coordinates": [ 141.518101971723638, 40.518583536587933 ] } },
{ "type": "Feature", "properties": { "P29_001": "02203", "P29_002": "A202310000855", "P29_003": "16013", "P29_004": "旭ヶ丘こども園", "P29_005": "青森県八戸市旭ヶ丘5-1-40", "P29_006": "4", "P29_007": "0", "P29_008": "00", "P29_009": null }, "geometry": { "type": "Point", "coordinates": [ 141.537198474292296, 40.494925844709648 ] } },
{ "type": "Feature", "properties": { "P29_001": "02203", "P29_002": "A202310000864", "P29_003": "16013", "P29_004": "認定こども園三条保育園", "P29_005": "青森県八戸市尻内町字鴨ヶ池13-3", "P29_006": "4", "P29_007": "0", "P29_008": "00", "P29_009": null }, "geometry": { "type": "Point", "coordinates": [ 141.434304003004939, 40.513846002807995 ] } },
{ "type": "Feature", "properties": { "P29_001": "02203", "P29_002": "A202310000873", "P29_003": "16013", "P29_004": "幼保連携型認定こども園貴福保育園", "P29_005": "青森県八戸市新井田字門前1-2", "P29_006": "4", "P29_007": "0", "P29_008": "00", "P29_009": null }, "geometry": { "type": "Point", "coordinates": [ 141.52180599513602, 40.497957999726964 ] } },
{ "type": "Feature", "properties": { "P29_001": "02203", "P29_002": "A202310000882", "P29_003": "16013", "P29_004": "新井田こども園", "P29_005": "青森県八戸市新井田字坂10-6", "P29_006": "4", "P29_007": "0", "P29_008": "00", "P29_009": null }, "geometry": { "type": "Point", "coordinates": [ 141.523157827119064, 40.494487951490285 ] } },
{ "type": "Feature", "properties": { "P29_001": "02203", "P29_002": "A202310000891", "P29_003": "16013", "P29_004": "幼保連携型認定こども園ほうりん保育園", "P29_005": "青森県八戸市吹上1-4-4", "P29_006": "4", "P29_007": "0", "P29_008": "00", "P29_009": null }, "geometry": { "type": "Point", "coordinates": [ 141.496061642555475, 40.506717727452802 ] } },
{ "type": "Feature", "properties": { "P29_001": "02203", "P29_002": "A202310000908", "P29_003": "16013", "P29_004": "認定こども園多賀台保育園", "P29_005": "青森県八戸市多賀台3-11-1", "P29_006": "4", "P29_007": "0", "P29_008": "00", "P29_009": null }, "geometry": { "type": "Point", "coordinates": [ 141.444351537585078, 40.587612636354237 ] } },
{ "type": "Feature", "properties": { "P29_001": "02203", "P29_002": "A202310000917", "P29_003": "16013", "P29_004": "認定こども園藤覚保育園", "P29_005": "青森県八戸市吹上6-5-36", "P29_006": "4", "P29_007": "0", "P29_008": "00", "P29_009": null }, "geometry": { "type": "Point", "coordinates": [ 141.496834042789601, 40.492860219227886 ] } },
{ "type": "Feature", "properties": { "P29_001": "02203", "P29_002": "A202310000926", "P29_003": "16013", "P29_004": "下長こども園", "P29_005": "青森県八戸市長苗代島ノ後18-8", "P29_006": "4", "P29_007": "0", "P29_008": "00", "P29_009": null }, "geometry": { "type": "Point", "coordinates": [ 141.465047319378613, 40.526016940089974 ] } },
{ "type": "Feature", "properties": { "P29_001": "02205", "P29_002": "A202310000944", "P29_003": "16013", "P29_004": "こども園さかえ", "P29_005": "青森県五所川原市湊字船越224-3", "P29_006": "4", "P29_007": "0", "P29_008": "00", "P29_009": null }, "geometry": { "type": "Point", "coordinates": [ 140.445884631083572, 40.792495718130297 ] } },
{ "type": "Feature", "properties": { "P29_001": "02205", "P29_002": "A202310000953", "P29_003": "16013", "P29_004": "まつしま団地こども園", "P29_005": "青森県五所川原市漆川字浅井12-1", "P29_006": "4", "P29_007": "0", "P29_008": "00", "P29_009": null }, "geometry": { "type": "Point", "coordinates": [ 140.464931534424153, 40.80944935489984 ] } },
{ "type": "Feature", "properties": { "P29_001": "02205", "P29_002": "A202310000962", "P29_003": "16013", "P29_004": "こども園津軽野", "P29_005": "青森県五所川原市米田字八ッ橋67-2", "P29_006": "4", "P29_007": "0", "P29_008": "00", "P29_009": null }, "geometry": { "type": "Point", "coordinates": [ 140.473229067359568, 40.806213317110391 ] } },
{ "type": "Feature", "properties": { "P29_001": "02205", "P29_002": "A202310000971", "P29_003": "16013", "P29_004": "こども園長橋", "P29_005": "青森県五所川原市豊成字田子ノ浦70-5", "P29_006": "4", "P29_007": "0", "P29_008": "00", "P29_009": null }, "geometry": { "type": "Point", "coordinates": [ 140.516970156507057, 40.774567907304608 ] } },
{ "type": "Feature", "properties": { "P29_001": "02205", "P29_002": "A202310000980", "P29_003": "16013", "P29_004": "みどりの風こども園ひろた", "P29_005": "青森県五所川原市みどり町2-45-1", "P29_006": "4", "P29_007": "0", "P29_008": "00", "P29_009": null }, "geometry": { "type": "Point", "coordinates": [ 140.451608443463556, 40.787677788568772 ] } },
{ "type": "Feature", "properties": { "P29_001": "02205", "P29_002": "A202310000999", "P29_003": "16013", "P29_004": "みどりの風こども園かなぎ", "P29_005": "青森県五所川原市金木町菅原369-1", "P29_006": "4", "P29_007": "0", "P29_008": "00", "P29_009": null }, "geometry": { "type": "Point", "coordinates": [ 140.453928587227409, 40.896386018335491 ] } },
{ "type": "Feature", "properties": { "P29_001": "02205", "P29_002": "A202310001006", "P29_003": "16013", "P29_004": "認定こども園さくら保育園", "P29_005": "青森県五所川原市字蓮沼60-2", "P29_006": "4", "P29_007": "0", "P29_008": "00", "P29_009": null }, "geometry": { "type": "Point", "coordinates": [ 140.441636999567947, 40.798408001996165 ] } },
{ "type": "Feature", "properties": { "P29_001": "02205", "P29_002": "A202310001015", "P29_003": "16013", "P29_004": "認定こども園第一さつき", "P29_005": "青森県五所川原市字雛田162-34", "P29_006": "4", "P29_007": "0", "P29_008": "00", "P29_009": null }, "geometry": { "type": "Point", "coordinates": [ 140.449024304965292, 40.816099181089925 ] } },
{ "type": "Feature", "properties": { "P29_001": "02205", "P29_002": "A202310001024", "P29_003": "16013", "P29_004": "認定こども園第二さつき", "P29_005": "青森県五所川原市字下平井町21", "P29_006": "4", "P29_007": "0", "P29_008": "00", "P29_009": null }, "geometry": { "type": "Point", "coordinates": [ 140.44855252891881, 40.817642304685123 ] } },
{ "type": "Feature", "properties": { "P29_001": "02205", "P29_002": "A202310001033", "P29_003": "16013", "P29_004": "認定こども園たかたての森", "P29_005": "青森県五所川原市飯詰字狐野70-1", "P29_006": "4", "P29_007": "0", "P29_008": "00", "P29_009": null }, "geometry": { "type": "Point", "coordinates": [ 140.492099014117059, 40.822524032216307 ] } },
{ "type": "Feature", "properties": { "P29_001": "02205", "P29_002": "A202310001042", "P29_003": "16013", "P29_004": "認定こども園なおみ園", "P29_005": "青森県五所川原市みどり町4-126-1", "P29_006": "4", "P29_007": "0", "P29_008": "00", "P29_009": null }, "geometry": { "type": "Point", "coordinates": [ 140.458440981558539, 40.782817389722432 ] } },
{ "type": "Feature", "properties": { "P29_001": "02206", "P29_002": "A202310001051", "P29_003": "16013", "P29_004": "まるくこども園", "P29_005": "青森県十和田市深持字佐々木平234-1", "P29_006": "4", "P29_007": "0", "P29_008": "00", "P29_009": null }, "geometry": { "type": "Point", "coordinates": [ 141.164460000635103, 40.620294997584985 ] } },
{ "type": "Feature", "properties": { "P29_001": "02206", "P29_002": "A202310001060", "P29_003": "16013", "P29_004": "小さな森こども園", "P29_005": "青森県十和田市西二十一番町6-14", "P29_006": "4", "P29_007": "0", "P29_008": "00", "P29_009": null }, "geometry": { "type": "Point", "coordinates": [ 141.195377996862732, 40.61607399672161 ] } },
{ "type": "Feature", "properties": { "P29_001": "02206", "P29_002": "A202310001079", "P29_003": "16013", "P29_004": "認定こども園緑と太陽の保育園", "P29_005": "青森県十和田市東一番町10-18", "P29_006": "4", "P29_007": "0", "P29_008": "00", "P29_009": null }, "geometry": { "type": "Point", "coordinates": [ 141.217673000868274, 40.623537001096317 ] } },
{ "type": "Feature", "properties": { "P29_001": "02206", "P29_002": "A202310001088", "P29_003": "16013", "P29_004": "まきばのこども園", "P29_005": "青森県十和田市東二十三番町10-8", "P29_006": "4", "P29_007": "0", "P29_008": "00", "P29_009": null }, "geometry": { "type": "Point", "coordinates": [ 141.230288002265013, 40.621200001648603 ] } },
{ "type": "Feature", "properties": { "P29_001": "02206", "P29_002": "A202310001097", "P29_003": "16013", "P29_004": "みきの保育園", "P29_005": "青森県十和田市西三番町22-35", "P29_006": "4", "P29_007": "0", "P29_008": "00", "P29_009": null }, "geometry": { "type": "Point", "coordinates": [ 141.210063004870989, 40.610197004661273 ] } },
{ "type": "Feature", "properties": { "P29_001": "02206", "P29_002": "A202310001104", "P29_003": "16013", "P29_004": "十和田めぐみ保育園", "P29_005": "青森県十和田市西一番町5-51", "P29_006": "4", "P29_007": "0", "P29_008": "00", "P29_009": null }, "geometry": { "type": "Point", "coordinates": [ 141.205563001300703, 40.61970199931671 ] } },
{ "type": "Feature", "properties": { "P29_001": "02207", "P29_002": "A202310001113", "P29_003": "16013", "P29_004": "幼保連携型認定こども園浜三沢保育所", "P29_005": "青森県三沢市三沢字堀口6-12", "P29_006": "4", "P29_007": "0", "P29_008": "00", "P29_009": null }, "geometry": { "type": "Point", "coordinates": [ 141.399603004948631, 40.689813997301549 ] } },
{ "type": "Feature", "properties": { "P29_001": "02207", "P29_002": "A202310001122", "P29_003": "16013", "P29_004": "岡三沢こども園", "P29_005": "青森県三沢市岡三沢2-7-7", "P29_006": "4", "P29_007": "0", "P29_008": "00", "P29_009": null }, "geometry": { "type": "Point", "coordinates": [ 141.376311005299073, 40.688964001892998 ] } },
{ "type": "Feature", "properties": { "P29_001": "02207", "P29_002": "A202310001131", "P29_003": "16013", "P29_004": "愛子こども園", "P29_005": "青森県三沢市大町1-8-36", "P29_006": "4", "P29_007": "0", "P29_008": "00", "P29_009": null }, "geometry": { "type": "Point", "coordinates": [ 141.357179995193036, 40.679303002331594 ] } },
{ "type": "Feature", "properties": { "P29_001": "02207", "P29_002": "A202310001140", "P29_003": "16013", "P29_004": "平畑こども園", "P29_005": "青森県三沢市岡三沢8-93-2", "P29_006": "4", "P29_007": "0", "P29_008": "00", "P29_009": null }, "geometry": { "type": "Point", "coordinates": [ 141.368916998933912, 40.694646996602451 ] } },
{ "type": "Feature", "properties": { "P29_001": "02207", "P29_002": "A202310001159", "P29_003": "16013", "P29_004": "幼保連携型認定こども園チャリティー第一保育園", "P29_005": "青森県三沢市六川目2-101-1005", "P29_006": "4", "P29_007": "0", "P29_008": "00", "P29_009": null }, "geometry": { "type": "Point", "coordinates": [ 141.405162004252276, 40.76482500069072 ] } },
{ "type": "Feature", "properties": { "P29_001": "02207", "P29_002": "A202310001168", "P29_003": "16013", "P29_004": "幼保連携型認定こども園チャリティー第二保育園", "P29_005": "青森県三沢市東町1-9-21", "P29_006": "4", "P29_007": "0", "P29_008": "00", "P29_009": null }, "geometry": { "type": "Point", "coordinates": [ 141.375109002152584, 40.678236999449389 ] } },
{ "type": "Feature", "properties": { "P29_001": "02204", "P29_002": "A202310001177", "P29_003": "16013", "P29_004": "認定こども園美しの森", "P29_005": "青森県黒石市錦町17", "P29_006": "4", "P29_007": "0", "P29_008": "00", "P29_009": null }, "geometry": { "type": "Point", "coordinates": [ 140.602617006008899, 40.646880996772232 ] } },
{ "type": "Feature", "properties": { "P29_001": "02204", "P29_002": "A202310001186", "P29_003": "16013", "P29_004": "六郷保育園", "P29_005": "青森県黒石市三島字宮元93", "P29_006": "4", "P29_007": "0", "P29_008": "00", "P29_009": null }, "geometry": { "type": "Point", "coordinates": [ 140.622111448754254, 40.671089154672273 ] } },
{ "type": "Feature", "properties": { "P29_001": "02204", "P29_002": "A202310001195", "P29_003": "16013", "P29_004": "美郷こども園", "P29_005": "青森県黒石市追子野木2-181-1", "P29_006": "4", "P29_007": "0", "P29_008": "00", "P29_009": null }, "geometry": { "type": "Point", "coordinates": [ 140.584524351751554, 40.637767432410961 ] } },
{ "type": "Feature", "properties": { "P29_001": "02204", "P29_002": "A202310001202", "P29_003": "16013", "P29_004": "中郷こども園", "P29_005": "青森県黒石市末広67-11", "P29_006": "4", "P29_007": "0", "P29_008": "00", "P29_009": null }, "geometry": { "type": "Point", "coordinates": [ 140.595068848845045, 40.65796479070373 ] } },
{ "type": "Feature", "properties": { "P29_001": "02204", "P29_002": "A202310001211", "P29_003": "16013", "P29_004": "つくし第一こども園", "P29_005": "青森県黒石市小屋敷字宮岸20-5", "P29_006": "4", "P29_007": "0", "P29_008": "00", "P29_009": null }, "geometry": { "type": "Point", "coordinates": [ 140.595987998997998, 40.676364002984315 ] } },
{ "type": "Feature", "properties": { "P29_001": "02204", "P29_002": "A202310001220", "P29_003": "16013", "P29_004": "つくし第二こども園", "P29_005": "青森県黒石市作場町88-2", "P29_006": "4", "P29_007": "0", "P29_008": "00", "P29_009": null }, "geometry": { "type": "Point", "coordinates": [ 140.594018328182017, 40.653258216327394 ] } },
{ "type": "Feature", "properties": { "P29_001": "02209", "P29_002": "A202310001239", "P29_003": "16013", "P29_004": "幼保連携型認定こども園もりた保育園", "P29_005": "青森県つがる市森田町森田月見野12-5", "P29_006": "4", "P29_007": "0", "P29_008": "00", "P29_009": null }, "geometry": { "type": "Point", "coordinates": [ 140.345875564105398, 40.78056078962684 ] } },
{ "type": "Feature", "properties": { "P29_001": "02209", "P29_002": "A202310001248", "P29_003": "16013", "P29_004": "幼保連携型認定かしわこども園", "P29_005": "青森県つがる市柏桑野木田浅井45-1", "P29_006": "4", "P29_007": "0", "P29_008": "00", "P29_009": null }, "geometry": { "type": "Point", "coordinates": [ 140.408306997304436, 40.785203004752958 ] } },
{ "type": "Feature", "properties": { "P29_001": "02209", "P29_002": "A202310001257", "P29_003": "16013", "P29_004": "木造北こども園", "P29_005": "青森県つがる市木造大畑朽葉77", "P29_006": "4", "P29_007": "0", "P29_008": "00", "P29_009": null }, "geometry": { "type": "Point", "coordinates": [ 140.361599005078602, 40.834863000944225 ] } },
{ "type": "Feature", "properties": { "P29_001": "02209", "P29_002": "A202310001266", "P29_003": "16013", "P29_004": "銀杏ヶ丘こども園", "P29_005": "青森県つがる市木造浮巣31-5", "P29_006": "4", "P29_007": "0", "P29_008": "00", "P29_009": null }, "geometry": { "type": "Point", "coordinates": [ 140.388270628862131, 40.814965609548182 ] } },
{ "type": "Feature", "properties": { "P29_001": "02210", "P29_002": "A202310001275", "P29_003": "16013", "P29_004": "平賀保育園", "P29_005": "青森県平川市本町平野45-1", "P29_006": "4", "P29_007": "0", "P29_008": "00", "P29_009": null }, "geometry": { "type": "Point", "coordinates": [ 140.564778865248769, 40.588003851263807 ] } },
{ "type": "Feature", "properties": { "P29_001": "02210", "P29_002": "A202310001284", "P29_003": "16013", "P29_004": "こども園あらや", "P29_005": "青森県平川市新屋平野13-1", "P29_006": "4", "P29_007": "0", "P29_008": "00", "P29_009": null }, "geometry": { "type": "Point", "coordinates": [ 140.601993482957965, 40.589739676991023 ] } },
{ "type": "Feature", "properties": { "P29_001": "02210", "P29_002": "A202310001293", "P29_003": "16013", "P29_004": "尾上保育園", "P29_005": "青森県平川市原上原24-6", "P29_006": "4", "P29_007": "0", "P29_008": "00", "P29_009": null }, "geometry": { "type": "Point", "coordinates": [ 140.579857087182944, 40.618414395122578 ] } },
{ "type": "Feature", "properties": { "P29_001": "02210", "P29_002": "A202310001300", "P29_003": "16013", "P29_004": "からたけこども園", "P29_005": "青森県平川市新館東山102-2", "P29_006": "4", "P29_007": "0", "P29_008": "00", "P29_009": null }, "geometry": { "type": "Point", "coordinates": [ 140.590036880805627, 40.571624278100352 ] } },
{ "type": "Feature", "properties": { "P29_001": "02210", "P29_002": "A202310001319", "P29_003": "16013", "P29_004": "はすね子ども園", "P29_005": "青森県平川市猿賀明堂139-1", "P29_006": "4", "P29_007": "0", "P29_008": "00", "P29_009": null }, "geometry": { "type": "Point", "coordinates": [ 140.55120174387406, 40.616781689315793 ] } },
{ "type": "Feature", "properties": { "P29_001": "02210", "P29_002": "A202310001328", "P29_003": "16013", "P29_004": "幼保連携型認定こども園高城こども園", "P29_005": "青森県平川市高畑熊沢164-3", "P29_006": "4", "P29_007": "0", "P29_008": "00", "P29_009": null }, "geometry": { "type": "Point", "coordinates": [ 140.574773348606044, 40.567707560219382 ] } },
{ "type": "Feature", "properties": { "P29_001": "02210", "P29_002": "A202310001337", "P29_003": "16013", "P29_004": "日の出こども園", "P29_005": "青森県平川市南田中北原58-86", "P29_006": "4", "P29_007": "0", "P29_008": "00", "P29_009": null }, "geometry": { "type": "Point", "coordinates": [ 140.591388929961084, 40.613174946390565 ] } },
{ "type": "Feature", "properties": { "P29_001": "02210", "P29_002": "A202310001346", "P29_003": "16013", "P29_004": "幼保連携型認定こども園平川中央こども園", "P29_005": "青森県平川市柏木町東田65-2", "P29_006": "4", "P29_007": "0", "P29_008": "00", "P29_009": null }, "geometry": { "type": "Point", "coordinates": [ 140.571909600021684, 40.581358832906588 ] } },
{ "type": "Feature", "properties": { "P29_001": "02210", "P29_002": "A202310001355", "P29_003": "16013", "P29_004": "幼保連携型認定こども園大坊こども園", "P29_005": "青森県平川市大坊前田137-2", "P29_006": "4", "P29_007": "0", "P29_008": "00", "P29_009": null }, "geometry": { "type": "Point", "coordinates": [ 140.545104171311095, 40.569477467569214 ] } },
{ "type": "Feature", "properties": { "P29_001": "02210", "P29_002": "A202310001364", "P29_003": "16013", "P29_004": "幼保連携型認定こども園碇ヶ関中央こども園", "P29_005": "青森県平川市碇ヶ関鯨森92-1", "P29_006": "4", "P29_007": "0", "P29_008": "00", "P29_009": null }, "geometry": { "type": "Point", "coordinates": [ 140.627164952297562, 40.480468844652897 ] } },
{ "type": "Feature", "properties": { "P29_001": "02301", "P29_002": "A202310001373", "P29_003": "16013", "P29_004": "東和保育園", "P29_005": "青森県東津軽郡平内町小湊字前萢53-308", "P29_006": "4", "P29_007": "0", "P29_008": "00", "P29_009": null }, "geometry": { "type": "Point", "coordinates": [ 140.969312930362236, 40.936421205801601 ] } },
{ "type": "Feature", "properties": { "P29_001": "02303", "P29_002": "A202310001382", "P29_003": "16013", "P29_004": "幼保連携型認定こども園今別こども園", "P29_005": "青森県東津軽郡今別町今別字中沢165-1", "P29_006": "4", "P29_007": "0", "P29_008": "00", "P29_009": null }, "geometry": { "type": "Point", "coordinates": [ 140.49029785270389, 41.175795127455807 ] } },
{ "type": "Feature", "properties": { "P29_001": "02304", "P29_002": "A202310001391", "P29_003": "16013", "P29_004": "幼保連携型認定こども園蓬田保育園", "P29_005": "青森県東津軽郡蓬田村中沢字浪返48-2", "P29_006": "4", "P29_007": "0", "P29_008": "00", "P29_009": null }, "geometry": { "type": "Point", "coordinates": [ 140.65722616486687, 40.956870983218629 ] } },
{ "type": "Feature", "properties": { "P29_001": "02321", "P29_002": "A202310001408", "P29_003": "16013", "P29_004": "幼保連携型認定こども園舞戸保育所", "P29_005": "青森県西津軽郡鰺ヶ沢町舞戸町字下富田29-7", "P29_006": "4", "P29_007": "0", "P29_008": "00", "P29_009": null }, "geometry": { "type": "Point", "coordinates": [ 140.219257235700439, 40.776436277267969 ] } },
{ "type": "Feature", "properties": { "P29_001": "02323", "P29_002": "A202310001417", "P29_003": "16013", "P29_004": "めぐみ子ども園", "P29_005": "青森県西津軽郡深浦町関栃沢84-9", "P29_006": "4", "P29_007": "0", "P29_008": "00", "P29_009": null }, "geometry": { "type": "Point", "coordinates": [ 140.097306107822618, 40.745086716190528 ] } },
{ "type": "Feature", "properties": { "P29_001": "02361", "P29_002": "A202310001426", "P29_003": "16013", "P29_004": "ときわこども園", "P29_005": "青森県南津軽郡藤崎町若松字森越9-4", "P29_006": "4", "P29_007": "0", "P29_008": "00", "P29_009": null }, "geometry": { "type": "Point", "coordinates": [ 140.535579733777951, 40.667702362912138 ] } },
{ "type": "Feature", "properties": { "P29_001": "02361", "P29_002": "A202310001435", "P29_003": "16013", "P29_004": "みずきこども園", "P29_005": "青森県南津軽郡藤崎町水木字浅田111-2", "P29_006": "4", "P29_007": "0", "P29_008": "00", "P29_009": null }, "geometry": { "type": "Point", "coordinates": [ 140.536629074653746, 40.676127458769166 ] } },
{ "type": "Feature", "properties": { "P29_001": "02367", "P29_002": "A202310001444", "P29_003": "16013", "P29_004": "田舎館こども園", "P29_005": "青森県南津軽郡田舎館村川部字上船橋52-8", "P29_006": "4", "P29_007": "0", "P29_008": "00", "P29_009": null }, "geometry": { "type": "Point", "coordinates": [ 140.530389362160037, 40.647702421677749 ] } },
{ "type": "Feature", "properties": { "P29_001": "02381", "P29_002": "A202310001453", "P29_003": "16013", "P29_004": "幼保連携型認定こども園板柳第一保育所鶴住", "P29_005": "青森県北津軽郡板柳町灰沼字東1-6", "P29_006": "4", "P29_007": "0", "P29_008": "00", "P29_009": null }, "geometry": { "type": "Point", "coordinates": [ 140.452349901234044, 40.704483327180448 ] } },
{ "type": "Feature", "properties": { "P29_001": "02381", "P29_002": "A202310001462", "P29_003": "16013", "P29_004": "幼保連携型認定こども園板柳第三保育所鶴住", "P29_005": "青森県北津軽郡板柳町福野田字本泉36-19", "P29_006": "4", "P29_007": "0", "P29_008": "00", "P29_009": null }, "geometry": { "type": "Point", "coordinates": [ 140.462009997249538, 40.689464002204417 ] } },
{ "type": "Feature", "properties": { "P29_001": "02384", "P29_002": "A202310001471", "P29_003": "16013", "P29_004": "幼保連携型認定こども園つるた乳幼児園", "P29_005": "青森県北津軽郡鶴田町鶴田字相原68-2", "P29_006": "4", "P29_007": "0", "P29_008": "00", "P29_009": null }, "geometry": { "type": "Point", "coordinates": [ 140.433993664678667, 40.762359003744692 ] } },
{ "type": "Feature", "properties": { "P29_001": "02384", "P29_002": "A202310001480", "P29_003": "16013", "P29_004": "幼保連携型認定こども園ＮＯＧＩこども園", "P29_005": "青森県北津軽郡鶴田町野木字東松虫3-2", "P29_006": "4", "P29_007": "0", "P29_008": "00", "P29_009": null }, "geometry": { "type": "Point", "coordinates": [ 140.418920705020895, 40.745155410399484 ] } },
{ "type": "Feature", "properties": { "P29_001": "02384", "P29_002": "A202310001499", "P29_003": "16013", "P29_004": "認定こども園はやせ", "P29_005": "青森県北津軽郡鶴田町鶴田字早瀬60-4", "P29_006": "4", "P29_007": "0", "P29_008": "00", "P29_009": null }, "geometry": { "type": "Point", "coordinates": [ 140.427985002125297, 40.752784995944516 ] } },
{ "type": "Feature", "properties": { "P29_001": "02387", "P29_002": "A202310001505", "P29_003": "16013", "P29_004": "認定こども園中里こども園", "P29_005": "青森県北津軽郡中泊町中里字紅葉坂27-1", "P29_006": "4", "P29_007": "0", "P29_008": "00", "P29_009": null }, "geometry": { "type": "Point", "coordinates": [ 140.444360994819505, 40.963819997695069 ] } },
{ "type": "Feature", "properties": { "P29_001": "02387", "P29_002": "A202310001523", "P29_003": "16013", "P29_004": "認定こども園富野こども園", "P29_005": "青森県北津軽郡中泊町富野字千歳189-1", "P29_006": "4", "P29_007": "0", "P29_008": "00", "P29_009": null }, "geometry": { "type": "Point", "coordinates": [ 140.416362771132668, 40.937553101970487 ] } },
{ "type": "Feature", "properties": { "P29_001": "02387", "P29_002": "A202310001532", "P29_003": "16013", "P29_004": "認定こども園薄市こども園", "P29_005": "青森県北津軽郡中泊町薄市字飛石田野沢187-4", "P29_006": "4", "P29_007": "0", "P29_008": "00", "P29_009": null }, "geometry": { "type": "Point", "coordinates": [ 140.426167005035239, 41.009482004368422 ] } },
{ "type": "Feature", "properties": { "P29_001": "02402", "P29_002": "A202310001541", "P29_003": "16013", "P29_004": "幼保連携型認定こども園城南こども園", "P29_005": "青森県上北郡七戸町字天神林19-2", "P29_006": "4", "P29_007": "0", "P29_008": "00", "P29_009": null }, "geometry": { "type": "Point", "coordinates": [ 141.153723113816483, 40.691269589863815 ] } },
{ "type": "Feature", "properties": { "P29_001": "02402", "P29_002": "A202310001550", "P29_003": "16013", "P29_004": "幼保連携型認定こども園城北こども園", "P29_005": "青森県上北郡七戸町字蛇坂57-57", "P29_006": "4", "P29_007": "0", "P29_008": "00", "P29_009": null }, "geometry": { "type": "Point", "coordinates": [ 141.150739583424212, 40.712168473666409 ] } },
{ "type": "Feature", "properties": { "P29_001": "02402", "P29_002": "A202310001569", "P29_003": "16013", "P29_004": "幼保連携型認定こども園道ノ上こども園", "P29_005": "青森県上北郡七戸町字森ヶ沢280-1", "P29_006": "4", "P29_007": "0", "P29_008": "00", "P29_009": null }, "geometry": { "type": "Point", "coordinates": [ 141.160043513328446, 40.748631687896008 ] } },
{ "type": "Feature", "properties": { "P29_001": "02402", "P29_002": "A202310001578", "P29_003": "16013", "P29_004": "幼保連携型認定こども園榎林こども園", "P29_005": "青森県上北郡七戸町榎林字家ノ前40-1", "P29_006": "4", "P29_007": "0", "P29_008": "00", "P29_009": null }, "geometry": { "type": "Point", "coordinates": [ 141.219109145640971, 40.736627194992948 ] } },
{ "type": "Feature", "properties": { "P29_001": "02402", "P29_002": "A202310001587", "P29_003": "16013", "P29_004": "認定こども園チビッコるーむ", "P29_005": "青森県上北郡七戸町字道ノ上67-10", "P29_006": "4", "P29_007": "0", "P29_008": "00", "P29_009": null }, "geometry": { "type": "Point", "coordinates": [ 141.153005448378934, 40.746576508674842 ] } },
{ "type": "Feature", "properties": { "P29_001": "02405", "P29_002": "A202310001596", "P29_003": "16013", "P29_004": "幼保連携型認定こども園さつき保育園", "P29_005": "青森県上北郡六戸町犬落瀬字千刈田19-11", "P29_006": "4", "P29_007": "0", "P29_008": "00", "P29_009": null }, "geometry": { "type": "Point", "coordinates": [ 141.319807454467139, 40.604256214038301 ] } },
{ "type": "Feature", "properties": { "P29_001": "02405", "P29_002": "A202310001603", "P29_003": "16013", "P29_004": "幼保連携型認定こども園ひのでこども園", "P29_005": "青森県上北郡六戸町折茂字前田140-1", "P29_006": "4", "P29_007": "0", "P29_008": "00", "P29_009": null }, "geometry": { "type": "Point", "coordinates": [ 141.294439912004862, 40.604755141277678 ] } },
{ "type": "Feature", "properties": { "P29_001": "02408", "P29_002": "A202310001612", "P29_003": "16013", "P29_004": "幼保連携型認定こども園上野保育園", "P29_005": "青森県上北郡東北町上野字軍事屋敷3-5", "P29_006": "4", "P29_007": "0", "P29_008": "00", "P29_009": null }, "geometry": { "type": "Point", "coordinates": [ 141.244011448011918, 40.725774815907165 ] } },
{ "type": "Feature", "properties": { "P29_001": "02408", "P29_002": "A202310001621", "P29_003": "16013", "P29_004": "幼保連携型認定こども園中央ポプラ保育所", "P29_005": "青森県上北郡東北町字塔ノ沢山308-2", "P29_006": "4", "P29_007": "0", "P29_008": "00", "P29_009": null }, "geometry": { "type": "Point", "coordinates": [ 141.227223486996337, 40.780404887507302 ] } },
{ "type": "Feature", "properties": { "P29_001": "02408", "P29_002": "A202310001630", "P29_003": "16013", "P29_004": "幼保連携型認定こども園水喰保育園", "P29_005": "青森県上北郡東北町字切左坂道ノ上38-86", "P29_006": "4", "P29_007": "0", "P29_008": "00", "P29_009": null }, "geometry": { "type": "Point", "coordinates": [ 141.271255766357939, 40.82691057524864 ] } },
{ "type": "Feature", "properties": { "P29_001": "02408", "P29_002": "A202310001649", "P29_003": "16013", "P29_004": "幼保連携型認定こども園ポプラ保育園", "P29_005": "青森県上北郡東北町字往来の下34", "P29_006": "4", "P29_007": "0", "P29_008": "00", "P29_009": null }, "geometry": { "type": "Point", "coordinates": [ 141.280937628543654, 40.775197517124887 ] } },
{ "type": "Feature", "properties": { "P29_001": "02408", "P29_002": "A202310001658", "P29_003": "16013", "P29_004": "幼保連携型認定こども園乙供文化保育園", "P29_005": "青森県上北郡東北町字ほとけ沢105-1", "P29_006": "4", "P29_007": "0", "P29_008": "00", "P29_009": null }, "geometry": { "type": "Point", "coordinates": [ 141.215129936447198, 40.78420899346748 ] } },
{ "type": "Feature", "properties": { "P29_001": "02408", "P29_002": "A202310001667", "P29_003": "16013", "P29_004": "幼保連携型認定こども園カナリヤ保育園", "P29_005": "青森県上北郡東北町字和山平11-1", "P29_006": "4", "P29_007": "0", "P29_008": "00", "P29_009": null }, "geometry": { "type": "Point", "coordinates": [ 141.279289787962682, 40.778021664676714 ] } },
{ "type": "Feature", "properties": { "P29_001": "02412", "P29_002": "A202310001676", "P29_003": "16013", "P29_004": "幼保連携型認定こども園あゆみ保育園", "P29_005": "青森県上北郡おいらせ町後田23-3", "P29_006": "4", "P29_007": "0", "P29_008": "00", "P29_009": null }, "geometry": { "type": "Point", "coordinates": [ 141.43716599911869, 40.59842500453022 ] } },
{ "type": "Feature", "properties": { "P29_001": "02412", "P29_002": "A202310001685", "P29_003": "16013", "P29_004": "幼保連携型認定こども園錦ヶ丘保育園", "P29_005": "青森県上北郡おいらせ町瓢165-32", "P29_006": "4", "P29_007": "0", "P29_008": "00", "P29_009": null }, "geometry": { "type": "Point", "coordinates": [ 141.356299253818122, 40.611404759052888 ] } },
{ "type": "Feature", "properties": { "P29_001": "02412", "P29_002": "A202310001694", "P29_003": "16013", "P29_004": "幼保連携型認定こども園三田保育園", "P29_005": "青森県上北郡おいらせ町三本木74-28", "P29_006": "4", "P29_007": "0", "P29_008": "00", "P29_009": null }, "geometry": { "type": "Point", "coordinates": [ 141.406657520639925, 40.593897409592401 ] } },
{ "type": "Feature", "properties": { "P29_001": "02412", "P29_002": "A202310001701", "P29_003": "16013", "P29_004": "幼保連携型認定こども園二川目保育園", "P29_005": "青森県上北郡おいらせ町二川目3-53-2", "P29_006": "4", "P29_007": "0", "P29_008": "00", "P29_009": null }, "geometry": { "type": "Point", "coordinates": [ 141.435191175583583, 40.655694022246166 ] } },
{ "type": "Feature", "properties": { "P29_001": "02412", "P29_002": "A202310001710", "P29_003": "16013", "P29_004": "幼保連携型認定こども園おおぞら保育園", "P29_005": "青森県上北郡おいらせ町菜飯53-1", "P29_006": "4", "P29_007": "0", "P29_008": "00", "P29_009": null }, "geometry": { "type": "Point", "coordinates": [ 141.416584817458414, 40.599417213041662 ] } },
{ "type": "Feature", "properties": { "P29_001": "02412", "P29_002": "A202310001729", "P29_003": "16013", "P29_004": "下田こども園", "P29_005": "青森県上北郡おいらせ町立蛇78-5", "P29_006": "4", "P29_007": "0", "P29_008": "00", "P29_009": null }, "geometry": { "type": "Point", "coordinates": [ 141.385169277705359, 40.60210539749918 ] } },
{ "type": "Feature", "properties": { "P29_001": "02412", "P29_002": "A202310001738", "P29_003": "16013", "P29_004": "本村こども園", "P29_005": "青森県上北郡おいらせ町中谷地13", "P29_006": "4", "P29_007": "0", "P29_008": "00", "P29_009": null }, "geometry": { "type": "Point", "coordinates": [ 141.373711947392849, 40.59565880119505 ] } },
{ "type": "Feature", "properties": { "P29_001": "02412", "P29_002": "A202310001747", "P29_003": "16013", "P29_004": "幼保連携型認定こども園もりのか保育園", "P29_005": "青森県上北郡おいらせ町鶉久保山117-875", "P29_006": "4", "P29_007": "0", "P29_008": "00", "P29_009": null }, "geometry": { "type": "Point", "coordinates": [ 141.381104641795332, 40.661682396652125 ] } },
{ "type": "Feature", "properties": { "P29_001": "02412", "P29_002": "A202310001756", "P29_003": "16013", "P29_004": "幼保連携型認定こども園一川目保育園", "P29_005": "青森県上北郡おいらせ町一川目2-65-278", "P29_006": "4", "P29_007": "0", "P29_008": "00", "P29_009": null }, "geometry": { "type": "Point", "coordinates": [ 141.441861313844328, 40.633774745787704 ] } },
{ "type": "Feature", "properties": { "P29_001": "02412", "P29_002": "A202310001765", "P29_003": "16013", "P29_004": "幼保連携型認定こども園深沢保育園", "P29_005": "青森県上北郡おいらせ町深沢2-11-5", "P29_006": "4", "P29_007": "0", "P29_008": "00", "P29_009": null }, "geometry": { "type": "Point", "coordinates": [ 141.443350663400281, 40.627625560201281 ] } },
{ "type": "Feature", "properties": { "P29_001": "02412", "P29_002": "A202310001774", "P29_003": "16013", "P29_004": "幼保連携型認定こども園川口保育園", "P29_005": "青森県上北郡おいらせ町新田57", "P29_006": "4", "P29_007": "0", "P29_008": "00", "P29_009": null }, "geometry": { "type": "Point", "coordinates": [ 141.457528020995909, 40.604631927466649 ] } },
{ "type": "Feature", "properties": { "P29_001": "02412", "P29_002": "A202310001783", "P29_003": "16013", "P29_004": "菜の花こども園", "P29_005": "青森県上北郡おいらせ町緑ヶ丘2-50-1161", "P29_006": "4", "P29_007": "0", "P29_008": "00", "P29_009": null }, "geometry": { "type": "Point", "coordinates": [ 141.365991002811398, 40.662279998758351 ] } },
{ "type": "Feature", "properties": { "P29_001": "02412", "P29_002": "A202310001792", "P29_003": "16013", "P29_004": "認定こども園百石幼稚園", "P29_005": "青森県上北郡おいらせ町沼端14-75", "P29_006": "4", "P29_007": "0", "P29_008": "00", "P29_009": null }, "geometry": { "type": "Point", "coordinates": [ 141.445824580208466, 40.610867527109043 ] } },
{ "type": "Feature", "properties": { "P29_001": "02424", "P29_002": "A202310001809", "P29_003": "16013", "P29_004": "幼保連携型認定こども園こども園ひがしどおり", "P29_005": "青森県下北郡東通村砂子又字沢内9-35", "P29_006": "4", "P29_007": "0", "P29_008": "00", "P29_009": null }, "geometry": { "type": "Point", "coordinates": [ 141.331363994648171, 41.274403696340848 ] } },
{ "type": "Feature", "properties": { "P29_001": "02441", "P29_002": "A202310001818", "P29_003": "16013", "P29_004": "幼保連携型認定こども園ミューズ保育園", "P29_005": "青森県三戸郡三戸町川守田字落合62-2", "P29_006": "4", "P29_007": "0", "P29_008": "00", "P29_009": null }, "geometry": { "type": "Point", "coordinates": [ 141.267565076513989, 40.38892094154545 ] } },
{ "type": "Feature", "properties": { "P29_001": "02442", "P29_002": "A202310001827", "P29_003": "16013", "P29_004": "ひばりこども園", "P29_005": "青森県三戸郡五戸町字地蔵岱15-250", "P29_006": "4", "P29_007": "0", "P29_008": "00", "P29_009": null }, "geometry": { "type": "Point", "coordinates": [ 141.324499771282547, 40.512715816120632 ] } },
{ "type": "Feature", "properties": { "P29_001": "02442", "P29_002": "A202310001836", "P29_003": "16013", "P29_004": "川内こども園", "P29_005": "青森県三戸郡五戸町上市川字中平1-4", "P29_006": "4", "P29_007": "0", "P29_008": "00", "P29_009": null }, "geometry": { "type": "Point", "coordinates": [ 141.398695836979869, 40.562286686297853 ] } },
{ "type": "Feature", "properties": { "P29_001": "02442", "P29_002": "A202310001845", "P29_003": "16013", "P29_004": "くらいしこども園", "P29_005": "青森県三戸郡五戸町倉石中市字中市境田37", "P29_006": "4", "P29_007": "0", "P29_008": "00", "P29_009": null }, "geometry": { "type": "Point", "coordinates": [ 141.266815004778238, 40.512692999555902 ] } },
{ "type": "Feature", "properties": { "P29_001": "02442", "P29_002": "A202310001854", "P29_003": "16013", "P29_004": "幼保連携型認定こども園みゆき保育園", "P29_005": "青森県三戸郡五戸町字狐森北11-1", "P29_006": "4", "P29_007": "0", "P29_008": "00", "P29_009": null }, "geometry": { "type": "Point", "coordinates": [ 141.293524452782691, 40.521223994093042 ] } },
{ "type": "Feature", "properties": { "P29_001": "02442", "P29_002": "A202310001863", "P29_003": "16013", "P29_004": "めぐみ保育園", "P29_005": "青森県三戸郡五戸町字市川道十文字3-2", "P29_006": "4", "P29_007": "0", "P29_008": "00", "P29_009": null }, "geometry": { "type": "Point", "coordinates": [ 141.306061997247497, 40.52633599773938 ] } },
{ "type": "Feature", "properties": { "P29_001": "02446", "P29_002": "A202310001872", "P29_003": "16013", "P29_004": "幼保連携型認定こども園階上保育園", "P29_005": "青森県三戸郡階上町赤保内字柳沢15-346", "P29_006": "4", "P29_007": "0", "P29_008": "00", "P29_009": null }, "geometry": { "type": "Point", "coordinates": [ 141.611864035413873, 40.447942682679169 ] } },
{ "type": "Feature", "properties": { "P29_001": "02446", "P29_002": "A202310001881", "P29_003": "16013", "P29_004": "幼保連携型認定こども園はまゆりこども園", "P29_005": "青森県三戸郡階上町道仏字天当平1-327", "P29_006": "4", "P29_007": "0", "P29_008": "00", "P29_009": null }, "geometry": { "type": "Point", "coordinates": [ 141.622991903868808, 40.452421866273134 ] } },
{ "type": "Feature", "properties": { "P29_001": "02446", "P29_002": "A202310001890", "P29_003": "16013", "P29_004": "幼保連携型認定こども園石鉢保育園", "P29_005": "青森県三戸郡階上町角柄折字柳下6-15", "P29_006": "4", "P29_007": "0", "P29_008": "00", "P29_009": null }, "geometry": { "type": "Point", "coordinates": [ 141.576567032746084, 40.463337543219595 ] } },
{ "type": "Feature", "properties": { "P29_001": "02450", "P29_002": "A202310001907", "P29_003": "16013", "P29_004": "幼保連携型認定こども園しんごう保育園", "P29_005": "青森県三戸郡新郷村戸来字金ヶ沢坂ノ下21", "P29_006": "4", "P29_007": "0", "P29_008": "00", "P29_009": null }, "geometry": { "type": "Point", "coordinates": [ 141.175779334027908, 40.467545690826746 ] } },
{ "type": "Feature", "properties": { "P29_001": "02201", "P29_002": "A202310001916", "P29_003": "16013", "P29_004": "幼保連携型認定こども園すぎのこ幼稚園", "P29_005": "青森県青森市大野字前田75-3", "P29_006": "4", "P29_007": "0", "P29_008": "00", "P29_009": null }, "geometry": { "type": "Point", "coordinates": [ 140.736506099736545, 40.801636595111198 ] } },
{ "type": "Feature", "properties": { "P29_001": "02201", "P29_002": "A202310001925", "P29_003": "16013", "P29_004": "幼保連携型認定こども園第二すぎのこ幼稚園", "P29_005": "青森県青森市はまなす1-7-1", "P29_006": "4", "P29_007": "0", "P29_008": "00", "P29_009": null }, "geometry": { "type": "Point", "coordinates": [ 140.795635003160413, 40.825130000991663 ] } },
{ "type": "Feature", "properties": { "P29_001": "02201", "P29_002": "A202310001934", "P29_003": "16013", "P29_004": "幼保連携型認定こども園源内幼稚園", "P29_005": "青森県青森市富田1-26-33", "P29_006": "4", "P29_007": "0", "P29_008": "00", "P29_009": null }, "geometry": { "type": "Point", "coordinates": [ 140.721459323737179, 40.831409411550226 ] } },
{ "type": "Feature", "properties": { "P29_001": "02203", "P29_002": "A202310001952", "P29_003": "16013", "P29_004": "認定こども園八戸文化幼稚園", "P29_005": "青森県八戸市尻内字内田10-2", "P29_006": "4", "P29_007": "0", "P29_008": "00", "P29_009": null }, "geometry": { "type": "Point", "coordinates": [ 141.432165841152425, 40.516384128742679 ] } },
{ "type": "Feature", "properties": { "P29_001": "02203", "P29_002": "A202310001961", "P29_003": "16013", "P29_004": "認定こども園こもれびのもり幼稚園", "P29_005": "青森県八戸市北インター工業団地1-3-72", "P29_006": "4", "P29_007": "0", "P29_008": "00", "P29_009": null }, "geometry": { "type": "Point", "coordinates": [ 141.438478470916863, 40.546203502820845 ] } },
{ "type": "Feature", "properties": { "P29_001": "02203", "P29_002": "A202310001970", "P29_003": "16013", "P29_004": "マリアンハウス幼稚園", "P29_005": "青森県八戸市是川1-12-1", "P29_006": "4", "P29_007": "0", "P29_008": "00", "P29_009": null }, "geometry": { "type": "Point", "coordinates": [ 141.498624003798597, 40.467274997236757 ] } },
{ "type": "Feature", "properties": { "P29_001": "02203", "P29_002": "A202310001989", "P29_003": "16013", "P29_004": "認定こども園高館幼稚園", "P29_005": "青森県八戸市河原木字二階堀12-1", "P29_006": "4", "P29_007": "0", "P29_008": "00", "P29_009": null }, "geometry": { "type": "Point", "coordinates": [ 141.46032288935811, 40.545617865645212 ] } },
{ "type": "Feature", "properties": { "P29_001": "02203", "P29_002": "A202310001998", "P29_003": "16013", "P29_004": "八戸学院幼稚園", "P29_005": "青森県八戸市湊高台6-14-5", "P29_006": "4", "P29_007": "0", "P29_008": "00", "P29_009": null }, "geometry": { "type": "Point", "coordinates": [ 141.535941690759302, 40.512057356343647 ] } },
{ "type": "Feature", "properties": { "P29_001": "02206", "P29_002": "A202310002005", "P29_003": "16013", "P29_004": "さつき幼稚園", "P29_005": "青森県十和田市西十四番町19-13", "P29_006": "4", "P29_007": "0", "P29_008": "00", "P29_009": null }, "geometry": { "type": "Point", "coordinates": [ 141.210600410703051, 40.60402204897899 ] } },
{ "type": "Feature", "properties": { "P29_001": "02207", "P29_002": "A202310002014", "P29_003": "16013", "P29_004": "認定こども園三沢第一幼稚園", "P29_005": "青森県三沢市美野原2-12-19", "P29_006": "4", "P29_007": "0", "P29_008": "00", "P29_009": null }, "geometry": { "type": "Point", "coordinates": [ 141.376797145192626, 40.681611176603674 ] } },
{ "type": "Feature", "properties": { "P29_001": "02209", "P29_002": "A202310002023", "P29_003": "16013", "P29_004": "木造西幼稚園", "P29_005": "青森県つがる市木造越水字駒田6-1", "P29_006": "4", "P29_007": "0", "P29_008": "00", "P29_009": null }, "geometry": { "type": "Point", "coordinates": [ 140.301238410037996, 40.809674768891441 ] } },
{ "type": "Feature", "properties": { "P29_001": "02209", "P29_002": "A202310002032", "P29_003": "16013", "P29_004": "車力こども園", "P29_005": "青森県つがる市豊富町屏風山1-297", "P29_006": "4", "P29_007": "0", "P29_008": "00", "P29_009": null }, "geometry": { "type": "Point", "coordinates": [ 140.361594000154753, 40.966422996458178 ] } },
{ "type": "Feature", "properties": { "P29_001": "02307", "P29_002": "A202310002041", "P29_003": "16013", "P29_004": "風のまちこども園", "P29_005": "青森県東津軽郡外ヶ浜町字下蟹田122-5", "P29_006": "4", "P29_007": "0", "P29_008": "00", "P29_009": null }, "geometry": { "type": "Point", "coordinates": [ 140.641311580394841, 41.045301456059249 ] } },
{ "type": "Feature", "properties": { "P29_001": "02362", "P29_002": "A202310002050", "P29_003": "16013", "P29_004": "認定こども園おおわに文化幼稚園", "P29_005": "青森県南津軽郡大鰐町大鰐字前田15-1", "P29_006": "4", "P29_007": "0", "P29_008": "00", "P29_009": null }, "geometry": { "type": "Point", "coordinates": [ 140.57005502175241, 40.524061138216283 ] } },
{ "type": "Feature", "properties": { "P29_001": "02441", "P29_002": "A202310002069", "P29_003": "16013", "P29_004": "幼保連携型認定こども園いずみ幼稚園", "P29_005": "青森県三戸郡三戸町川守田字正浄寺20-1", "P29_006": "4", "P29_007": "0", "P29_008": "00", "P29_009": null }, "geometry": { "type": "Point", "coordinates": [ 141.250040002896213, 40.381430001844024 ] } },
{ "type": "Feature", "properties": { "P29_001": "02201", "P29_002": "A202310002078", "P29_003": "16013", "P29_004": "認定こども園ＳＨＩＮＪＯ", "P29_005": "青森県青森市新城字平岡252-4", "P29_006": "4", "P29_007": "0", "P29_008": "00", "P29_009": null }, "geometry": { "type": "Point", "coordinates": [ 140.67993052481188, 40.827784707600536 ] } },
{ "type": "Feature", "properties": { "P29_001": "02201", "P29_002": "A202310002087", "P29_003": "16013", "P29_004": "本郷保育園", "P29_005": "青森県青森市浪岡本郷字岸田17-2", "P29_006": "4", "P29_007": "0", "P29_008": "00", "P29_009": null }, "geometry": { "type": "Point", "coordinates": [ 140.616821970691518, 40.690723799073645 ] } },
{ "type": "Feature", "properties": { "P29_001": "02201", "P29_002": "A202310002096", "P29_003": "16013", "P29_004": "幼保連携型認定こども園浪岡中央保育園", "P29_005": "青森県青森市浪岡浪岡字若松84-2", "P29_006": "4", "P29_007": "0", "P29_008": "00", "P29_009": null }, "geometry": { "type": "Point", "coordinates": [ 140.591225998803793, 40.710350999209432 ] } },
{ "type": "Feature", "properties": { "P29_001": "02201", "P29_002": "A202310002103", "P29_003": "16013", "P29_004": "五本松保育園", "P29_005": "青森県青森市浪岡五本松字岡本13-4", "P29_006": "4", "P29_007": "0", "P29_008": "00", "P29_009": null }, "geometry": { "type": "Point", "coordinates": [ 140.611329413969202, 40.722183465690215 ] } },
{ "type": "Feature", "properties": { "P29_001": "02201", "P29_002": "A202310002112", "P29_003": "16013", "P29_004": "大釈迦保育園", "P29_005": "青森県青森市浪岡徳才子字早稲田95-1", "P29_006": "4", "P29_007": "0", "P29_008": "00", "P29_009": null }, "geometry": { "type": "Point", "coordinates": [ 140.588648019246449, 40.752640389510312 ] } },
{ "type": "Feature", "properties": { "P29_001": "02201", "P29_002": "A202310002121", "P29_003": "16013", "P29_004": "北中野保育園", "P29_005": "青森県青森市浪岡北中野字上嶋田38", "P29_006": "4", "P29_007": "0", "P29_008": "00", "P29_009": null }, "geometry": { "type": "Point", "coordinates": [ 140.605470039118558, 40.707704589403683 ] } },
{ "type": "Feature", "properties": { "P29_001": "02201", "P29_002": "A202310002130", "P29_003": "16013", "P29_004": "幼保連携型認定こども園いしえこども園分園", "P29_005": "青森県青森市石江3-16-5", "P29_006": "4", "P29_007": "0", "P29_008": "00", "P29_009": null }, "geometry": { "type": "Point", "coordinates": [ 140.6900886423538, 40.828115724788837 ] } },
{ "type": "Feature", "properties": { "P29_001": "02202", "P29_002": "A202310002149", "P29_003": "16013", "P29_004": "相馬こども園", "P29_005": "青森県弘前市紙漉沢字山越8-14", "P29_006": "4", "P29_007": "0", "P29_008": "00", "P29_009": null }, "geometry": { "type": "Point", "coordinates": [ 140.389856995726319, 40.58116500399381 ] } },
{ "type": "Feature", "properties": { "P29_001": "02203", "P29_002": "A202310002158", "P29_003": "16013", "P29_004": "認定こども園すみれ保育園", "P29_005": "青森県八戸市白銀町字中平31-3", "P29_006": "4", "P29_007": "0", "P29_008": "00", "P29_009": null }, "geometry": { "type": "Point", "coordinates": [ 141.552307965713595, 40.520533286926714 ] } },
{ "type": "Feature", "properties": { "P29_001": "02203", "P29_002": "A202310002167", "P29_003": "16013", "P29_004": "幼保連携型認定こども園サンフラワー保育園", "P29_005": "青森県八戸市糠塚字下屋敷6-3", "P29_006": "4", "P29_007": "0", "P29_008": "00", "P29_009": null }, "geometry": { "type": "Point", "coordinates": [ 141.481898481045192, 40.507314950386991 ] } },
{ "type": "Feature", "properties": { "P29_001": "02204", "P29_002": "A202310002176", "P29_003": "16013", "P29_004": "上十川保育園", "P29_005": "青森県黒石市上十川字大野1-8-5", "P29_006": "4", "P29_007": "0", "P29_008": "00", "P29_009": null }, "geometry": { "type": "Point", "coordinates": [ 140.622049974609581, 40.654910356082411 ] } },
{ "type": "Feature", "properties": { "P29_001": "02204", "P29_002": "A202310002185", "P29_003": "16013", "P29_004": "山形こども園", "P29_005": "青森県黒石市花巻字長坂南4-3", "P29_006": "4", "P29_007": "0", "P29_008": "00", "P29_009": null }, "geometry": { "type": "Point", "coordinates": [ 140.639788815165133, 40.626166132742391 ] } },
{ "type": "Feature", "properties": { "P29_001": "02204", "P29_002": "A202310002194", "P29_003": "16013", "P29_004": "あけぼのこども園", "P29_005": "青森県黒石市あけぼの町95", "P29_006": "4", "P29_007": "0", "P29_008": "00", "P29_009": null }, "geometry": { "type": "Point", "coordinates": [ 140.607767129165751, 40.6545948672875 ] } },
{ "type": "Feature", "properties": { "P29_001": "02205", "P29_002": "A202310002201", "P29_003": "16013", "P29_004": "こども園かまや", "P29_005": "青森県五所川原市鎌谷町510-16", "P29_006": "4", "P29_007": "0", "P29_008": "00", "P29_009": null }, "geometry": { "type": "Point", "coordinates": [ 140.448258511842397, 40.805810944918228 ] } },
{ "type": "Feature", "properties": { "P29_001": "02205", "P29_002": "A202310002210", "P29_003": "16013", "P29_004": "新宮団地こども園", "P29_005": "青森県五所川原市若葉2-1-8", "P29_006": "4", "P29_007": "0", "P29_008": "00", "P29_009": null }, "geometry": { "type": "Point", "coordinates": [ 140.44316857516327, 40.816978625959834 ] } },
{ "type": "Feature", "properties": { "P29_001": "02206", "P29_002": "A202310002229", "P29_003": "16013", "P29_004": "幼保連携型認定こども園チビッコハウス保育園", "P29_005": "青森県十和田市東二十一番町2-5", "P29_006": "4", "P29_007": "0", "P29_008": "00", "P29_009": null }, "geometry": { "type": "Point", "coordinates": [ 141.224002003590073, 40.62625199639367 ] } },
{ "type": "Feature", "properties": { "P29_001": "02207", "P29_002": "A202310002238", "P29_003": "16013", "P29_004": "幼保連携型認定こども園春日台保育園", "P29_005": "青森県三沢市春日台1-124-2", "P29_006": "4", "P29_007": "0", "P29_008": "00", "P29_009": null }, "geometry": { "type": "Point", "coordinates": [ 141.352146521578049, 40.668178677520331 ] } },
{ "type": "Feature", "properties": { "P29_001": "02207", "P29_002": "A202310002247", "P29_003": "16013", "P29_004": "幼保連携型認定こども園ふるまぎの森", "P29_005": "青森県三沢市古間木山80-2", "P29_006": "4", "P29_007": "0", "P29_008": "00", "P29_009": null }, "geometry": { "type": "Point", "coordinates": [ 141.35631499628974, 40.672607557035249 ] } },
{ "type": "Feature", "properties": { "P29_001": "02207", "P29_002": "A202310002256", "P29_003": "16013", "P29_004": "幼保連携型認定こども園おおつ保育園", "P29_005": "青森県三沢市大津2-12-366", "P29_006": "4", "P29_007": "0", "P29_008": "00", "P29_009": null }, "geometry": { "type": "Point", "coordinates": [ 141.417348535873771, 40.682449913209702 ] } },
{ "type": "Feature", "properties": { "P29_001": "02207", "P29_002": "A202310002265", "P29_003": "16013", "P29_004": "幼保連携型認定こども園淋代保育園", "P29_005": "青森県三沢市淋代3-43-7", "P29_006": "4", "P29_007": "0", "P29_008": "00", "P29_009": null }, "geometry": { "type": "Point", "coordinates": [ 141.413602216012606, 40.731291779448725 ] } },
{ "type": "Feature", "properties": { "P29_001": "02207", "P29_002": "A202310002274", "P29_003": "16013", "P29_004": "幼保連携型認定こども園三川目保育園", "P29_005": "青森県三沢市三川目3-145-105", "P29_006": "4", "P29_007": "0", "P29_008": "00", "P29_009": null }, "geometry": { "type": "Point", "coordinates": [ 141.430970336854926, 40.673648994791044 ] } },
{ "type": "Feature", "properties": { "P29_001": "02207", "P29_002": "A202310002283", "P29_003": "16013", "P29_004": "幼保連携型認定こども園鹿中保育園", "P29_005": "青森県三沢市鹿中2-145-478", "P29_006": "4", "P29_007": "0", "P29_008": "00", "P29_009": null }, "geometry": { "type": "Point", "coordinates": [ 141.424730837845146, 40.686618746777391 ] } },
{ "type": "Feature", "properties": { "P29_001": "02361", "P29_002": "A202310002292", "P29_003": "16013", "P29_004": "幼保連携型認定こども園ふじこども園", "P29_005": "青森県南津軽郡藤崎町藤崎字若松31-2", "P29_006": "4", "P29_007": "0", "P29_008": "00", "P29_009": null }, "geometry": { "type": "Point", "coordinates": [ 140.493489158524426, 40.65878412160464 ] } },
{ "type": "Feature", "properties": { "P29_001": "02405", "P29_002": "A202310002309", "P29_003": "16013", "P29_004": "幼保連携型認定こども園こども園えがお", "P29_005": "青森県上北郡六戸町小松ヶ丘4-77-1636", "P29_006": "4", "P29_007": "0", "P29_008": "00", "P29_009": null }, "geometry": { "type": "Point", "coordinates": [ 141.337249248024563, 40.661761417524694 ] } },
{ "type": "Feature", "properties": { "P29_001": "02362", "P29_002": "A202310002318", "P29_003": "16013", "P29_004": "認定こども園おおわに文化幼稚園あじゃら東分園", "P29_005": "青森県南津軽郡大鰐町長峰字前田334-7", "P29_006": "4", "P29_007": "0", "P29_008": "00", "P29_009": null }, "geometry": { "type": "Point", "coordinates": [ 140.601095042445451, 40.517738453398898 ] } },
{ "type": "Feature", "properties": { "P29_001": "02203", "P29_002": "A202310002327", "P29_003": "16013", "P29_004": "幼保連携型認定こども園小中野保育園分園", "P29_005": "青森県八戸市小中野3-1-68", "P29_006": "4", "P29_007": "0", "P29_008": "00", "P29_009": null }, "geometry": { "type": "Point", "coordinates": [ 141.510864185203474, 40.517299597096553 ] } },
{ "type": "Feature", "properties": { "P29_001": "02405", "P29_002": "A202310002336", "P29_003": "16013", "P29_004": "幼保連携型認定こども園こども園おひさま", "P29_005": "青森県上北郡六戸町犬落瀬字下久保174-1244", "P29_006": "4", "P29_007": "0", "P29_008": "00", "P29_009": null }, "geometry": { "type": "Point", "coordinates": [ 141.320222498130846, 40.632154395798253 ] } },
{ "type": "Feature", "properties": { "P29_001": "02445", "P29_002": "A202310002345", "P29_003": "16013", "P29_004": "チェリーこども園", "P29_005": "青森県三戸郡南部町下名久井字八森16-1", "P29_006": "4", "P29_007": "0", "P29_008": "00", "P29_009": null }, "geometry": { "type": "Point", "coordinates": [ 141.343217013614634, 40.437123723235409 ] } },
{ "type": "Feature", "properties": { "P29_001": "02445", "P29_002": "A202310002354", "P29_003": "16013", "P29_004": "なんぶこども園", "P29_005": "青森県三戸郡南部町沖田面字下村30-3", "P29_006": "4", "P29_007": "0", "P29_008": "00", "P29_009": null }, "geometry": { "type": "Point", "coordinates": [ 141.291864998601824, 40.415797996208575 ] } },
{ "type": "Feature", "properties": { "P29_001": "02445", "P29_002": "A202310002363", "P29_003": "16013", "P29_004": "福地こども園", "P29_005": "青森県三戸郡南部町福田字源次郎平19-1", "P29_006": "4", "P29_007": "0", "P29_008": "00", "P29_009": null }, "geometry": { "type": "Point", "coordinates": [ 141.383031492711979, 40.461549804685369 ] } },
{ "type": "Feature", "properties": { "P29_001": "02202", "P29_002": "A202310002372", "P29_003": "16013", "P29_004": "幼保連携型認定こども園分園ほりこし", "P29_005": "青森県弘前市大清水1-11-42", "P29_006": "4", "P29_007": "0", "P29_008": "00", "P29_009": null }, "geometry": { "type": "Point", "coordinates": [ 140.496536999374598, 40.581990897108284 ] } },
{ "type": "Feature", "properties": { "P29_001": "02201", "P29_002": "A202310002381", "P29_003": "16013", "P29_004": "幼保連携型認定こども園おおぼし保育園", "P29_005": "青森県青森市妙見3-6-10", "P29_006": "4", "P29_007": "0", "P29_008": "00", "P29_009": null }, "geometry": { "type": "Point", "coordinates": [ 140.765086658123835, 40.788643951989165 ] } },
{ "type": "Feature", "properties": { "P29_001": "02201", "P29_002": "A202310002390", "P29_003": "16013", "P29_004": "幼保連携型認定こども園さんない", "P29_005": "青森県青森市石江字江渡6-7", "P29_006": "4", "P29_007": "0", "P29_008": "00", "P29_009": null }, "geometry": { "type": "Point", "coordinates": [ 140.703140896892819, 40.82423895430933 ] } },
{ "type": "Feature", "properties": { "P29_001": "02201", "P29_002": "A202310002407", "P29_003": "16013", "P29_004": "幼保連携型認定こども園おくない", "P29_005": "青森県青森市奥内字宮田568-2", "P29_006": "4", "P29_007": "0", "P29_008": "00", "P29_009": null }, "geometry": { "type": "Point", "coordinates": [ 140.671781055974009, 40.889025678860918 ] } },
{ "type": "Feature", "properties": { "P29_001": "02202", "P29_002": "A202310002416", "P29_003": "16013", "P29_004": "幼保連携型認定こども園城南こども園", "P29_005": "青森県弘前市城南1-10-4", "P29_006": "4", "P29_007": "0", "P29_008": "00", "P29_009": null }, "geometry": { "type": "Point", "coordinates": [ 140.472183963211393, 40.577820122859038 ] } },
{ "type": "Feature", "properties": { "P29_001": "02204", "P29_002": "A202310002425", "P29_003": "16013", "P29_004": "幼保連携型認定こども園黒石保善園", "P29_005": "青森県黒石市西ヶ丘63", "P29_006": "4", "P29_007": "0", "P29_008": "00", "P29_009": null }, "geometry": { "type": "Point", "coordinates": [ 140.584013946262104, 40.646995095114413 ] } },
{ "type": "Feature", "properties": { "P29_001": "02443", "P29_002": "A202310002434", "P29_003": "16013", "P29_004": "認定こども園たっここども園", "P29_005": "青森県三戸郡田子町田子字天神堂向72", "P29_006": "4", "P29_007": "0", "P29_008": "00", "P29_009": null }, "geometry": { "type": "Point", "coordinates": [ 141.158702633978464, 40.341017214253704 ] } },
{ "type": "Feature", "properties": { "P29_001": "02443", "P29_002": "A202310002443", "P29_003": "16013", "P29_004": "認定こども園かみごうこども園", "P29_005": "青森県三戸郡田子町石亀字道地56-2", "P29_006": "4", "P29_007": "0", "P29_008": "00", "P29_009": null }, "geometry": { "type": "Point", "coordinates": [ 141.099787000795402, 40.305567999257242 ] } },
{ "type": "Feature", "properties": { "P29_001": "02208", "P29_002": "A202310002452", "P29_003": "16013", "P29_004": "学校法人星美学園幼保連携型認定こども園星美幼稚園", "P29_005": "青森県むつ市金谷1-9-11", "P29_006": "4", "P29_007": "0", "P29_008": "00", "P29_009": null }, "geometry": { "type": "Point", "coordinates": [ 141.199505386362461, 41.295863738482623 ] } },
{ "type": "Feature", "properties": { "P29_001": "02202", "P29_002": "A202310002461", "P29_003": "16013", "P29_004": "幼保連携型認定こども園みどり幼稚園", "P29_005": "青森県弘前市新寺町156-4", "P29_006": "4", "P29_007": "0", "P29_008": "00", "P29_009": null }, "geometry": { "type": "Point", "coordinates": [ 140.459655804947403, 40.59359873804263 ] } },
{ "type": "Feature", "properties": { "P29_001": "02202", "P29_002": "A202310002470", "P29_003": "16013", "P29_004": "幼保連携型認定こども園弘前すみれ第Ⅱ保育園こどもの城", "P29_005": "青森県弘前市東和徳町12-2", "P29_006": "4", "P29_007": "0", "P29_008": "00", "P29_009": null }, "geometry": { "type": "Point", "coordinates": [ 140.483648263492967, 40.606713105355261 ] } },
{ "type": "Feature", "properties": { "P29_001": "02210", "P29_002": "A202310002489", "P29_003": "16013", "P29_004": "町居こども園", "P29_005": "青森県平川市町居字西田199-4", "P29_006": "4", "P29_007": "0", "P29_008": "00", "P29_009": null }, "geometry": { "type": "Point", "coordinates": [ 140.576835996090381, 40.587302318961115 ] } },
{ "type": "Feature", "properties": { "P29_001": "02210", "P29_002": "A202310002498", "P29_003": "16013", "P29_004": "幼保連携型認定こども園松崎保育園", "P29_005": "青森県平川市苗生松字下東田161-2", "P29_006": "4", "P29_007": "0", "P29_008": "00", "P29_009": null }, "geometry": { "type": "Point", "coordinates": [ 140.539133937873942, 40.594444084455056 ] } },
{ "type": "Feature", "properties": { "P29_001": "02208", "P29_002": "A202310002504", "P29_003": "16013", "P29_004": "よしのこども園", "P29_005": "青森県むつ市緑町17-8", "P29_006": "4", "P29_007": "0", "P29_008": "00", "P29_009": null }, "geometry": { "type": "Point", "coordinates": [ 141.197956627034046, 41.288208636638601 ] } },
{ "type": "Feature", "properties": { "P29_001": "02206", "P29_002": "A202310002514", "P29_003": "16013", "P29_004": "認定こども園生きがい十和田", "P29_005": "青森県十和田市三本木字一本木沢48-2", "P29_006": "4", "P29_007": "0", "P29_008": "00", "P29_009": null }, "geometry": { "type": "Point", "coordinates": [ 141.233641395583248, 40.634039030612058 ] } }
]
}
