{
"type": "FeatureCollection",
"name": "geo_02_特定施設入居者生活介護（有料老人ホーム）",
"crs": { "type": "name", "properties": { "name": "urn:ogc:def:crs:OGC:1.3:CRS84" } },
"features": [
{ "type": "Feature", "properties": { "内容": "介護付有料老人ホーム　シーガル【特定施設入居者生活介護（有料老人ホーム）】青森県八戸市湊高台二丁目３番２号", "url": "https://www.kaigokensaku.mhlw.go.jp/02/index.php?action_kouhyou_detail_004_kani=true&JigyosyoCd=0270301450-00&ServiceCd=331&Type=search", "url2": "http://www.heiwa-hp.or.jp/seagull/seagull.html" }, "geometry": { "type": "Point", "coordinates": [ 141.536664011639488, 40.506650478731167 ] } },
{ "type": "Feature", "properties": { "内容": "介護付有料老人ホーム生協たむかいの家【特定施設入居者生活介護（有料老人ホーム）】青森県八戸市田向４丁目13-8", "url": "https://www.kaigokensaku.mhlw.go.jp/02/index.php?action_kouhyou_detail_004_kani=true&JigyosyoCd=0270304298-00&ServiceCd=331&Type=search", "url2": "https://www.hachinohe-iryou.jp/" }, "geometry": { "type": "Point", "coordinates": [ 141.5072973, 40.4884694 ] } },
{ "type": "Feature", "properties": { "内容": "介護付有料老人ホームサポージュ是川【特定施設入居者生活介護（有料老人ホーム）】是川四丁目３番地３", "url": "https://www.kaigokensaku.mhlw.go.jp/02/index.php?action_kouhyou_detail_004_kani=true&JigyosyoCd=0270304330-00&ServiceCd=331&Type=search", "url2": "https:www.medicalfrontier.or.jp" }, "geometry": { "type": "Point", "coordinates": [ 141.5024261, 40.4688158 ] } },
{ "type": "Feature", "properties": { "内容": "クローバーズ・ピア八戸ひまわりの家【特定施設入居者生活介護（有料老人ホーム）】青森県八戸市江陽二丁目13番33号", "url": "https://www.kaigokensaku.mhlw.go.jp/02/index.php?action_kouhyou_detail_004_kani=true&JigyosyoCd=0270302912-00&ServiceCd=331&Type=search", "url2": "http://www.net-pier.org" }, "geometry": { "type": "Point", "coordinates": [ 141.5021494, 40.5246184 ] } },
{ "type": "Feature", "properties": { "内容": "特定有料老人ホームクローバーズ・アネックス【特定施設入居者生活介護（有料老人ホーム）】青森県八戸市南郷大字市野沢字山陣屋３６－５０", "url": "https://www.kaigokensaku.mhlw.go.jp/02/index.php?action_kouhyou_detail_004_kani=true&JigyosyoCd=0272700758-00&ServiceCd=331&Type=search", "url2": "https://www.net-pier.org" }, "geometry": { "type": "Point", "coordinates": [ 141.452150599999982, 40.4057793 ] } },
{ "type": "Feature", "properties": { "内容": "松園ひばり苑【特定施設入居者生活介護（有料老人ホーム）】青森県三沢市松園町二丁目21-7", "url": "https://www.kaigokensaku.mhlw.go.jp/02/index.php?action_kouhyou_detail_004_kani=true&JigyosyoCd=0270700230-00&ServiceCd=331&Type=search", "url2": "https://www.joukoukai.or.jp" }, "geometry": { "type": "Point", "coordinates": [ 141.36654048832591, 40.675469469544957 ] } },
{ "type": "Feature", "properties": { "内容": "松園ケアラウンジ・スカイ【特定施設入居者生活介護（有料老人ホーム）】青森県三沢市松園町二丁目７－７", "url": "https://www.kaigokensaku.mhlw.go.jp/02/index.php?action_kouhyou_detail_004_kani=true&JigyosyoCd=0270700354-00&ServiceCd=331&Type=search", "url2": "http://www.rakuseikai.or.jp/" }, "geometry": { "type": "Point", "coordinates": [ 141.367529399999967, 40.6768426 ] } },
{ "type": "Feature", "properties": { "内容": "堀口ひばり苑【特定施設入居者生活介護（有料老人ホーム）】三沢市大字三沢字堀口164-291", "url": "https://www.kaigokensaku.mhlw.go.jp/02/index.php?action_kouhyou_detail_004_kani=true&JigyosyoCd=0270700503-00&ServiceCd=331&Type=search", "url2": "http://www.joukoukai.or.jp/" }, "geometry": { "type": "Point", "coordinates": [ 141.388828, 40.6679107 ] } },
{ "type": "Feature", "properties": { "内容": "介護付き有料老人ホームひばりの【特定施設入居者生活介護（有料老人ホーム）】青森県三戸郡五戸町字苗代沢3-653", "url": "https://www.kaigokensaku.mhlw.go.jp/02/index.php?action_kouhyou_detail_004_kani=true&JigyosyoCd=0272702135-00&ServiceCd=331&Type=search", "url2": null }, "geometry": { "type": "Point", "coordinates": [ 141.3292499, 40.512766 ] } }
]
}
