{
"type": "FeatureCollection",
"name": "geo_02_短期大学",
"crs": { "type": "name", "properties": { "name": "urn:ogc:def:crs:EPSG::6668" } },
"features": [
{ "type": "Feature", "properties": { "P29_001": "02201", "P29_002": "F202310100675", "P29_003": "16006", "P29_004": "青森明の星短期大学", "P29_005": "青森県青森市浪打2-6-32", "P29_006": "4", "P29_007": "0", "P29_008": "00", "P29_009": null }, "geometry": { "type": "Point", "coordinates": [ 140.782188102353388, 40.823771238329016 ] } },
{ "type": "Feature", "properties": { "P29_001": "02202", "P29_002": "F202310100684", "P29_003": "16006", "P29_004": "柴田学園大学短期大学部", "P29_005": "青森県弘前市上瓦ケ町25", "P29_006": "4", "P29_007": "0", "P29_008": "00", "P29_009": null }, "geometry": { "type": "Point", "coordinates": [ 140.47674486641148, 40.600558406516463 ] } },
{ "type": "Feature", "properties": { "P29_001": "02201", "P29_002": "F202310100693", "P29_003": "16006", "P29_004": "青森中央短期大学", "P29_005": "青森県青森市大字横内字神田12-1", "P29_006": "4", "P29_007": "0", "P29_008": "00", "P29_009": null }, "geometry": { "type": "Point", "coordinates": [ 140.761762270807594, 40.784053471379202 ] } },
{ "type": "Feature", "properties": { "P29_001": "02203", "P29_002": "F202310100700", "P29_003": "16006", "P29_004": "八戸学院大学短期大学部", "P29_005": "青森県八戸市大字美保野13-384", "P29_006": "4", "P29_007": "0", "P29_008": "00", "P29_009": null }, "geometry": { "type": "Point", "coordinates": [ 141.58662549822489, 40.484568299039182 ] } },
{ "type": "Feature", "properties": { "P29_001": "02202", "P29_002": "F202310100719", "P29_003": "16006", "P29_004": "弘前医療福祉大学短期大学部", "P29_005": "青森県弘前市小比内3-18-1", "P29_006": "4", "P29_007": "0", "P29_008": "00", "P29_009": null }, "geometry": { "type": "Point", "coordinates": [ 140.50041000251278, 40.588512000902448 ] } }
]
}
