{
"type": "FeatureCollection",
"name": "geo_02_大学",
"crs": { "type": "name", "properties": { "name": "urn:ogc:def:crs:EPSG::6668" } },
"features": [
{ "type": "Feature", "properties": { "P29_001": "02202", "P29_002": "F102110100572", "P29_003": "16007", "P29_004": "弘前大学", "P29_005": "青森県弘前市文京町1", "P29_006": "1", "P29_007": "0", "P29_008": "01", "P29_009": "文京町キャンパス" }, "geometry": { "type": "Point", "coordinates": [ 140.471275980592509, 40.589170257724689 ] } },
{ "type": "Feature", "properties": { "P29_001": "02201", "P29_002": "F102210100589", "P29_003": "16007", "P29_004": "青森公立大学", "P29_005": "青森県青森市大字合子沢字山崎153-4", "P29_006": "3", "P29_007": "0", "P29_008": "00", "P29_009": null }, "geometry": { "type": "Point", "coordinates": [ 140.772257424699092, 40.751903614619586 ] } },
{ "type": "Feature", "properties": { "P29_001": "02201", "P29_002": "F102210100598", "P29_003": "16007", "P29_004": "青森県立保健大学", "P29_005": "青森県青森市大字浜館字間瀬58-1", "P29_006": "2", "P29_007": "0", "P29_008": "00", "P29_009": null }, "geometry": { "type": "Point", "coordinates": [ 140.792118476447683, 40.814181811829059 ] } },
{ "type": "Feature", "properties": { "P29_001": "02201", "P29_002": "F102310100603", "P29_003": "16007", "P29_004": "青森大学", "P29_005": "青森県青森市幸畑2-3-1", "P29_006": "4", "P29_007": "0", "P29_008": "00", "P29_009": null }, "geometry": { "type": "Point", "coordinates": [ 140.781011063151055, 40.783937526164742 ] } },
{ "type": "Feature", "properties": { "P29_001": "02202", "P29_002": "F102310100612", "P29_003": "16007", "P29_004": "柴田学園大学", "P29_005": "青森県弘前市清原1-1-16", "P29_006": "4", "P29_007": "0", "P29_008": "00", "P29_009": null }, "geometry": { "type": "Point", "coordinates": [ 140.485313560916666, 40.580406688236835 ] } },
{ "type": "Feature", "properties": { "P29_001": "02202", "P29_002": "F102310100621", "P29_003": "16007", "P29_004": "弘前学院大学", "P29_005": "青森県弘前市稔町13-1", "P29_006": "4", "P29_007": "0", "P29_008": "01", "P29_009": null }, "geometry": { "type": "Point", "coordinates": [ 140.467945040309445, 40.584222441284865 ] } },
{ "type": "Feature", "properties": { "P29_001": "02203", "P29_002": "F102310100630", "P29_003": "16007", "P29_004": "八戸工業大学", "P29_005": "青森県八戸市大字妙字大開88-1", "P29_006": "4", "P29_007": "0", "P29_008": "00", "P29_009": null }, "geometry": { "type": "Point", "coordinates": [ 141.562176472905833, 40.479212439099847 ] } },
{ "type": "Feature", "properties": { "P29_001": "02203", "P29_002": "F102310100649", "P29_003": "16007", "P29_004": "八戸学院大学", "P29_005": "青森県八戸市大字美保野13-98", "P29_006": "4", "P29_007": "0", "P29_008": "00", "P29_009": null }, "geometry": { "type": "Point", "coordinates": [ 141.590917270283256, 40.485699312194775 ] } },
{ "type": "Feature", "properties": { "P29_001": "02201", "P29_002": "F102310100658", "P29_003": "16007", "P29_004": "青森中央学院大学", "P29_005": "青森県青森市大字横内字神田12", "P29_006": "4", "P29_007": "0", "P29_008": "00", "P29_009": null }, "geometry": { "type": "Point", "coordinates": [ 140.761773900116424, 40.784302523084975 ] } },
{ "type": "Feature", "properties": { "P29_001": "02202", "P29_002": "F102310100667", "P29_003": "16007", "P29_004": "弘前医療福祉大学", "P29_005": "青森県弘前市大字小比内3-18-1", "P29_006": "4", "P29_007": "0", "P29_008": "00", "P29_009": null }, "geometry": { "type": "Point", "coordinates": [ 140.500010266192248, 40.588731935682119 ] } },
{ "type": "Feature", "properties": { "P29_001": "02202", "P29_002": "F102110100572", "P29_003": "16007", "P29_004": "弘前大学", "P29_005": "青森県弘前市在府町5", "P29_006": "1", "P29_007": "0", "P29_008": "02", "P29_009": "本町キャンパス" }, "geometry": { "type": "Point", "coordinates": [ 140.467104730313594, 40.600144034579365 ] } },
{ "type": "Feature", "properties": { "P29_001": "02202", "P29_002": "F102110100572", "P29_003": "16007", "P29_004": "弘前大学", "P29_005": "青森県弘前市文京町3", "P29_006": "1", "P29_007": "0", "P29_008": "03", "P29_009": "文京町キャンパス" }, "geometry": { "type": "Point", "coordinates": [ 140.472558972133186, 40.588554234368779 ] } },
{ "type": "Feature", "properties": { "P29_001": "02202", "P29_002": "F102310100621", "P29_003": "16007", "P29_004": "弘前学院大学", "P29_005": "青森県弘前市稔町20-7", "P29_006": "4", "P29_007": "0", "P29_008": "02", "P29_009": "看護学部棟" }, "geometry": { "type": "Point", "coordinates": [ 140.464882769948332, 40.583186720669673 ] } },
{ "type": "Feature", "properties": { "P29_001": "02206", "P29_002": "F113310102966", "P29_003": "16007", "P29_004": "北里大学", "P29_005": "青森県十和田市東23番町35-1", "P29_006": "4", "P29_007": "0", "P29_008": "02", "P29_009": "十和田キャンパス" }, "geometry": { "type": "Point", "coordinates": [ 141.236629689559123, 40.624145414380472 ] } }
]
}
